Datetime,Temperature,Apparent Temperature,Cloud Cover,Dew Point,DHI,DNI,Solar Zenith Angle,GHI,Pod,Precipitation,Pressure,Relative Humidity,Sea Level Pressure,Snow Depth,Solar Radiation,Visibility,Weather Description,Weather Code,Weather Icon,Wind Direction,Wind Gust Speed,Wind Speed
2022-07-01T00:00:00,16,16,38,8,0,0,-12.6,0,n,0,898,59,1020,0,0,16,Scattered clouds,802,c02n,150,3.6,2.1
2022-07-01T01:00:00,16,16,75,9,0,0,-15.3,0,n,0,897,63,1019,0,0,16,Overcast clouds,804,c04n,190,3.2,1.5
2022-07-01T02:00:00,16,16,80,9,0,0,-15.7,0,n,0,897,63,1018,0,0,16,Overcast clouds,804,c04n,220,2.8,2.6
2022-07-01T03:00:00,15,15,5,8.9,0,0,-13.8,0,n,0,896,67,1018,0,0,16,Few clouds,801,c02n,220,3.2,1
2022-07-01T04:00:00,13,13,23,8.9,0,0,-9.7,0,n,0,896,76,1018,0,0,16,Scattered clouds,802,c02n,210,3.2,1.5
2022-07-01T05:00:00,12,12,47,7.9,0,0,-3.8,0,n,0,894,76,1018,0,0,16,Broken clouds,803,c03n,200,2.8,1
2022-07-01T06:00:00,12,12,5,8.8,26,220,3.5,31,d,0,894,81,1017,0,31,16,Few clouds,801,c02n,250,3.2,1.5
2022-07-01T07:00:00,13,13,5,10,55,520,11.8,154,d,0,893,82,1017,0,149,16,Few clouds,801,c02d,190,4,1.5
2022-07-01T08:00:00,16,16,5,8,75,675,20.8,308,d,0,893,59,1017,0,308,16,Few clouds,801,c02d,230,4,2.6
2022-07-01T09:00:00,18,18,5,8.8,89,769,30.1,469,d,0,895,55,1016,0,469,16,Few clouds,801,c02d,220,3.6,2.6
2022-07-01T10:00:00,20,19.2,5,7.7,100,831,39.5,622,d,0,895,45,1016,0,622,16,Few clouds,801,c02d,210,4,2.1
2022-07-01T11:00:00,22,21.2,5,6.7,107,872,48.3,752,d,0,896,37,1016,0,752,16,Few clouds,801,c02d,330,4.4,4.1
2022-07-01T12:00:00,22,21.3,5,7.8,112,897,55.9,848,d,0,897,40,1016,0,848,16,Few clouds,801,c02d,360,4.4,4.1
2022-07-01T13:00:00,23,22.3,46,6.7,115,910,60.9,903,d,0.5,897,35,1016,0,845,16,Broken clouds,803,c03d,20,7.6,3.6
2022-07-01T14:00:00,22,21.2,1,6.7,115,912,61.7,911,d,0,897,37,1016,0,911,16,Clear Sky,800,c01d,70,6,5.7
2022-07-01T15:00:00,21,20.4,82,9.9,114,903,57.9,871,d,0,897,49,1016,0,472,16,Overcast clouds,804,c04d,170,4.6,4.6
2022-07-01T16:00:00,16,16,95,9,109,882,51.1,788,d,0,896,63,1017,0,192,16,Overcast clouds,804,c04d,210,6.7,6.7
2022-07-01T17:00:00,15,15,95,10.8,102,847,42.5,669,d,0,899,76,1018,0,142,10,Overcast clouds,804,c04d,160,4,2.1
2022-07-01T18:00:00,18,18,100,11.8,93,793,33.3,522,d,0,895,67,1017,0,127,16,Overcast clouds,804,c04d,360,4,3.1
2022-07-01T19:00:00,18,18,75,10.9,80,711,23.9,362,d,0,895,63,1017,0,228,16,Overcast clouds,804,c04d,340,4.8,2.1
2022-07-01T20:00:00,19,18.3,33,8.9,62,581,14.7,203,d,0,895,52,1017,0,199,11,Scattered clouds,802,c02d,330,4.4,2.6
2022-07-01T21:00:00,16,16,78,9.9,38,347,6.1,66,d,0,896,67,1018,0,40,11,Overcast clouds,804,c04d,360,5.7,5.7
2022-07-01T22:00:00,14,14,85,11,0,0,-1.5,0,n,0.25,895,82,1018,0,0,11,Overcast clouds,804,c04n,10,10,6.7
2022-07-01T23:00:00,14,14,83,11,0,0,-7.9,0,n,0.25,895,82,1019,0,0,11,Overcast clouds,804,c04n,10,10,7.7
2022-07-02T00:00:00,12,12,86,9.9,0,0,-12.7,0,n,0,896,87,1020,0,0,11,Overcast clouds,804,c04n,10,8,5.1
2022-07-02T01:00:00,12,12,92,9.9,0,0,-15.4,0,n,0.5,895,87,1020,0,0,11,Overcast clouds,804,c04n,320,4,3.6
2022-07-02T02:00:00,12,12,92,9.9,0,0,-15.8,0,n,0,896,87,1020,0,0,16,Overcast clouds,804,c04n,315,4,1
2022-07-02T03:00:00,12,12,92,9.9,0,0,-13.8,0,n,1,895,87,1020,0,0,16,Light rain,500,r01n,310,2.8,1.5
2022-07-02T04:00:00,11,11,48,8.9,0,0,-9.8,0,n,1.5,895,87,1020,0,0,16,Light rain,500,r01n,190,4.4,1.5
2022-07-02T05:00:00,11,11,75,9.9,0,0,-3.9,0,n,0,895,93,1020,0,0,11,Overcast clouds,804,c04n,265,4.4,1
2022-07-02T06:00:00,11,11,83,8.9,26,215,3.4,30,d,0,895,87,1020,0,42,16,Overcast clouds,804,c04n,340,3.6,2.1
2022-07-02T07:00:00,12,12,77,9.9,55,518,11.7,153,d,0,895,87,1020,0,92,16,Overcast clouds,804,c04d,30,4.4,2.6
2022-07-02T08:00:00,12,12,94,9.9,74,674,20.7,307,d,0,895,87,1019,0,74,16,Overcast clouds,804,c04d,90,5.2,2.6
2022-07-02T09:00:00,12,12,35,10.9,89,769,30.1,468,d,0,895,93,1019,0,441,16,Scattered clouds,802,c02d,30,5.2,1.5
2022-07-02T10:00:00,13,13,35,10,99,831,39.4,621,d,0,895,82,1020,0,587,16,Scattered clouds,802,c02d,330,4.8,1.5
2022-07-02T11:00:00,14,14,35,9.8,107,871,48.3,751,d,0,895,76,1019,0,732,16,Scattered clouds,802,c02d,235,5.6,1.6
2022-07-02T12:00:00,14,14,34,9.8,112,897,55.8,847,d,0.5,895,76,1019,0,828,16,Scattered clouds,802,c02d,140,5.6,2.1
2022-07-02T13:00:00,15,15,35,10.8,115,910,60.8,902,d,0,895,76,1019,0,851,16,Scattered clouds,802,c02d,80,6,3.1
2022-07-02T14:00:00,16,16,74,9.9,115,912,61.6,910,d,0,905,67,1019,0,616,16,Overcast clouds,804,c04d,90,7.2,3.1
2022-07-02T15:00:00,17,17,38,9.9,114,903,57.9,871,d,0.5,896,63,1019,0,842,16,Scattered clouds,802,c02d,70,6.4,2.6
2022-07-02T16:00:00,16,16,41,11,109,882,51,788,d,0,896,72,1019,0,729,16,Broken clouds,803,c03d,100,5.6,5.1
2022-07-02T17:00:00,15,15,43,10.8,102,847,42.5,668,d,0,896,76,1019,0,613,16,Broken clouds,803,c03d,70,5.7,5.7
2022-07-02T18:00:00,15,15,88,12.9,93,793,33.3,522,d,0,895,87,1019,0,199,4,Overcast clouds,804,c04d,80,6,4.6
2022-07-02T19:00:00,13,13,94,11.9,80,711,23.9,361,d,0.5,900,93,1020,0,85,10,Overcast clouds,804,c04d,360,6.7,6.7
2022-07-02T20:00:00,12,12,86,10.9,62,581,14.7,203,d,0.5,900,93,1020,0,87,4,Overcast clouds,804,c04d,20,6.7,6.7
2022-07-02T21:00:00,11,11,50,9.9,38,345,6.1,66,d,0,900,93,1020,0,58,6,Broken clouds,803,c03d,40,7.2,7.2
2022-07-02T22:00:00,11,11,42,9.9,0,0,-1.6,0,n,0,894,93,1021,0,0,8,Broken clouds,803,c03n,30,5.1,5.1
2022-07-02T23:00:00,11,11,75,8.9,0,0,-8,0,n,0,900,87,1021,0,0,11,Overcast clouds,804,c04n,40,5.2,4.1
2022-07-03T00:00:00,11,11,87,8.9,0,0,-12.8,0,n,0,894,87,1021,0,0,16,Overcast clouds,804,c04n,10,6,3.1
2022-07-03T01:00:00,11,11,84,8.9,0,0,-15.4,0,n,0,896,87,1021,0,0,11,Overcast clouds,804,c04n,10,5.2,3.6
2022-07-03T02:00:00,11,11,92,8.9,0,0,-15.9,0,n,0,895,87,1021,0,0,13,Overcast clouds,804,c04n,10,4.4,3.1
2022-07-03T03:00:00,10,10,94,7.9,0,0,-13.9,0,n,0,895,87,1020,0,0,16,Overcast clouds,804,c04n,20,4,3.1
2022-07-03T04:00:00,10,10,94,7.9,0,0,-9.9,0,n,0,895,87,1020,0,0,16,Overcast clouds,804,c04n,20,3.6,2.1
2022-07-03T05:00:00,10,10,91,7.9,0,0,-4,0,n,0,894,87,1020,0,0,16,Overcast clouds,804,c04n,80,3.6,1.5
2022-07-03T06:00:00,10,10,80,7.9,26,210,3.3,29,d,0,894,87,1020,0,43,16,Overcast clouds,804,c04n,120,3.6,2.6
2022-07-03T07:00:00,10,10,85,7.9,55,516,11.6,151,d,0,894,87,1020,0,73,16,Overcast clouds,804,c04d,80,4,1
2022-07-03T08:00:00,11,11,83,7.9,74,673,20.6,305,d,0,894,81,1020,0,159,16,Overcast clouds,804,c04d,95,4.8,2.4
2022-07-03T09:00:00,11,11,94,7.9,89,768,30,466,d,0,894,81,1020,0,126,16,Overcast clouds,804,c04d,105,5.6,1
2022-07-03T10:00:00,12,12,93,7.9,99,830,39.3,619,d,0,894,76,1020,0,184,16,Overcast clouds,804,c04d,120,6,1.5
2022-07-03T11:00:00,12,12,94,7.9,107,871,48.2,750,d,0,895,76,1020,0,203,16,Overcast clouds,804,c04d,110,6.4,2.4
2022-07-03T12:00:00,13,13,90,7.9,112,897,55.7,846,d,0,894,71,1019,0,314,16,Overcast clouds,804,c04d,95,6.4,2.4
2022-07-03T13:00:00,13,13,94,8.9,115,910,60.7,901,d,0,894,76,1019,0,244,16,Overcast clouds,804,c04d,85,6.4,1
2022-07-03T14:00:00,14,14,95,8.8,115,911,61.5,909,d,0,905,71,1019,0,222,16,Overcast clouds,804,c04d,70,6,3.1
2022-07-03T15:00:00,14,14,95,8,113,902,57.8,870,d,0,895,67,1019,0,212,16,Overcast clouds,804,c04d,90,5.2,2.6
2022-07-03T16:00:00,14,14,95,8.8,109,881,51,787,d,0.25,895,71,1019,0,192,16,Overcast clouds,804,c04d,80,5.2,2.1
2022-07-03T17:00:00,13,13,95,10,102,846,42.5,668,d,0.25,895,82,1019,0,143,16,Overcast clouds,804,c04d,70,4,3.1
2022-07-03T18:00:00,13,13,90,10,93,792,33.2,521,d,1,894,82,1019,0,178,8,Light rain,500,r01d,60,3.6,3.1
2022-07-03T19:00:00,13,13,90,10,80,710,23.8,361,d,1,894,82,1018,0,123,10,Light rain,500,r01d,70,3.1,3.1
2022-07-03T20:00:00,13,13,90,7.9,62,580,14.6,202,d,0.5,894,71,1019,0,75,10,Overcast clouds,804,c04d,100,2.6,2.6
2022-07-03T21:00:00,13,13,90,8.9,37,344,6.1,65,d,0.5,894,76,1019,0,61,10,Overcast clouds,804,c04d,80,2.6,2.6
2022-07-03T22:00:00,12,12,89,8.8,0,0,-1.6,0,n,0,894,81,1019,0,0,10,Overcast clouds,804,c04n,70,1.6,1.5
2022-07-03T23:00:00,12,12,85,8.8,0,0,-8.1,0,n,0,894,81,1019,0,0,10,Overcast clouds,804,c04n,90,2.1,2.1
2022-07-04T00:00:00,12,12,90,8.8,0,0,-12.8,0,n,0,894,81,1018,0,0,8,Overcast clouds,804,c04n,90,1.5,1.5
2022-07-04T01:00:00,12,12,86,9.9,0,0,-15.5,0,n,0,893,87,1018,0,0,8,Overcast clouds,804,c04n,80,1.2,1
2022-07-04T02:00:00,11,11,82,9.9,0,0,-15.9,0,n,0,893,93,1018,0,0,10,Overcast clouds,804,c04n,20,2.6,2.6
2022-07-04T03:00:00,11,11,77,9.9,0,0,-14,0,n,0,893,93,1018,0,0,8,Overcast clouds,804,c04n,330,2.1,2.1
2022-07-04T04:00:00,11,11,82,8.9,0,0,-10,0,n,0,893,87,1018,0,0,8,Overcast clouds,804,c04n,350,2.1,2.1
2022-07-04T05:00:00,11,11,92,8.9,0,0,-4.1,0,n,0,893,87,1018,0,0,4,Overcast clouds,804,c04n,310,2.6,2.6
2022-07-04T06:00:00,11,11,89,9.9,25,204,3.2,28,d,0,892,93,1018,0,35,2,Haze,721,a03n,310,2.1,2.1
2022-07-04T07:00:00,11,11,88,9.9,55,514,11.5,150,d,0,893,93,1018,0,58,2,Haze,721,a03d,340,2.1,2.1
2022-07-04T08:00:00,11,11,89,9.9,74,671,20.5,303,d,0.5,893,93,1018,0,110,5,Overcast clouds,804,c04d,360,3.1,3.1
2022-07-04T09:00:00,11,11,86,9.9,89,767,29.9,465,d,0.5,893,93,1018,0,200,6,Overcast clouds,804,c04d,340,3.6,2.6
2022-07-04T10:00:00,11,11,90,11,99,830,39.2,618,d,0,893,100,1018,0,209,6,Fog,741,a05d,360,4,3.1
2022-07-04T11:00:00,12,12,90,10.9,107,871,48.1,748,d,0,892,93,1018,0,253,8,Overcast clouds,804,c04d,350,4.4,3.1
2022-07-04T12:00:00,13,13,92,10.9,112,896,55.6,845,d,0,893,87,1018,0,245,8,Overcast clouds,804,c04d,350,4.8,3.1
2022-07-04T13:00:00,13,13,84,10.9,115,909,60.6,900,d,0,893,87,1018,0,424,16,Overcast clouds,804,c04d,30,5.6,3.6
2022-07-04T14:00:00,14,14,85,11,115,911,61.4,908,d,0.5,893,82,1018,0,409,16,Overcast clouds,804,c04d,70,5.2,2.6
2022-07-04T15:00:00,13,13,78,11.9,113,902,57.8,869,d,0.5,893,93,1018,0,503,16,Overcast clouds,804,c04d,100,6,4.1
2022-07-04T16:00:00,14,14,81,11,109,881,50.9,787,d,1,893,82,1017,0,416,16,Light rain,500,r01d,90,6,5.1
2022-07-04T17:00:00,14,14,78,11.9,102,846,42.4,667,d,0.5,893,87,1017,0,386,16,Overcast clouds,804,c04d,100,7.2,5.7
2022-07-04T18:00:00,13,13,76,10.9,93,792,33.2,520,d,0.5,893,87,1017,0,319,16,Overcast clouds,804,c04d,90,7.2,5.7
2022-07-04T19:00:00,12,12,49,12,80,710,23.8,360,d,0.5,893,100,1017,0,319,2,Fog,741,a05d,90,7.6,4.1
2022-07-04T20:00:00,12,12,95,12,62,579,14.6,201,d,0.25,892,100,1017,0,103,1,Fog,741,a05d,120,6.4,4.6
2022-07-04T21:00:00,12,12,95,12,37,342,6,64,d,0.5,892,100,1017,0,50,6,Fog,741,a05d,130,4.8,4.1
2022-07-04T22:00:00,12,12,93,12,0,0,-1.7,0,n,0.25,892,100,1017,0,0,4,Fog,741,a05n,130,3.6,3.6
2022-07-04T23:00:00,12,12,94,12,0,0,-8.1,0,n,0.5,892,100,1016,0,0,3,Fog,741,a05n,100,4,2.6
2022-07-05T00:00:00,12,12,88,12,0,0,-12.9,0,n,0.75,891,100,1016,0,0,5,Light rain,500,r01n,110,5.2,1.5
2022-07-05T01:00:00,13,13,100,11.9,0,0,-15.6,0,n,0.5,891,93,1015,0,0,6,Overcast clouds,804,c04n,180,4.1,4.1
2022-07-05T02:00:00,13,13,39,11.9,0,0,-16,0,n,0.25,891,93,1015,0,0,6,Scattered clouds,802,c02n,220,4,3.1
2022-07-05T03:00:00,12,12,95,12,0,0,-14.1,0,n,0,891,100,1015,0,0,8,Fog,741,a05n,160,3.6,2.1
2022-07-05T04:00:00,12,12,92,10.9,0,0,-10.1,0,n,0,890,93,1014,0,0,8,Overcast clouds,804,c04n,230,2.8,1
2022-07-05T05:00:00,10,10,100,10,0,0,-4.2,0,n,0,890,100,1015,0,0,0,Fog,741,a05n,230,3.1,3.1
2022-07-05T06:00:00,10,10,90,10,25,198,3.1,26,d,0,889,100,1015,0,34,1,Fog,741,a05n,270,1.6,1.5
2022-07-05T07:00:00,10,10,100,8.9,54,511,11.4,148,d,0,889,93,1015,0,69,2,Haze,721,a03d,270,3.2,1.5
2022-07-05T08:00:00,11,11,100,9.9,74,670,20.4,302,d,0,889,93,1015,0,94,16,Overcast clouds,804,c04d,280,4,1.6
2022-07-05T09:00:00,13,13,95,10.9,88,766,29.8,463,d,0,890,87,1015,0,98,16,Overcast clouds,804,c04d,290,3.6,1
2022-07-05T10:00:00,15,15,64,8.9,99,829,39.1,616,d,0,891,67,1014,0,494,16,Broken clouds,803,c03d,300,4.8,2.6
2022-07-05T11:00:00,17,17,12,8.9,107,870,48,747,d,0,892,59,1014,0,747,16,Few clouds,801,c02d,300,7.6,3.6
2022-07-05T12:00:00,18,18,1,6.8,112,896,55.5,844,d,0,892,48,1014,0,844,16,Clear Sky,800,c01d,280,6.4,4.1
2022-07-05T13:00:00,20,19.2,4,7.7,115,909,60.5,899,d,0,892,45,1013,0,899,16,Few clouds,801,c02d,260,5.2,3.1
2022-07-05T14:00:00,20,19,9,4.9,115,911,61.3,907,d,0,893,37,1013,0,907,16,Few clouds,801,c02d,290,6,2.1
2022-07-05T15:00:00,20,19,38,4.9,113,902,57.7,869,d,0,893,37,1013,0,840,16,Scattered clouds,802,c02d,260,7.2,2.1
2022-07-05T16:00:00,20,19.2,6,6.7,109,881,50.9,786,d,0,893,42,1013,0,786,16,Few clouds,801,c02d,170,7.2,5.1
2022-07-05T17:00:00,21,20.1,13,5.8,102,846,42.4,666,d,0,893,37,1013,0,665,16,Few clouds,801,c02d,320,6.8,2.1
2022-07-05T18:00:00,19,18.3,33,8.9,93,792,33.1,520,d,0,893,52,1014,0,509,16,Scattered clouds,802,c02d,20,7.2,7.2
2022-07-05T19:00:00,18,18,79,9.9,80,710,23.7,359,d,0,893,59,1015,0,214,16,Overcast clouds,804,c04d,10,7.7,7.7
2022-07-05T20:00:00,17,17,4,8.9,62,578,14.6,200,d,0,893,59,1015,0,200,16,Few clouds,801,c02d,20,5.7,5.7
2022-07-05T21:00:00,16,16,5,9,37,339,5.9,63,d,0,893,63,1016,0,63,16,Few clouds,801,c02d,20,4.8,2.6
2022-07-05T22:00:00,14,14,3,8,0,0,-1.8,0,n,0,893,67,1016,0,0,16,Few clouds,801,c02n,30,5.6,4.1
2022-07-05T23:00:00,14,14,1,8.8,0,0,-8.2,0,n,0,898,71,1017,0,0,16,Clear Sky,800,c01n,330,5.6,1.5
2022-07-06T00:00:00,13,13,2,8.9,0,0,-13,0,n,0,894,76,1017,0,0,16,Few clouds,801,c02n,350,4.4,2.6
2022-07-06T01:00:00,12,12,12,8.8,0,0,-15.7,0,n,0,894,81,1018,0,0,16,Few clouds,801,c02n,330,3.2,1.5
2022-07-06T02:00:00,10,10,25,8.9,0,0,-16.1,0,n,0,894,93,1018,0,0,16,Scattered clouds,802,c02n,40,3.2,1.5
2022-07-06T03:00:00,11,11,25,8.9,0,0,-14.2,0,n,0,893,87,1018,0,0,16,Scattered clouds,802,c02n,340,2.8,1.5
2022-07-06T04:00:00,9,9,14,7,0,0,-10.2,0,n,0,893,87,1019,0,0,16,Few clouds,801,c02n,360,2.8,1.5
2022-07-06T05:00:00,9,9,1,7,0,0,-4.3,0,n,0,893,87,1019,0,0,16,Clear Sky,800,c01n,50,2.4,1.5
2022-07-06T06:00:00,8,8,12,6.9,24,192,3,25,d,0,893,93,1019,0,25,16,Few clouds,801,c02n,350,3.2,1.5
2022-07-06T07:00:00,10,10,24,7.9,54,509,11.3,146,d,0,893,87,1019,0,145,16,Scattered clouds,802,c02d,360,4.8,1.5
2022-07-06T08:00:00,12,12,64,9.9,74,669,20.3,300,d,0,894,87,1020,0,232,16,Broken clouds,803,c03d,30,5.6,2.6
2022-07-06T09:00:00,12,12,45,9.9,88,766,29.7,462,d,0,895,87,1020,0,421,13,Broken clouds,803,c03d,360,4.8,2.1
2022-07-06T10:00:00,12,12,88,9.9,99,829,39,615,d,0,895,87,1020,0,238,14,Overcast clouds,804,c04d,50,4.8,2.1
2022-07-06T11:00:00,12,12,83,9.9,107,870,47.8,745,d,0,895,87,1021,0,367,13,Overcast clouds,804,c04d,90,5.6,1
2022-07-06T12:00:00,12,12,88,9.9,112,896,55.4,842,d,0,895,87,1021,0,326,13,Overcast clouds,804,c04d,50,6.4,2.6
2022-07-06T13:00:00,13,13,91,10,115,909,60.4,898,d,0,895,82,1020,0,284,13,Overcast clouds,804,c04d,80,6.4,2.1
2022-07-06T14:00:00,15,15,94,10.8,115,911,61.2,906,d,0,896,76,1020,0,217,14,Overcast clouds,804,c04d,100,8.4,3.6
2022-07-06T15:00:00,15,15,94,10.8,113,902,57.6,868,d,0.25,897,76,1020,0,208,16,Overcast clouds,804,c04d,130,7.2,4.6
2022-07-06T16:00:00,15,15,100,10.8,109,881,50.8,785,d,0.25,895,76,1020,0,162,16,Overcast clouds,804,c04d,90,7.6,4.6
2022-07-06T17:00:00,15,15,96,12,102,846,42.3,665,d,0,895,82,1020,0,121,16,Overcast clouds,804,c04d,100,7.2,3.1
2022-07-06T18:00:00,17,17,80,11.9,93,792,33.1,519,d,0,894,72,1019,0,283,16,Overcast clouds,804,c04d,130,7.6,4.6
2022-07-06T19:00:00,17,17,22,11.9,80,709,23.7,358,d,0,896,72,1019,0,344,16,Scattered clouds,802,c02d,140,7.2,5.7
2022-07-06T20:00:00,17,17,21,12.9,62,577,14.5,200,d,0,896,77,1018,0,192,16,Scattered clouds,802,c02d,130,5.2,4.6
2022-07-06T21:00:00,16,16,29,12.9,37,337,5.9,63,d,0,896,82,1018,0,60,16,Scattered clouds,802,c02d,120,4.1,4.1
2022-07-06T22:00:00,16,16,39,13.8,0,0,-1.8,0,n,0,895,87,1019,0,0,16,Scattered clouds,802,c02n,120,4.1,4.1
2022-07-06T23:00:00,14,14,87,12.9,0,0,-8.3,0,n,0,895,93,1019,0,0,16,Overcast clouds,804,c04n,110,4,2.6
2022-07-07T00:00:00,15,15,100,12.9,0,0,-13.1,0,n,0,895,87,1019,0,0,16,Overcast clouds,804,c04n,120,4,3.1
2022-07-07T01:00:00,15,15,78,12,0,0,-15.8,0,n,0.5,895,82,1018,0,0,16,Overcast clouds,804,c04n,140,4.6,4.6
2022-07-07T02:00:00,15,15,84,12,0,0,-16.3,0,n,0.5,895,82,1018,0,0,16,Overcast clouds,804,c04n,140,4.8,3.6
2022-07-07T03:00:00,14,14,41,11.9,0,0,-14.4,0,n,0.5,895,87,1018,0,0,16,Broken clouds,803,c03n,140,4.8,4.6
2022-07-07T04:00:00,13,13,25,11.9,0,0,-10.3,0,n,0,894,93,1017,0,0,16,Scattered clouds,802,c02n,140,4.4,3.6
2022-07-07T05:00:00,13,13,25,11.9,0,0,-4.4,0,n,0,893,93,1017,0,0,16,Scattered clouds,802,c02n,200,4,2.1
2022-07-07T06:00:00,12,12,88,12,23,185,2.9,24,d,0,893,100,1017,0,32,16,Fog,741,a05n,180,4.4,1.5
2022-07-07T07:00:00,13,13,47,13,54,506,11.2,145,d,0,892,100,1017,0,130,16,Fog,741,a05d,150,5.6,4.1
2022-07-07T08:00:00,14,14,89,12.9,74,667,20.2,298,d,0,893,93,1016,0,107,16,Overcast clouds,804,c04d,150,6.4,5.1
2022-07-07T09:00:00,15,15,25,12.9,88,765,29.6,460,d,0,893,87,1016,0,440,16,Scattered clouds,802,c02d,150,6.8,3.1
2022-07-07T10:00:00,16,16,7,12.9,99,828,38.9,613,d,0,894,82,1016,0,591,16,Few clouds,801,c02d,170,6.8,3.1
2022-07-07T11:00:00,19,19,5,14.9,107,870,47.7,744,d,0,894,77,1016,0,714,16,Few clouds,801,c02d,180,8,4.6
2022-07-07T12:00:00,20,19.9,5,14.8,112,895,55.3,841,d,0,895,72,1016,0,807,16,Few clouds,801,c02d,160,8,5.7
2022-07-07T13:00:00,21,21.1,79,16,115,909,60.3,896,d,0,896,73,1015,0,495,16,Overcast clouds,804,c04d,140,8,4.6
2022-07-07T14:00:00,22,22,89,15.8,115,911,61.1,905,d,0,896,68,1015,0,318,16,Overcast clouds,804,c04d,140,9,6.2
2022-07-07T15:00:00,24,23.9,82,15,113,902,57.5,867,d,2.5,895,57,1014,0,420,16,Light rain,500,r01d,150,9,7.2
2022-07-07T16:00:00,23,22.8,48,13.8,109,881,50.7,784,d,5.25,896,56,1015,0,668,16,Moderate rain,501,r02d,180,9,5.7
2022-07-07T17:00:00,15,15,87,13.9,102,845,42.3,664,d,7.75,895,93,1016,0,227,8,Heavy rain,502,r03d,70,28,13.9
2022-07-07T18:00:00,19,18.8,83,13.8,92,791,33,518,d,3.25,894,72,1015,0,236,16,Light rain,500,r01d,80,19,6.2
2022-07-07T19:00:00,21,20.7,4,12.9,79,708,23.6,357,d,0.25,894,60,1014,0,344,16,Few clouds,801,c02d,100,6,3.1
2022-07-07T20:00:00,22,21.7,1,12.8,62,576,14.4,199,d,0,894,56,1013,0,192,16,Clear Sky,800,c01d,110,5.6,2.1
2022-07-07T21:00:00,21,20.8,14,13.9,36,334,5.8,62,d,0,894,64,1014,0,60,16,Few clouds,801,c02d,130,5.6,2.1
2022-07-07T22:00:00,19,18.8,2,13.8,0,0,-1.9,0,n,0,894,72,1014,0,0,16,Few clouds,801,c02n,165,5.6,1
2022-07-07T23:00:00,19,18.8,82,13.8,0,0,-8.4,0,n,0,893,72,1014,0,0,16,Overcast clouds,804,c04n,200,5.2,1.5
2022-07-08T00:00:00,18,18,14,13.9,0,0,-13.2,0,n,0,897,77,1014,0,0,16,Few clouds,801,c02n,240,5.2,2.1
2022-07-08T01:00:00,18,18,0,13.9,0,0,-15.9,0,n,0,893,77,1014,0,0,16,Clear Sky,800,c01n,240,5.2,2.1
2022-07-08T02:00:00,17,17,0,11.9,0,0,-16.4,0,n,0,893,72,1014,0,0,16,Clear Sky,800,c01n,260,4.8,1.5
2022-07-08T03:00:00,15,15,0,10,0,0,-14.5,0,n,0,893,72,1014,0,0,16,Clear Sky,800,c01n,40,4.4,1
2022-07-08T04:00:00,15,15,0,8.9,0,0,-10.4,0,n,0,892,67,1015,0,0,16,Clear Sky,800,c01n,60,4,2.1
2022-07-08T05:00:00,13,13,1,7.9,0,0,-4.5,0,n,0,890,71,1015,0,0,16,Clear Sky,800,c01n,340,3.6,2.6
2022-07-08T06:00:00,11,11,1,6.9,23,178,2.8,23,d,0,892,76,1015,0,46,16,Clear Sky,800,c01n,290,4,2.4
2022-07-08T07:00:00,14,14,0,9.8,53,504,11.1,143,d,0,891,76,1016,0,143,16,Clear Sky,800,c01d,240,4.4,1
2022-07-08T08:00:00,16,16,0,9.9,73,666,20.1,296,d,0,893,67,1016,0,296,16,Clear Sky,800,c01d,190,4.4,2.1
2022-07-08T09:00:00,19,18.4,0,9.8,88,764,29.5,458,d,0,894,55,1015,0,458,16,Clear Sky,800,c01d,200,3.6,1.5
2022-07-08T10:00:00,21,20.2,0,6.9,99,827,38.8,611,d,0,895,40,1015,0,611,16,Clear Sky,800,c01d,140,3.6,1.5
2022-07-08T11:00:00,22,21.2,2,6.7,107,869,47.6,742,d,0,896,37,1015,0,742,16,Few clouds,801,c02d,90,4.4,1
2022-07-08T12:00:00,22,21.4,5,8.9,112,895,55.2,840,d,0,897,43,1015,0,840,16,Few clouds,801,c02d,360,5.2,3.1
2022-07-08T13:00:00,23,22.4,5,8.7,115,908,60.1,895,d,0,897,40,1015,0,895,16,Few clouds,801,c02d,90,4.8,3.1
2022-07-08T14:00:00,23,22.3,1,6.7,115,910,61,904,d,0,897,35,1015,0,904,16,Clear Sky,800,c01d,90,4.8,1.5
2022-07-08T15:00:00,24,23.4,2,8.8,113,901,57.4,866,d,0,897,38,1015,0,866,16,Few clouds,801,c02d,140,5.2,1.5
2022-07-08T16:00:00,24,23.4,29,7.6,109,880,50.7,783,d,0,897,35,1015,0,773,16,Scattered clouds,802,c02d,90,6,1.5
2022-07-08T17:00:00,25,24.6,10,10.8,102,845,42.2,663,d,0,897,41,1015,0,642,16,Few clouds,801,c02d,90,6.4,3.1
2022-07-08T18:00:00,23,22.6,7,10.8,92,791,33,517,d,0,897,46,1015,0,501,16,Few clouds,801,c02d,90,6,4.6
2022-07-08T19:00:00,24,23.6,45,11,79,708,23.6,356,d,0,896,44,1014,0,324,16,Broken clouds,803,c03d,90,9.8,9.8
2022-07-08T20:00:00,22,21.6,91,12,62,575,14.4,197,d,0,896,53,1014,0,62,11,Overcast clouds,804,c04d,50,2.6,2.6
2022-07-08T21:00:00,22,21.4,5,8.9,36,331,5.7,61,d,0,895,43,1014,0,61,16,Few clouds,801,c02d,50,2.6,2.6
2022-07-08T22:00:00,18,18,5,8,0,0,-2,0,n,0,895,52,1015,0,0,16,Few clouds,801,c02n,360,2.6,2.6
2022-07-08T23:00:00,17,17,8,5.9,0,0,-8.5,0,n,0,894,48,1016,0,0,16,Few clouds,801,c02n,350,2.6,2.6
2022-07-09T00:00:00,18,18,10,4.9,0,0,-13.3,0,n,0,895,42,1015,0,0,16,Few clouds,801,c02n,320,5.1,5.1
2022-07-09T01:00:00,17,17,21,5,0,0,-16,0,n,0,895,45,1015,0,0,16,Scattered clouds,802,c02n,300,4.6,4.6
2022-07-09T02:00:00,14,14,1,5.9,0,0,-16.5,0,n,0,895,58,1016,0,0,16,Clear Sky,800,c01n,180,4.8,3.1
2022-07-09T03:00:00,15,15,0,5,0,0,-14.6,0,n,0,893,51,1016,0,0,16,Clear Sky,800,c01n,220,4.8,3.6
2022-07-09T04:00:00,12,12,0,5,0,0,-10.5,0,n,0,894,62,1016,0,0,16,Clear Sky,800,c01n,190,10,3.1
2022-07-09T05:00:00,19,17.8,0,1.9,0,0,-4.7,0,n,0,893,32,1015,0,0,16,Clear Sky,800,c01n,290,9,4.6
2022-07-09T06:00:00,12,12,0,5,22,171,2.7,21,d,0,896,62,1017,0,43,16,Clear Sky,800,c01n,340,5.1,5.1
2022-07-09T07:00:00,15,15,0,5.8,53,501,11,141,d,0,893,54,1017,0,141,16,Clear Sky,800,c01d,340,4.8,4.1
2022-07-09T08:00:00,19,18.1,0,5.8,73,665,20,294,d,0,895,42,1017,0,294,16,Clear Sky,800,c01d,310,4.8,3.6
2022-07-09T09:00:00,17,17,0,7.9,88,763,29.4,456,d,0,897,55,1018,0,456,16,Clear Sky,800,c01d,100,4.6,4.6
2022-07-09T10:00:00,18,18,0,6.8,99,827,38.7,610,d,0,896,48,1018,0,610,16,Clear Sky,800,c01d,150,4.6,4.6
2022-07-09T11:00:00,20,19.1,0,6,107,869,47.5,741,d,0,897,40,1018,0,741,16,Clear Sky,800,c01d,110,4,3.6
2022-07-09T12:00:00,21,20.2,0,6.9,112,895,55,838,d,0,897,40,1017,0,838,16,Clear Sky,800,c01d,120,4.1,4.1
2022-07-09T13:00:00,22,21.2,0,6.7,115,908,60,894,d,0,897,37,1016,0,894,16,Clear Sky,800,c01d,160,6.4,4.6
2022-07-09T14:00:00,23,22.3,4,7.9,115,910,60.9,903,d,0,897,38,1016,0,903,16,Few clouds,801,c02d,150,8,6.2
2022-07-09T15:00:00,24,23.4,5,7.6,113,901,57.3,865,d,0,897,35,1015,0,865,16,Few clouds,801,c02d,140,8,3.6
2022-07-09T16:00:00,24,23.6,9,11,109,880,50.6,782,d,0,897,44,1015,0,757,16,Few clouds,801,c02d,30,6.4,4.6
2022-07-09T17:00:00,24,23.3,6,6.7,102,845,42.1,662,d,0,897,33,1013,0,662,16,Few clouds,801,c02d,70,6.4,2.6
2022-07-09T18:00:00,25,24.5,24,8.9,92,790,32.9,516,d,0,896,36,1014,0,512,16,Scattered clouds,802,c02d,40,4,1.5
2022-07-09T19:00:00,24,23.4,40,7.6,79,707,23.5,355,d,0,896,35,1013,0,341,16,Scattered clouds,802,c02d,80,2.8,1.5
2022-07-09T20:00:00,23,22.4,73,8.7,62,573,14.3,196,d,0.5,895,40,1013,0,135,16,Overcast clouds,804,c04d,90,3.6,3.6
2022-07-09T21:00:00,22,21.4,82,8.9,36,327,5.7,59,d,0,895,43,1013,0,68,16,Overcast clouds,804,c04d,90,8,1.5
2022-07-09T22:00:00,22,21,83,2.7,0,0,-2.1,0,n,0,894,28,1014,0,0,11,Overcast clouds,804,c04n,280,8,4.6
2022-07-09T23:00:00,19,18.3,85,8.9,0,0,-8.6,0,n,0.25,894,52,1015,0,0,11,Overcast clouds,804,c04n,330,10,3.6
2022-07-10T00:00:00,19,17.9,93,4,0,0,-13.4,0,n,0,895,37,1015,0,0,11,Overcast clouds,804,c04n,290,12,9.3
2022-07-10T01:00:00,18,18,88,3.9,0,0,-16.2,0,n,0,895,39,1016,0,0,11,Overcast clouds,804,c04n,270,10,5.1
2022-07-10T02:00:00,16,16,36,5,0,0,-16.6,0,n,0,895,48,1016,0,0,16,Scattered clouds,802,c02n,330,7,4.6
2022-07-10T03:00:00,16,16,76,7,0,0,-14.7,0,n,0,895,55,1017,0,0,11,Overcast clouds,804,c04n,270,4,3.1
2022-07-10T04:00:00,15,15,80,7.8,0,0,-10.7,0,n,0,895,62,1017,0,0,16,Overcast clouds,804,c04n,210,3.6,1.5
2022-07-10T05:00:00,14,14,36,6.8,0,0,-4.8,0,n,0,894,62,1017,0,0,16,Scattered clouds,802,c02n,260,3.6,1
2022-07-10T06:00:00,12,12,42,5,21,163,2.5,20,d,0,895,62,1018,0,40,16,Broken clouds,803,c03n,310,4.4,1
2022-07-10T07:00:00,13,13,82,6.8,53,498,10.9,139,d,0,893,66,1019,0,75,16,Overcast clouds,804,c04d,360,5.2,2.1
2022-07-10T08:00:00,16,16,88,7,73,663,19.9,292,d,0,895,55,1018,0,122,16,Overcast clouds,804,c04d,330,5.2,2.6
2022-07-10T09:00:00,18,18,89,5.9,88,762,29.2,454,d,0,895,45,1019,0,179,16,Overcast clouds,804,c04d,180,4.8,1
2022-07-10T10:00:00,19,18.1,89,5.8,99,826,38.6,608,d,0,897,42,1018,0,240,16,Overcast clouds,804,c04d,30,5.6,1.5
2022-07-10T11:00:00,20,18.9,83,2.8,107,868,47.4,739,d,0,898,32,1019,0,386,16,Overcast clouds,804,c04d,280,6.4,3.6
2022-07-10T12:00:00,21,19.9,3,1.8,112,894,54.9,837,d,0,898,28,1018,0,837,16,Few clouds,801,c02d,250,7,2.6
2022-07-10T13:00:00,20,19.2,1,7.7,115,908,59.9,893,d,0,898,45,1018,0,893,16,Clear Sky,800,c01d,110,7,2.6
2022-07-10T14:00:00,21,20.2,75,6.9,115,910,60.8,902,d,0,898,40,1018,0,597,16,Overcast clouds,804,c04d,100,8,4.1
2022-07-10T15:00:00,21,20.2,3,6.9,113,901,57.2,863,d,0,898,40,1018,0,863,16,Few clouds,801,c02d,140,6.8,2.6
2022-07-10T16:00:00,22,21.2,20,6.7,109,880,50.5,781,d,0,898,37,1018,0,778,16,Few clouds,801,c02d,100,7.2,3.1
2022-07-10T17:00:00,22,21.2,91,6.7,102,844,42,661,d,0,898,37,1018,0,229,16,Overcast clouds,804,c04d,170,11,2.6
2022-07-10T18:00:00,24,23,47,1,92,790,32.8,514,d,0,898,22,1018,0,478,16,Broken clouds,803,c03d,290,12,7.7
2022-07-10T19:00:00,23,22,5,1.9,79,706,23.4,354,d,0,899,25,1018,0,354,16,Few clouds,801,c02d,290,13,9.3
2022-07-10T20:00:00,22,20.9,5,1.6,61,572,14.2,195,d,0,899,26,1018,0,195,16,Few clouds,801,c02d,280,11,7.7
2022-07-10T21:00:00,21,19.9,6,2.8,36,323,5.6,58,d,0,899,30,1018,0,58,16,Few clouds,801,c02d,280,11,7.2
2022-07-10T22:00:00,20,18.9,13,2.8,0,0,-2.2,0,n,0,899,32,1019,0,0,16,Few clouds,801,c02n,290,10,7.2
2022-07-10T23:00:00,19,17.8,5,1.9,0,0,-8.7,0,n,0,897,32,1020,0,0,16,Few clouds,801,c02n,280,9,6.2
2022-07-11T00:00:00,18,18,6,1.9,0,0,-13.5,0,n,0,899,34,1020,0,0,16,Few clouds,801,c02n,290,9,6.2
2022-07-11T01:00:00,18,18,3,1.9,0,0,-16.3,0,n,0,899,34,1020,0,0,16,Few clouds,801,c02n,280,9,5.7
2022-07-11T02:00:00,18,18,8,1.9,0,0,-16.8,0,n,0,899,34,1020,0,0,16,Few clouds,801,c02n,280,9,6.7
2022-07-11T03:00:00,17,17,12,1.8,0,0,-14.9,0,n,0,899,36,1020,0,0,16,Few clouds,801,c02n,290,6.2,6.2
2022-07-11T04:00:00,16,16,17,2.8,0,0,-10.8,0,n,0,899,41,1021,0,0,16,Few clouds,801,c02n,300,5.2,3.6
2022-07-11T05:00:00,16,16,5,2.8,0,0,-4.9,0,n,0,898,41,1021,0,0,16,Few clouds,801,c02n,300,4.8,3.1
2022-07-11T06:00:00,13,13,0,3.9,21,155,2.4,19,d,0,899,54,1021,0,40,16,Clear Sky,800,c01n,160,4.8,1.5
2022-07-11T07:00:00,16,16,0,5,53,495,10.7,137,d,0,897,48,1021,0,137,16,Clear Sky,800,c01d,50,5.2,2.1
2022-07-11T08:00:00,19,18,0,4.7,73,661,19.8,290,d,0,899,39,1021,0,290,16,Clear Sky,800,c01d,240,5.2,1.5
2022-07-11T09:00:00,20,19.2,1,6.7,88,761,29.1,452,d,0,900,42,1021,0,452,16,Clear Sky,800,c01d,50,7,2.6
2022-07-11T10:00:00,21,20.4,0,8.9,99,826,38.4,606,d,0,901,46,1021,0,606,16,Clear Sky,800,c01d,20,7,4.6
2022-07-11T11:00:00,22,21.3,0,7.8,106,868,47.3,737,d,0,901,40,1021,0,737,16,Clear Sky,800,c01d,30,4.8,3.6
2022-07-11T12:00:00,22,21.3,0,7.8,112,894,54.8,835,d,0,901,40,1021,0,835,16,Clear Sky,800,c01d,360,3.6,2.1
2022-07-11T13:00:00,23,22.3,0,7.9,115,907,59.7,891,d,0,901,38,1021,0,891,16,Clear Sky,800,c01d,110,8,5.1
2022-07-11T14:00:00,24,23.4,0,8.8,115,910,60.6,900,d,0,901,38,1020,0,900,16,Clear Sky,800,c01d,140,8,5.1
2022-07-11T15:00:00,24,23.4,0,8.8,113,901,57.1,862,d,0,902,38,1019,0,862,16,Clear Sky,800,c01d,130,9,6.2
2022-07-11T16:00:00,25,24.6,0,10.8,109,880,50.4,780,d,0,901,41,1019,0,756,16,Clear Sky,800,c01d,160,10,7.7
2022-07-11T17:00:00,24,23.5,0,9.9,102,844,41.9,660,d,0,901,41,1018,0,660,16,Clear Sky,800,c01d,170,11,7.7
2022-07-11T18:00:00,25,24.6,0,10.8,92,789,32.7,513,d,0,900,41,1018,0,497,16,Clear Sky,800,c01d,170,9,7.2
2022-07-11T19:00:00,24,23.5,0,9.9,79,705,23.3,352,d,0,900,41,1017,0,352,16,Clear Sky,800,c01d,160,10,9.3
2022-07-11T20:00:00,23,22.6,0,10.8,61,570,14.1,193,d,0,899,46,1016,0,187,16,Clear Sky,800,c01d,180,10,7.2
2022-07-11T21:00:00,22,21.5,0,10.8,35,319,5.5,57,d,0,898,49,1016,0,55,16,Clear Sky,800,c01d,170,7,4.6
2022-07-11T22:00:00,19,18.5,0,10.8,0,0,-2.3,0,n,0,898,59,1017,0,0,16,Clear Sky,800,c01n,180,5.2,3.6
2022-07-11T23:00:00,18,18,0,10.9,0,0,-8.8,0,n,0,896,63,1017,0,0,16,Clear Sky,800,c01n,180,4.4,3.6
2022-07-12T00:00:00,19,18.5,0,10.8,0,0,-13.6,0,n,0,896,59,1016,0,0,16,Clear Sky,800,c01n,220,4,3.1
2022-07-12T01:00:00,17,17,0,10.8,0,0,-16.4,0,n,0,896,67,1016,0,0,16,Clear Sky,800,c01n,180,3.2,2.6
2022-07-12T02:00:00,17,17,0,9.9,0,0,-16.9,0,n,0,895,63,1016,0,0,16,Clear Sky,800,c01n,150,3.2,2.1
2022-07-12T03:00:00,16,16,0,8,0,0,-15,0,n,0,895,59,1015,0,0,16,Clear Sky,800,c01n,200,3.6,2.6
2022-07-12T04:00:00,14,14,0,6.8,0,0,-10.9,0,n,0,894,62,1015,0,0,16,Clear Sky,800,c01n,220,3.6,3.1
2022-07-12T05:00:00,19,17.8,0,2.8,0,0,-5.1,0,n,0,893,34,1015,0,0,16,Clear Sky,800,c01n,240,4.4,4.1
2022-07-12T06:00:00,15,15,0,5,20,146,2.3,17,d,0,895,51,1015,0,37,16,Clear Sky,800,c01n,200,4.4,3.6
2022-07-12T07:00:00,19,17.9,0,4,52,491,10.6,135,d,0,894,37,1015,0,135,16,Clear Sky,800,c01d,220,5.2,3.1
2022-07-12T08:00:00,21,20.1,0,5.8,73,660,19.6,288,d,0,895,37,1014,0,288,16,Clear Sky,800,c01d,210,5.2,3.1
2022-07-12T09:00:00,23,22.2,0,5,87,760,29,450,d,0,896,31,1014,0,450,16,Clear Sky,800,c01d,240,5.2,3.6
2022-07-12T10:00:00,25,24.4,1,6.7,98,825,38.3,604,d,0,896,31,1014,0,604,16,Clear Sky,800,c01d,220,4.8,3.6
2022-07-12T11:00:00,28,26.7,2,1.5,106,867,47.1,736,d,0,897,18,1013,0,736,16,Few clouds,801,c02d,220,5.2,4.1
2022-07-12T12:00:00,29,27.4,21,-2.2,112,894,54.7,834,d,0,897,13,1012,0,830,16,Scattered clouds,802,c02d,230,6.4,4.6
2022-07-12T13:00:00,29,27.4,25,0.7,114,907,59.6,890,d,0,897,16,1012,0,883,16,Scattered clouds,802,c02d,200,7.2,4.1
2022-07-12T14:00:00,29,27.7,25,7.6,115,909,60.5,899,d,0,897,26,1011,0,892,16,Scattered clouds,802,c02d,170,8,6.7
2022-07-12T15:00:00,30,28.6,5,9,113,900,57,861,d,0,896,27,1011,0,861,16,Few clouds,801,c02d,160,11,5.7
2022-07-12T16:00:00,30,28.8,1,10.5,109,879,50.3,778,d,0,896,30,1010,0,755,16,Clear Sky,800,c01d,170,11,7.2
2022-07-12T17:00:00,30,28.8,1,10.5,102,844,41.8,659,d,0,895,30,1009,0,639,16,Clear Sky,800,c01d,140,12,8.8
2022-07-12T18:00:00,30,28.6,0,9,92,789,32.7,512,d,0,895,27,1009,0,512,16,Clear Sky,800,c01d,140,12,9.8
2022-07-12T19:00:00,29,28,0,10.6,79,704,23.2,351,d,0,894,32,1008,0,340,16,Clear Sky,800,c01d,170,12,7.7
2022-07-12T20:00:00,27,26.7,0,10.7,61,569,14,192,d,0,893,36,1008,0,186,16,Clear Sky,800,c01d,160,13,9.3
2022-07-12T21:00:00,25,24.6,0,10.8,35,315,5.4,56,d,0,892,41,1008,0,54,16,Clear Sky,800,c01d,180,9,5.7
2022-07-12T22:00:00,23,22.6,0,10.8,0,0,-2.4,0,n,0,891,46,1007,0,0,16,Clear Sky,800,c01n,180,7,5.1
2022-07-12T23:00:00,21,20.4,0,9.9,0,0,-8.9,0,n,0,891,49,1007,0,0,16,Clear Sky,800,c01n,180,6,3.1
2022-07-13T00:00:00,21,20.4,0,8.9,0,0,-13.8,0,n,0,890,46,1007,0,0,16,Clear Sky,800,c01n,200,6,3.6
2022-07-13T01:00:00,22,21.4,0,8.9,0,0,-16.6,0,n,0,890,43,1007,0,0,16,Clear Sky,800,c01n,230,6.8,2.6
2022-07-13T02:00:00,19,18.4,1,9.8,0,0,-17,0,n,0,887,55,1007,0,0,16,Clear Sky,800,c01n,210,6.4,2.6
2022-07-13T03:00:00,20,19.1,3,6,0,0,-15.1,0,n,0,889,40,1007,0,0,16,Few clouds,801,c02n,210,6.8,2.6
2022-07-13T04:00:00,18,18,5,5.9,0,0,-11.1,0,n,0,889,45,1007,0,0,16,Few clouds,801,c02n,200,6,1.5
2022-07-13T05:00:00,14,14,50,11,0,0,-5.2,0,n,0,888,82,1009,0,0,16,Broken clouds,803,c03n,360,7.2,6.7
2022-07-13T06:00:00,13,13,83,8.9,19,137,2.1,16,d,0,888,76,1010,0,27,16,Overcast clouds,804,c04n,350,7.2,7.2
2022-07-13T07:00:00,12,12,93,6.9,52,488,10.5,133,d,0,891,71,1010,0,91,16,Overcast clouds,804,c04d,350,7,5.1
2022-07-13T08:00:00,14,14,5,6.8,72,658,19.5,286,d,0,891,62,1010,0,286,16,Few clouds,801,c02d,350,8,5.1
2022-07-13T09:00:00,16,16,4,7,87,759,28.9,448,d,0,889,55,1011,0,448,16,Few clouds,801,c02d,360,8,6.2
2022-07-13T10:00:00,17,17,80,7.9,98,824,38.2,602,d,0,890,55,1011,0,348,16,Overcast clouds,804,c04d,340,8,5.7
2022-07-13T11:00:00,18,18,86,8.8,106,867,47,734,d,0,890,55,1010,0,338,16,Overcast clouds,804,c04d,340,8,5.7
2022-07-13T12:00:00,19,18.3,2,8.9,112,893,54.5,832,d,0,891,52,1010,0,832,16,Few clouds,801,c02d,70,8.4,3.6
2022-07-13T13:00:00,20,19.3,5,9,114,907,59.4,888,d,0,890,49,1010,0,888,16,Few clouds,801,c02d,65,6,2.6
2022-07-13T14:00:00,21,20.4,98,9.9,115,909,60.3,898,d,0,886,49,1009,0,143,16,Overcast clouds,804,c04d,60,7.2,3.1
2022-07-13T15:00:00,22,21.5,100,10.8,113,900,56.8,859,d,0.5,891,49,1008,0,171,16,Overcast clouds,804,c04d,100,9.6,1
2022-07-13T16:00:00,23,22.6,100,10.8,109,879,50.2,777,d,0.5,891,46,1009,0,162,16,Overcast clouds,804,c04d,340,4.4,3.6
2022-07-13T17:00:00,24,23.7,98,12,102,843,41.8,657,d,0,892,47,1009,0,184,16,Overcast clouds,804,c04d,120,6,2.6
2022-07-13T18:00:00,24,23.8,97,13.8,92,788,32.5,510,d,0,891,53,1009,0,168,16,Overcast clouds,804,c04d,90,6,3.6
2022-07-13T19:00:00,22,21.8,55,13.9,79,703,23.1,349,d,0,892,60,1010,0,295,16,Broken clouds,803,c03d,60,11,6.7
2022-07-13T20:00:00,21,20.7,41,12.9,61,567,13.9,190,d,2,892,60,1011,0,169,16,Light rain,500,r01d,30,11,8.2
2022-07-13T21:00:00,19,18.6,9,11.8,34,310,5.3,54,d,0,892,63,1012,0,52,16,Few clouds,801,c02d,40,8,5.7
2022-07-13T22:00:00,17,17,21,11.9,0,0,-2.5,0,n,0,892,72,1013,0,0,16,Scattered clouds,802,c02n,30,4.8,3.6
2022-07-13T23:00:00,16,16,0,11,0,0,-9.1,0,n,0,892,72,1014,0,0,16,Clear Sky,800,c01n,20,3.1,3.1
2022-07-14T00:00:00,16,16,0,11,0,0,-13.9,0,n,0,893,72,1015,0,0,16,Clear Sky,800,c01n,70,3.1,3.1
2022-07-14T01:00:00,15,15,0,10,0,0,-16.7,0,n,0,893,72,1015,0,0,16,Clear Sky,800,c01n,110,3.1,3.1
2022-07-14T02:00:00,14,14,0,9.8,0,0,-17.2,0,n,0,893,76,1015,0,0,16,Clear Sky,800,c01n,170,2,1.5
2022-07-14T03:00:00,14,14,1,9.8,0,0,-15.3,0,n,0,892,76,1015,0,0,16,Clear Sky,800,c01n,175,1.6,0.4
2022-07-14T04:00:00,14,14,0,9.8,0,0,-11.2,0,n,0,893,76,1016,0,0,16,Clear Sky,800,c01n,180,2.6,2.6
2022-07-14T05:00:00,13,13,0,10,0,0,-5.3,0,n,0,893,82,1016,0,0,16,Clear Sky,800,c01n,180,2.6,2.6
2022-07-14T06:00:00,12,12,1,9.9,18,128,2,15,d,0,893,87,1016,0,32,16,Clear Sky,800,c01n,180,3.2,3.1
2022-07-14T07:00:00,14,14,0,11,51,485,10.3,131,d,0,893,82,1017,0,127,16,Clear Sky,800,c01d,180,4.4,3.6
2022-07-14T08:00:00,15.5,15.5,0,10.9,72,656,19.4,283,d,0,893,74,1017,0,274,16,Clear Sky,800,c01d,180,5.6,4.1
2022-07-14T09:00:00,17,17,24,10.8,87,758,28.7,446,d,0,893,67,1017,0,429,16,Scattered clouds,802,c02d,180,7.6,4.6
2022-07-14T10:00:00,18,18,25,11.8,98,824,38.1,600,d,0,895,67,1017,0,575,16,Scattered clouds,802,c02d,170,8.8,5.1
2022-07-14T11:00:00,19,18.7,14,13,106,866,46.9,732,d,0,896,68,1016,0,705,16,Few clouds,801,c02d,190,8.4,4.1
2022-07-14T12:00:00,21,20.7,5,12.9,111,893,54.4,830,d,0,895,60,1016,0,800,16,Few clouds,801,c02d,170,8.8,4.6
2022-07-14T13:00:00,23,22.6,1,11.7,114,907,59.3,887,d,0,896,49,1015,0,858,16,Clear Sky,800,c01d,200,8,3.6
2022-07-14T14:00:00,25,24.5,2,9.7,115,909,60.2,896,d,0,896,38,1014,0,896,16,Few clouds,801,c02d,190,8,3.6
2022-07-14T15:00:00,26,25.7,2,11,113,900,56.7,858,d,0,897,39,1013,0,831,16,Few clouds,801,c02d,160,8,4.6
2022-07-14T16:00:00,27,26.5,1,8.9,109,879,50,776,d,0,896,32,1013,0,776,16,Clear Sky,800,c01d,130,9,5.7
2022-07-14T17:00:00,27,26.4,1,8,102,843,41.7,656,d,0,896,30,1013,0,656,16,Clear Sky,800,c01d,150,10,7.2
2022-07-14T18:00:00,28,26.9,0,6.7,92,787,32.5,509,d,0,896,26,1012,0,509,16,Clear Sky,800,c01d,140,9,7.2
2022-07-14T19:00:00,28,27,0,7.8,79,702,23,348,d,0,896,28,1012,0,348,16,Clear Sky,800,c01d,120,9,6.2
2022-07-14T20:00:00,27,26.5,0,8.9,60,565,13.8,188,d,0,896,32,1012,0,188,16,Clear Sky,800,c01d,140,7,4.1
2022-07-14T21:00:00,25,24.5,0,9.7,34,305,5.2,53,d,0,895,38,1012,0,53,16,Clear Sky,800,c01d,130,5.1,5.1
2022-07-14T22:00:00,20,19.6,0,12,0,0,-2.6,0,n,0,895,60,1013,0,0,16,Clear Sky,800,c01n,235,3.6,2.1
2022-07-14T23:00:00,20,19.6,0,12,0,0,-9.2,0,n,0,893,60,1013,0,0,16,Clear Sky,800,c01n,340,2.4,2.1
2022-07-15T00:00:00,17,17,0,11.9,0,0,-14.1,0,n,0,894,72,1014,0,0,16,Clear Sky,800,c01n,10,3.2,3.1
2022-07-15T01:00:00,17,17,0,10.8,0,0,-16.9,0,n,0,893,67,1014,0,0,16,Clear Sky,800,c01n,320,3.2,1.5
2022-07-15T02:00:00,15,15,0,8.9,0,0,-17.4,0,n,0,893,67,1014,0,0,16,Clear Sky,800,c01n,330,4,2.1
2022-07-15T03:00:00,15,15,0,6.8,0,0,-15.5,0,n,0,892,58,1014,0,0,16,Clear Sky,800,c01n,310,4.4,1
2022-07-15T04:00:00,15,15,0,5,0,0,-11.4,0,n,0,893,51,1014,0,0,16,Clear Sky,800,c01n,290,4,3.6
2022-07-15T05:00:00,14,14,0,4.8,0,0,-5.5,0,n,0,892,54,1014,0,0,16,Clear Sky,800,c01n,30,3.6,1.5
2022-07-15T06:00:00,15,15,0,5,18,118,1.8,13,d,0,892,51,1014,0,31,16,Clear Sky,800,c01n,80,3.2,1
2022-07-15T07:00:00,15,15,0,5.8,51,481,10.2,128,d,0,895,54,1014,0,128,16,Clear Sky,800,c01d,130,4,1.5
2022-07-15T08:00:00,17,17,0,5.9,72,655,19.2,281,d,0,893,48,1014,0,281,16,Clear Sky,800,c01d,210,4.4,2.1
2022-07-15T09:00:00,21,20.2,0,6.9,87,757,28.6,443,d,0,893,40,1014,0,443,16,Clear Sky,800,c01d,215,4,1.2
2022-07-15T10:00:00,24,23.4,0,7.6,98,823,37.9,598,d,0,895,35,1014,0,598,16,Clear Sky,800,c01d,220,3.6,2.1
2022-07-15T11:00:00,25.5,24.8,0,5.7,106,866,46.7,730,d,0,896,28,1013,0,730,16,Clear Sky,800,c01d,135,4,2.4
2022-07-15T12:00:00,27,26.1,0,3.5,111,893,54.2,828,d,0,897,22,1013,0,828,16,Clear Sky,800,c01d,50,4,2.6
2022-07-15T13:00:00,28,26.8,0,5,114,906,59.1,885,d,0,897,23,1013,0,885,16,Clear Sky,800,c01d,110,4,2.1
2022-07-15T14:00:00,29,27.6,0,5.8,115,909,60,895,d,0,897,23,1013,0,895,16,Clear Sky,800,c01d,160,6.4,1.5
2022-07-15T15:00:00,29,27.5,0,4.5,113,900,56.6,857,d,0,897,21,1012,0,857,16,Clear Sky,800,c01d,130,9,7.2
2022-07-15T16:00:00,29,27.6,0,5.8,109,878,49.9,774,d,0,897,23,1012,0,774,16,Clear Sky,800,c01d,150,9,6.7
2022-07-15T17:00:00,29,27.6,0,7,102,842,41.5,654,d,0,897,25,1012,0,654,16,Clear Sky,800,c01d,140,9,5.7
2022-07-15T18:00:00,29,27.7,0,7.6,92,787,32.3,507,d,0,896,26,1011,0,507,16,Clear Sky,800,c01d,130,6.7,6.7
2022-07-15T19:00:00,29,28,1,10.6,78,701,23,346,d,0,889,32,1010,0,336,16,Clear Sky,800,c01d,80,5.1,5.1
2022-07-15T20:00:00,29,28.2,1,12,60,563,13.7,187,d,0,895,35,1009,0,181,16,Clear Sky,800,c01d,100,3.2,2.1
2022-07-15T21:00:00,28,27.3,1,10.7,33,300,5,51,d,0,894,34,1009,0,49,16,Clear Sky,800,c01d,310,3.6,2.1
2022-07-15T22:00:00,24,23.8,0,12.9,0,0,-2.8,0,n,0,894,50,1010,0,0,16,Clear Sky,800,c01n,330,4,2.1
2022-07-15T23:00:00,25,24.3,2,4.7,0,0,-9.3,0,n,0,893,27,1010,0,0,16,Few clouds,801,c02n,280,5.2,1.5
2022-07-16T00:00:00,24,23.1,0,2.8,0,0,-14.2,0,n,0,894,25,1010,0,0,16,Clear Sky,800,c01n,230,6,2.6
2022-07-16T01:00:00,21,20,0,3.7,0,0,-17,0,n,0,893,32,1010,0,0,16,Clear Sky,800,c01n,200,6.4,2.6
2022-07-16T02:00:00,21,20,0,3.7,0,0,-17.5,0,n,0,893,32,1010,0,0,16,Clear Sky,800,c01n,190,6,2.6
2022-07-16T03:00:00,19,18.1,0,5.8,0,0,-15.6,0,n,0,893,42,1010,0,0,16,Clear Sky,800,c01n,300,5.6,2.1
2022-07-16T04:00:00,18,18,0,3.9,0,0,-11.6,0,n,0,892,39,1011,0,0,16,Clear Sky,800,c01n,190,5.6,1
2022-07-16T05:00:00,14,14,0,5.9,0,0,-5.6,0,n,0,891,58,1011,0,0,16,Clear Sky,800,c01n,120,6,4.1
2022-07-16T06:00:00,14,14,0,4.8,17,108,1.7,12,d,0,890,54,1012,0,29,16,Clear Sky,800,c01n,50,6.4,2.1
2022-07-16T07:00:00,21,19.9,0,2.8,51,477,10.1,126,d,0,891,30,1011,0,126,16,Clear Sky,800,c01d,270,6.8,3.6
2022-07-16T08:00:00,20,19.2,0,6.7,72,653,19.1,279,d,0,894,42,1012,0,279,16,Clear Sky,800,c01d,20,6.8,4.1
2022-07-16T09:00:00,21,20.8,0,13.9,87,756,28.5,441,d,0,894,64,1013,0,424,16,Clear Sky,800,c01d,10,6,4.6
2022-07-16T10:00:00,22,21.9,0,14.9,98,822,37.8,596,d,0,895,64,1013,0,572,16,Clear Sky,800,c01d,10,6,4.6
2022-07-16T11:00:00,23,22.9,0,14.8,106,865,46.6,728,d,0,895,60,1013,0,699,16,Clear Sky,800,c01d,30,6.4,4.6
2022-07-16T12:00:00,25,24.9,1,13.9,111,892,54,827,d,0,895,50,1012,0,796,16,Clear Sky,800,c01d,10,7,4.6
2022-07-16T13:00:00,26,25.9,1,13.8,114,906,59,883,d,0,896,47,1012,0,850,16,Clear Sky,800,c01d,100,7,4.6
2022-07-16T14:00:00,26,26,1,14.8,115,908,59.9,893,d,0,896,50,1012,0,857,16,Clear Sky,800,c01d,90,5.7,5.7
2022-07-16T15:00:00,27,27,5,13,113,899,56.4,855,d,0,896,42,1012,0,825,16,Few clouds,801,c02d,70,8,6.2
2022-07-16T16:00:00,27,27,5,13,108,878,49.8,772,d,0,896,42,1011,0,745,16,Few clouds,801,c02d,110,9,5.7
2022-07-16T17:00:00,28,27.5,5,12,101,842,41.4,652,d,0,895,37,1011,0,630,16,Few clouds,801,c02d,90,9,6.2
2022-07-16T18:00:00,28,27.5,78,12,92,786,32.2,505,d,0,895,37,1011,0,293,16,Overcast clouds,804,c04d,100,8,5.7
2022-07-16T19:00:00,27,27,19,13,78,700,22.8,344,d,0,895,42,1010,0,331,16,Few clouds,801,c02d,110,6.2,6.2
2022-07-16T20:00:00,25,24.8,6,12.9,60,560,13.6,185,d,0,895,47,1010,0,178,16,Few clouds,801,c02d,60,6.2,6.2
2022-07-16T21:00:00,22,21.9,1,14.9,33,294,4.9,49,d,0,894,64,1011,0,47,16,Clear Sky,800,c01n,60,4.6,4.6
2022-07-16T22:00:00,21,20.8,1,13.9,0,0,-2.9,0,n,0,893,64,1012,0,0,16,Clear Sky,800,c01n,350,8,4.6
2022-07-16T23:00:00,19,19,6,14.9,0,0,-9.5,0,n,0,893,77,1012,0,0,16,Few clouds,801,c02n,10,8,6.2
2022-07-17T00:00:00,18,18,90,13.9,0,0,-14.4,0,n,0,893,77,1013,0,0,16,Overcast clouds,804,c04n,350,6.7,6.7
2022-07-17T01:00:00,16,16,100,13.8,0,0,-17.2,0,n,0,893,87,1013,0,0,16,Overcast clouds,804,c04n,350,5.6,5.1
2022-07-17T02:00:00,16,16,94,12,0,0,-17.7,0,n,0,892,77,1013,0,0,16,Overcast clouds,804,c04n,320,6.8,4.1
2022-07-17T03:00:00,15,15,87,10.8,0,0,-15.8,0,n,0,893,76,1013,0,0,16,Overcast clouds,804,c04n,350,7.2,3.6
2022-07-17T04:00:00,16,16,83,9.9,0,0,-11.7,0,n,0,892,67,1014,0,0,16,Overcast clouds,804,c04n,350,7.2,3.6
2022-07-17T05:00:00,16,16,92,11,0,0,-5.8,0,n,0,893,72,1013,0,0,11,Overcast clouds,804,c04n,360,6.8,5.7
2022-07-17T06:00:00,16,16,94,11,16,98,1.5,11,d,0,893,72,1014,0,18,16,Overcast clouds,804,c04n,330,6,4.1
2022-07-17T07:00:00,16,16,100,11,50,473,9.9,124,d,0,893,72,1014,0,58,16,Overcast clouds,804,c04d,20,6.4,4.1
2022-07-17T08:00:00,17,17,100,10.8,71,651,19,276,d,0,894,67,1015,0,89,16,Overcast clouds,804,c04d,350,6.4,3.6
2022-07-17T09:00:00,17,17,100,10.8,87,755,28.3,439,d,0,894,67,1015,0,116,16,Overcast clouds,804,c04d,360,6.4,3.1
2022-07-17T10:00:00,18,18,100,12.9,98,821,37.6,593,d,0,895,72,1016,0,135,16,Overcast clouds,804,c04d,360,6.8,4.1
2022-07-17T11:00:00,18,18,100,11.8,106,865,46.4,726,d,0,895,67,1016,0,153,16,Overcast clouds,804,c04d,40,9,4.6
2022-07-17T12:00:00,21,20.6,91,11.9,111,892,53.9,825,d,0,895,56,1015,0,259,16,Overcast clouds,804,c04d,60,9,6.2
2022-07-17T13:00:00,21,20.5,55,10.8,114,906,58.8,881,d,0,896,52,1015,0,750,16,Broken clouds,803,c03d,80,9,5.7
2022-07-17T14:00:00,21,20.6,61,11.9,115,908,59.7,891,d,0,896,56,1015,0,712,16,Broken clouds,803,c03d,60,9,4.1
2022-07-17T15:00:00,23,22.6,64,10.8,113,899,56.3,853,d,0,895,46,1014,0,658,16,Broken clouds,803,c03d,90,6.8,6.2
2022-07-17T16:00:00,22,21.5,8,10.8,108,878,49.7,771,d,0,895,49,1014,0,747,16,Few clouds,801,c02d,100,6.4,3.1
2022-07-17T17:00:00,22,21.5,5,9.9,101,841,41.3,651,d,0,895,46,1013,0,651,16,Few clouds,801,c02d,80,8,2.1
2022-07-17T18:00:00,23,22.6,5,10.8,91,785,32.1,503,d,0,895,46,1013,0,488,16,Few clouds,801,c02d,100,7,4.1
2022-07-17T19:00:00,22,21.5,5,10.8,78,699,22.7,342,d,0,895,49,1012,0,331,16,Few clouds,801,c02d,90,7,4.6
2022-07-17T20:00:00,21,20.5,4,10.8,60,558,13.5,183,d,0,894,52,1012,0,177,16,Few clouds,801,c02d,90,4.8,4.6
2022-07-17T21:00:00,21,20.5,0,10.8,32,288,4.8,48,d,0,893,52,1013,0,47,16,Clear Sky,800,c01n,100,3.2,3.1
2022-07-17T22:00:00,21,20.5,0,10.8,0,0,-3,0,n,0,893,52,1013,0,0,16,Clear Sky,800,c01n,110,3.6,3.6
2022-07-17T23:00:00,21,20.5,0,10.8,0,0,-9.6,0,n,0,889,52,1013,0,0,16,Clear Sky,800,c01n,110,3.6,3.6
2022-07-18T00:00:00,19,18.4,0,9.8,0,0,-14.5,0,n,0,894,55,1012,0,0,16,Clear Sky,800,c01n,100,3.6,3.6
2022-07-18T01:00:00,17,17,0,12.9,0,0,-17.4,0,n,0,892,77,1012,0,0,16,Clear Sky,800,c01n,110,4.1,4.1
2022-07-18T02:00:00,17,17,0,12.9,0,0,-17.9,0,n,0,891,77,1013,0,0,16,Clear Sky,800,c01n,160,3.6,3.6
2022-07-18T03:00:00,16,16,0,12.9,0,0,-16,0,n,0,892,82,1013,0,0,16,Clear Sky,800,c01n,180,3.2,2.6
2022-07-18T04:00:00,16,16,92,12.9,0,0,-11.9,0,n,0,892,82,1012,0,0,16,Overcast clouds,804,c04n,180,3.6,3.6
2022-07-18T05:00:00,16,16,92,12.9,0,0,-6,0,n,0,891,82,1011,0,0,16,Overcast clouds,804,c04n,130,3.6,3.6
2022-07-18T06:00:00,16,16,90,12.9,15,87,1.4,9,d,0,890,82,1010,0,18,16,Overcast clouds,804,c04n,120,4.6,4.6
2022-07-18T07:00:00,16,16,92,12.9,50,469,9.8,122,d,0,889,82,1009,0,84,16,Overcast clouds,804,c04d,160,3.6,3.6
2022-07-18T08:00:00,17,17,87,12.9,71,649,18.8,274,d,0.25,888,77,1009,0,111,16,Overcast clouds,804,c04d,220,14,5.1
2022-07-18T09:00:00,16,16,93,12.9,86,754,28.2,436,d,0.5,889,82,1008,0,114,16,Overcast clouds,804,c04d,170,15,11.3
2022-07-18T10:00:00,16,16,94,9.9,98,821,37.5,591,d,0.5,887,67,1009,0,160,16,Overcast clouds,804,c04d,230,13,5.1
2022-07-18T11:00:00,13,13,95,10.9,106,864,46.3,724,d,1.5,889,87,1011,0,146,16,Light rain,500,r01d,160,12,9.3
2022-07-18T12:00:00,13,13,94,10.9,111,891,53.7,823,d,1,888,87,1011,0,197,8,Light rain,500,r01d,170,6.7,6.7
2022-07-18T13:00:00,13,13,94,10.9,114,905,58.6,880,d,1,889,87,1010,0,210,16,Light rain,500,r01d,180,7.7,7.7
2022-07-18T14:00:00,13,13,92,10.9,115,908,59.5,889,d,1,887,87,1012,0,258,8,Light rain,500,r01d,200,6.2,6.2
2022-07-18T15:00:00,14,14,92,11,113,899,56.1,852,d,0.25,889,82,1010,0,247,16,Overcast clouds,804,c04d,200,4.8,3.6
2022-07-18T16:00:00,15,15,93,12,108,877,49.5,769,d,0.5,888,82,1010,0,202,16,Overcast clouds,804,c04d,230,6.8,3.1
2022-07-18T17:00:00,17,17,91,9.9,101,841,41.2,649,d,0,888,63,1009,0,225,16,Overcast clouds,804,c04d,270,7.6,1.5
2022-07-18T18:00:00,18,18,88,9.9,91,785,32,501,d,0,888,59,1009,0,209,16,Overcast clouds,804,c04d,260,8.4,1.5
2022-07-18T19:00:00,19,18.3,89,8.9,78,698,22.6,340,d,0,889,52,1009,0,134,16,Overcast clouds,804,c04d,250,4.8,1.5
2022-07-18T20:00:00,20,19.4,90,9.9,59,555,13.4,180,d,0,889,52,1009,0,67,16,Overcast clouds,804,c04d,270,3.6,2.6
2022-07-18T21:00:00,19,18.5,81,10.8,32,282,4.7,46,d,0,890,59,1009,0,56,16,Overcast clouds,804,c04n,260,4,1.5
2022-07-18T22:00:00,19,18.6,81,11.8,0,0,-3.2,0,n,0,889,63,1010,0,0,16,Overcast clouds,804,c04n,230,5.6,1.5
2022-07-18T23:00:00,17,17,2,11.9,0,0,-9.8,0,n,0,890,72,1012,0,0,16,Few clouds,801,c02n,255,6.4,1
2022-07-19T00:00:00,17,17,0,10.8,0,0,-14.7,0,n,0,890,67,1012,0,0,16,Clear Sky,800,c01n,275,6.8,3.6
2022-07-19T01:00:00,17,17,1,10.8,0,0,-17.5,0,n,0,891,67,1012,0,0,16,Clear Sky,800,c01n,300,7.2,4
2022-07-19T02:00:00,17,17,0,11.9,0,0,-18,0,n,0,891,72,1013,0,0,16,Clear Sky,800,c01n,320,7.7,7.7
2022-07-19T03:00:00,18,18,0,9.9,0,0,-16.2,0,n,0,891,59,1013,0,0,16,Clear Sky,800,c01n,260,9,1.5
2022-07-19T04:00:00,19,18.1,0,5.8,0,0,-12.1,0,n,0,892,42,1013,0,0,16,Clear Sky,800,c01n,290,9,6.7
2022-07-19T05:00:00,18,18,0,5.9,0,0,-6.1,0,n,0,892,45,1013,0,0,16,Clear Sky,800,c01n,320,7,5.1
2022-07-19T06:00:00,16,16,0,7,14,76,1.2,8,d,0,893,55,1014,0,22,16,Clear Sky,800,c01n,350,6,1.5
2022-07-19T07:00:00,17,17,0,7.9,49,465,9.6,119,d,0,892,55,1014,0,119,16,Clear Sky,800,c01d,315,5.6,1
2022-07-19T08:00:00,20,19.2,0,7.7,71,647,18.7,271,d,0,893,45,1014,0,271,16,Clear Sky,800,c01d,280,5.6,1
2022-07-19T09:00:00,20,19.2,0,7.7,86,752,28,434,d,0,894,45,1014,0,434,16,Clear Sky,800,c01d,245,4.8,1
2022-07-19T10:00:00,22,21.5,0,9.9,97,820,37.3,589,d,0,894,46,1013,0,589,16,Clear Sky,800,c01d,210,4.4,1.5
2022-07-19T11:00:00,24,23.4,0,7.6,106,864,46.1,722,d,0,895,35,1013,0,722,16,Clear Sky,800,c01d,260,9,4.1
2022-07-19T12:00:00,26,25.3,0,4.5,111,891,53.5,821,d,0,895,25,1012,0,821,16,Clear Sky,800,c01d,260,9,7.2
2022-07-19T13:00:00,26,25.3,0,4.5,114,905,58.4,878,d,0,895,25,1011,0,878,16,Clear Sky,800,c01d,270,11,7.2
2022-07-19T14:00:00,27,26.1,0,3.5,114,907,59.3,888,d,0,895,22,1010,0,888,16,Clear Sky,800,c01d,240,11,7.2
2022-07-19T15:00:00,28,26.8,0,3.7,113,898,55.9,850,d,0,894,21,1009,0,850,16,Clear Sky,800,c01d,290,10,7.7
2022-07-19T16:00:00,28,26.7,1,3,108,877,49.4,767,d,0,894,20,1009,0,767,16,Clear Sky,800,c01d,280,9,5.7
2022-07-19T17:00:00,29,27.4,0,1.5,101,840,41,647,d,0,894,17,1008,0,647,16,Clear Sky,800,c01d,290,12,8.8
2022-07-19T18:00:00,29,27.4,0,1.5,91,784,31.9,499,d,0,893,17,1008,0,499,16,Clear Sky,800,c01d,290,12,8.2
2022-07-19T19:00:00,28,26.7,0,1.5,78,696,22.5,338,d,0,893,18,1008,0,338,16,Clear Sky,800,c01d,290,10,6.7
2022-07-19T20:00:00,27,26.1,1,1.4,59,553,13.2,178,d,0,893,19,1008,0,178,16,Clear Sky,800,c01d,290,9,5.7
2022-07-19T21:00:00,25,24.2,25,2.4,31,275,4.5,44,d,0,893,23,1010,0,44,16,Scattered clouds,802,c02n,320,10,5.7
2022-07-19T22:00:00,19,18.7,32,13,0,0,-3.3,0,n,0,895,68,1012,0,0,16,Scattered clouds,802,c02n,360,12,6.7
2022-07-19T23:00:00,16,16,7,11,0,0,-9.9,0,n,0,896,72,1015,0,0,16,Few clouds,801,c02n,10,13,9.3
2022-07-20T00:00:00,14,14,2,8,0,0,-14.9,0,n,0,896,67,1016,0,0,16,Few clouds,801,c02n,350,9.2,6.2
2022-07-20T01:00:00,14,14,0,8,0,0,-17.7,0,n,0,893,67,1016,0,0,16,Clear Sky,800,c01n,330,5.2,3.6
2022-07-20T02:00:00,15,15,1,6.8,0,0,-18.2,0,n,0,894,58,1017,0,0,16,Clear Sky,800,c01n,290,3.2,2.6
2022-07-20T03:00:00,13,13,4,6.8,0,0,-16.3,0,n,0,898,66,1017,0,0,16,Few clouds,801,c02n,190,3.6,1.5
2022-07-20T04:00:00,14,14,2,6.8,0,0,-12.3,0,n,0,893,62,1018,0,0,16,Few clouds,801,c02n,230,3.6,2.1
2022-07-20T05:00:00,12,12,0,6.9,0,0,-6.3,0,n,0,898,71,1018,0,0,16,Clear Sky,800,c01n,230,3.6,1
2022-07-20T06:00:00,11,11,0,6,13,65,1.1,7,d,0,893,71,1018,0,20,16,Clear Sky,800,c01n,230,2.8,1
2022-07-20T07:00:00,12,12,0,7.9,49,461,9.5,117,d,0,894,76,1018,0,117,16,Clear Sky,800,c01d,230,3.2,1
2022-07-20T08:00:00,15,15,0,6.8,70,645,18.5,269,d,0,895,58,1018,0,269,16,Clear Sky,800,c01d,230,4,2.1
2022-07-20T09:00:00,17,17,0,6.8,86,751,27.9,431,d,0,896,51,1018,0,431,16,Clear Sky,800,c01d,140,6,3.6
2022-07-20T10:00:00,18,18,0,5.9,97,819,37.2,587,d,0,897,45,1018,0,587,16,Clear Sky,800,c01d,190,9,5.1
2022-07-20T11:00:00,20,19.2,5,6.7,106,863,46,720,d,0,897,42,1017,0,720,16,Few clouds,801,c02d,180,8,6.2
2022-07-20T12:00:00,21,20.4,11,8.9,111,891,53.4,819,d,0,897,46,1017,0,819,16,Few clouds,801,c02d,190,7,4.6
2022-07-20T13:00:00,22,21.5,0,9.9,114,905,58.2,876,d,0,897,46,1016,0,876,16,Clear Sky,800,c01d,190,7.2,5.7
2022-07-20T14:00:00,23,22.5,0,9.8,114,907,59.2,886,d,0,897,43,1015,0,886,16,Clear Sky,800,c01d,170,7,4.1
2022-07-20T15:00:00,24,23.6,0,11,112,898,55.8,848,d,0,896,44,1015,0,822,16,Clear Sky,800,c01d,130,7,4.6
2022-07-20T16:00:00,25,24.7,0,11.9,108,876,49.2,765,d,0,896,44,1014,0,740,16,Clear Sky,800,c01d,130,7,4.6
2022-07-20T17:00:00,25,24.7,5,11.9,101,840,40.9,645,d,0,897,44,1014,0,624,16,Few clouds,801,c02d,120,9,6.2
2022-07-20T18:00:00,25,24.6,2,10.8,91,783,31.7,497,d,0,896,41,1014,0,482,16,Few clouds,801,c02d,150,5.1,5.1
2022-07-20T19:00:00,25,24.7,5,11.9,77,695,22.3,335,d,0,896,44,1013,0,324,16,Few clouds,801,c02d,140,5.1,5.1
2022-07-20T20:00:00,24,23.7,5,12,59,550,13.1,176,d,0,896,47,1013,0,170,16,Few clouds,801,c02d,120,5.7,5.7
2022-07-20T21:00:00,22,21.7,5,12.8,31,267,4.4,42,d,0,895,56,1013,0,41,16,Few clouds,801,c02n,100,4.6,4.6
2022-07-20T22:00:00,19,18.6,0,11.8,0,0,-3.5,0,n,0,895,63,1015,0,0,16,Clear Sky,800,c01n,80,3.6,3.6
2022-07-20T23:00:00,18,18,0,10.9,0,0,-10.1,0,n,0,898,63,1015,0,0,16,Clear Sky,800,c01n,60,3.2,1.5
2022-07-21T00:00:00,17,17,3,10.8,0,0,-15.1,0,n,0,894,67,1015,0,0,16,Few clouds,801,c02n,120,3.2,2.1
2022-07-21T01:00:00,17,17,4,10.8,0,0,-17.9,0,n,0,894,67,1015,0,0,16,Few clouds,801,c02n,155,1.6,0.8
2022-07-21T02:00:00,17,17,5,10.8,0,0,-18.4,0,n,0,894,67,1015,0,0,16,Few clouds,801,c02n,190,2.4,1
2022-07-21T03:00:00,16,16,3,11,0,0,-16.5,0,n,0,894,72,1015,0,0,16,Few clouds,801,c02n,220,3.6,1
2022-07-21T04:00:00,16,16,2,11,0,0,-12.4,0,n,0,894,72,1015,0,0,16,Few clouds,801,c02n,240,4.4,2.1
2022-07-21T05:00:00,13,13,23,10.9,0,0,-6.5,0,n,0,893,87,1015,0,0,16,Scattered clouds,802,c02n,270,4.8,2.8
2022-07-21T06:00:00,13,13,25,10,11,54,0.9,5,d,0,896,82,1015,0,16,16,Scattered clouds,802,c02n,295,5.2,3.2
2022-07-21T07:00:00,14,14,15,9.8,48,456,9.3,114,d,0,893,76,1015,0,114,16,Few clouds,801,c02d,325,5.2,3.2
2022-07-21T08:00:00,18,18,25,8,70,643,18.4,266,d,0,893,52,1015,0,264,16,Scattered clouds,802,c02d,350,5.2,2.1
2022-07-21T09:00:00,21,20.1,1,5.8,86,750,27.7,429,d,0,895,37,1015,0,429,16,Clear Sky,800,c01d,350,4.8,4.1
2022-07-21T10:00:00,23,22.3,0,7.9,97,818,37,584,d,0,896,38,1014,0,584,16,Clear Sky,800,c01d,360,4.8,2.6
2022-07-21T11:00:00,24,23.3,0,6.7,105,863,45.8,717,d,0,897,33,1014,0,717,16,Clear Sky,800,c01d,110,4,1.5
2022-07-21T12:00:00,25,24.4,0,6.7,111,890,53.2,817,d,0,897,31,1014,0,817,16,Clear Sky,800,c01d,135,7,0.8
2022-07-21T13:00:00,25,24.4,0,6.7,114,904,58,874,d,0,897,31,1013,0,874,16,Clear Sky,800,c01d,160,7,2.6
2022-07-21T14:00:00,27,26.3,0,6.9,114,907,59,884,d,0,896,28,1012,0,884,16,Clear Sky,800,c01d,170,7,5.1
2022-07-21T15:00:00,27,26.5,0,8.9,112,897,55.6,846,d,0,896,32,1011,0,846,16,Clear Sky,800,c01d,170,9,4.1
2022-07-21T16:00:00,28,27.1,0,8.8,108,876,49.1,763,d,0,895,30,1011,0,763,16,Clear Sky,800,c01d,160,7.7,7.7
2022-07-21T17:00:00,28,27.1,2,8.8,101,839,40.8,643,d,0,895,30,1010,0,643,16,Few clouds,801,c02d,150,9,8.2
2022-07-21T18:00:00,28,27.1,17,8.8,91,782,31.6,495,d,0,894,30,1010,0,494,16,Few clouds,801,c02d,170,10,7.2
2022-07-21T19:00:00,27,26.8,23,11.9,77,693,22.2,333,d,0,894,39,1009,0,320,16,Scattered clouds,802,c02d,140,10,7.2
2022-07-21T20:00:00,26,25.7,4,11,58,547,12.9,174,d,0,893,39,1009,0,169,16,Few clouds,801,c02d,160,10,6.2
2022-07-21T21:00:00,24,23.8,23,12.9,30,260,4.2,40,d,0,892,50,1009,0,38,16,Scattered clouds,802,c02n,140,9,5.1
2022-07-21T22:00:00,21,20.6,23,11.9,0,0,-3.7,0,n,0,892,56,1009,0,0,16,Scattered clouds,802,c02n,90,3.2,3.1
2022-07-21T23:00:00,20,19.6,15,12,0,0,-10.3,0,n,0,891,60,1009,0,0,16,Few clouds,801,c02n,220,2.8,1
2022-07-22T00:00:00,18,18,25,12.9,0,0,-15.2,0,n,0,891,72,1010,0,0,16,Scattered clouds,802,c02n,350,3.1,3.1
2022-07-22T01:00:00,16,16,79,12,0,0,-18.1,0,n,0,890,77,1010,0,0,16,Overcast clouds,804,c04n,330,3.6,3.1
2022-07-22T02:00:00,15,15,75,12,0,0,-18.6,0,n,0,890,82,1011,0,0,16,Overcast clouds,804,c04n,350,4.4,4.1
2022-07-22T03:00:00,14,14,5,11.9,0,0,-16.7,0,n,0,890,87,1012,0,0,16,Few clouds,801,c02n,340,10.4,6.2
2022-07-22T04:00:00,14,14,49,9.8,0,0,-12.6,0,n,0,893,76,1012,0,0,16,Broken clouds,803,c03n,360,10.8,6.7
2022-07-22T05:00:00,13,13,42,10,0,0,-6.7,0,n,0,894,82,1014,0,0,16,Broken clouds,803,c03n,360,9.2,6.2
2022-07-22T06:00:00,12,12,77,8.8,10,43,0.7,4,d,0,892,81,1015,0,13,16,Overcast clouds,804,c04n,330,7.2,4.1
2022-07-22T07:00:00,14,14,1,9.8,48,452,9.1,112,d,0,893,76,1015,0,112,16,Clear Sky,800,c01d,310,6.8,2.1
2022-07-22T08:00:00,15,15,0,10,70,640,18.2,264,d,0,892,72,1015,0,264,16,Clear Sky,800,c01d,260,7.2,2.6
2022-07-22T09:00:00,16,16,0,9,86,749,27.6,426,d,0,893,63,1015,0,426,16,Clear Sky,800,c01d,250,6.8,2.6
2022-07-22T10:00:00,18,18,5,8.8,97,818,36.9,582,d,0,893,55,1015,0,582,16,Few clouds,801,c02d,150,5.2,2.1
2022-07-22T11:00:00,20,19.4,9,9.9,105,862,45.6,715,d,0,893,52,1015,0,715,16,Few clouds,801,c02d,155,4.4,2.1
2022-07-22T12:00:00,21,20.4,27,8.9,111,890,53,815,d,0,893,46,1015,0,806,16,Scattered clouds,802,c02d,160,8,4.6
2022-07-22T13:00:00,23,22.4,62,8.7,114,904,57.8,872,d,0,895,40,1014,0,718,16,Broken clouds,803,c03d,120,8,4.6
2022-07-22T14:00:00,23,22.6,67,10.8,114,906,58.8,882,d,0,896,46,1014,0,651,16,Broken clouds,803,c03d,170,10,4.6
2022-07-22T15:00:00,23,22.5,100,9.8,112,897,55.4,844,d,0,895,43,1014,0,196,16,Overcast clouds,804,c04d,140,11,6.7
2022-07-22T16:00:00,21,20.4,80,9.9,108,875,48.9,761,d,0,895,49,1016,0,440,16,Overcast clouds,804,c04d,200,12,2.6
2022-07-22T17:00:00,16,16,76,9.9,101,838,40.6,640,d,1.25,899,67,1017,0,407,16,Light rain,500,r01d,330,12,7.2
2022-07-22T18:00:00,16,16,85,12,91,781,31.5,492,d,1.5,905,77,1016,0,214,16,Light rain,500,r01d,120,5.1,5.1
2022-07-22T19:00:00,16,16,94,12.9,77,691,22,330,d,0.25,893,82,1017,0,77,16,Overcast clouds,804,c04d,10,4.8,2.6
2022-07-22T20:00:00,16,16,95,12,58,544,12.8,171,d,0.25,894,77,1017,0,93,16,Overcast clouds,804,c04d,50,5.6,3.1
2022-07-22T21:00:00,15,15,91,10.8,29,251,4.1,38,d,0.25,898,76,1018,0,41,11,Overcast clouds,804,c04n,40,4.4,3.1
2022-07-22T22:00:00,15,15,84,12,0,0,-3.8,0,n,0.5,894,82,1017,0,0,11,Overcast clouds,804,c04n,140,4.6,4.6
2022-07-22T23:00:00,14,14,86,11.9,0,0,-10.5,0,n,0.5,894,87,1018,0,0,16,Overcast clouds,804,c04n,350,3.6,3.6
2022-07-23T00:00:00,14,14,84,11,0,0,-15.4,0,n,0,895,82,1018,0,0,16,Overcast clouds,804,c04n,330,2.6,2.6
2022-07-23T01:00:00,15,15,81,10.8,0,0,-18.3,0,n,0,895,76,1018,0,0,16,Overcast clouds,804,c04n,310,1.6,1
2022-07-23T02:00:00,14,14,85,11,0,0,-18.8,0,n,0,896,82,1018,0,0,11,Overcast clouds,804,c04n,20,2.1,2.1
2022-07-23T03:00:00,14,14,84,11,0,0,-16.9,0,n,0,895,82,1018,0,0,16,Overcast clouds,804,c04n,45,2.4,1
2022-07-23T04:00:00,13,13,82,10.9,0,0,-12.8,0,n,0,895,87,1018,0,0,16,Overcast clouds,804,c04n,75,2.8,1.6
2022-07-23T05:00:00,13,13,35,10.9,0,0,-6.8,0,n,0,895,87,1019,0,0,16,Scattered clouds,802,c02n,100,2.8,1
2022-07-23T06:00:00,14,14,74,11.9,9,32,0.6,3,d,0,895,87,1019,0,11,16,Overcast clouds,804,c04n,210,2.8,1
2022-07-23T07:00:00,14,14,31,11.9,47,447,9,109,d,0,895,87,1019,0,103,16,Scattered clouds,802,c02d,220,3.2,1.5
2022-07-23T08:00:00,15,15,7,10.8,70,638,18,261,d,0,892,76,1019,0,253,16,Few clouds,801,c02d,220,4,2.6
2022-07-23T09:00:00,16,16,5,11,85,748,27.4,424,d,0,896,72,1019,0,411,16,Few clouds,801,c02d,230,4.8,2.1
2022-07-23T10:00:00,18,18,5,10.9,97,817,36.7,579,d,0,896,63,1019,0,561,16,Few clouds,801,c02d,170,5.6,3.6
2022-07-23T11:00:00,20,19.5,16,11,105,862,45.5,713,d,0,896,56,1019,0,689,16,Few clouds,801,c02d,170,7,4.1
2022-07-23T12:00:00,21,20.6,9,11.9,111,889,52.8,812,d,0,895,56,1018,0,785,16,Few clouds,801,c02d,150,7,3.6
2022-07-23T13:00:00,23,22.6,5,11.7,114,904,57.6,870,d,0,895,49,1018,0,841,16,Few clouds,801,c02d,180,7,5.1
2022-07-23T14:00:00,24,23.6,5,11,114,906,58.5,880,d,0,895,44,1017,0,853,16,Few clouds,801,c02d,140,8,5.7
2022-07-23T15:00:00,24,23.7,1,12,112,897,55.2,842,d,0,895,47,1017,0,814,16,Clear Sky,800,c01d,130,8,6.7
2022-07-23T16:00:00,25,24.7,1,11.9,108,875,48.7,759,d,0,894,44,1017,0,734,16,Clear Sky,800,c01d,120,8.2,8.2
2022-07-23T17:00:00,25,24.6,1,10.8,101,838,40.4,638,d,0,899,41,1017,0,618,16,Clear Sky,800,c01d,140,7.6,6.7
2022-07-23T18:00:00,23,22.6,5,10.8,91,780,31.3,490,d,0,899,46,1017,0,475,16,Few clouds,801,c02d,160,6.4,4.6
2022-07-23T19:00:00,23,22.6,76,11.7,77,690,21.9,328,d,0,898,49,1017,0,201,16,Overcast clouds,804,c04d,150,7.2,7.2
2022-07-23T20:00:00,22,21.7,96,12.8,58,540,12.6,168,d,0.25,898,56,1018,0,88,16,Overcast clouds,804,c04d,150,9,6.2
2022-07-23T21:00:00,21,20.7,95,12.9,28,243,3.9,36,d,0,897,60,1018,0,35,16,Overcast clouds,804,c04n,130,9,4.6
2022-07-23T22:00:00,19,18.7,94,13,0,0,-4,0,n,0,898,68,1018,0,0,16,Overcast clouds,804,c04n,150,4.1,4.1
2022-07-23T23:00:00,17,17,100,12.9,0,0,-10.7,0,n,0,897,77,1018,0,0,16,Overcast clouds,804,c04n,150,3.2,3.1
2022-07-24T00:00:00,16,16,90,12.9,0,0,-15.6,0,n,0,897,82,1018,0,0,16,Overcast clouds,804,c04n,180,3.6,2.6
2022-07-24T01:00:00,16,16,88,12,0,0,-18.5,0,n,0,896,77,1018,0,0,16,Overcast clouds,804,c04n,170,4,3.1
2022-07-24T02:00:00,16,16,53,12,0,0,-19,0,n,0,896,77,1018,0,0,16,Broken clouds,803,c03n,170,4,3.1
2022-07-24T03:00:00,16,16,49,12,0,0,-17.1,0,n,0,896,77,1018,0,0,16,Broken clouds,803,c03n,130,3.6,1.5
2022-07-24T04:00:00,15,15,4,12,0,0,-13,0,n,0,896,82,1018,0,0,16,Few clouds,801,c02n,180,3.6,2.1
2022-07-24T05:00:00,15,15,2,12,0,0,-7,0,n,0,896,82,1018,0,0,16,Few clouds,801,c02n,220,2.4,2.1
2022-07-24T06:00:00,14,14,3,11.9,8,22,0.4,2,d,0,896,87,1018,0,10,16,Few clouds,801,c02n,230,2.4,1.5
2022-07-24T07:00:00,14,14,1,11.9,47,442,8.8,106,d,0,895,87,1018,0,102,16,Clear Sky,800,c01d,200,2.8,2.6
2022-07-24T08:00:00,15,15,1,10,69,636,17.9,258,d,0,895,72,1018,0,258,16,Clear Sky,800,c01d,190,3.6,3.6
2022-07-24T09:00:00,18,18,1,9.9,85,746,27.3,421,d,0,896,59,1018,0,421,16,Clear Sky,800,c01d,300,3.6,1.5
2022-07-24T10:00:00,23,22.5,13,9.8,97,816,36.6,577,d,0,897,43,1017,0,576,16,Few clouds,801,c02d,350,4.1,4.1
2022-07-24T11:00:00,24,23.5,11,9.9,105,861,45.3,710,d,0,899,41,1017,0,710,16,Few clouds,801,c02d,350,3.6,3.1
2022-07-24T12:00:00,26,25.5,23,8.9,111,889,52.6,810,d,0,899,34,1017,0,805,16,Scattered clouds,802,c02d,340,5.1,5.1
2022-07-24T13:00:00,26,25.4,3,6.6,113,903,57.4,867,d,0,899,29,1017,0,867,16,Few clouds,801,c02d,330,8,4.1
2022-07-24T14:00:00,26,25.7,5,11,114,906,58.3,878,d,0,899,39,1017,0,851,16,Few clouds,801,c02d,340,8,5.1
2022-07-24T15:00:00,27,26.6,39,9.8,112,896,55,839,d,0,899,34,1016,0,808,16,Scattered clouds,802,c02d,10,4.8,3.6
2022-07-24T16:00:00,27,26.8,81,11.9,108,874,48.5,756,d,0,899,39,1016,0,399,16,Overcast clouds,804,c04d,50,4.8,4.1
2022-07-24T17:00:00,27,26.7,39,10.7,101,837,40.3,636,d,0,899,36,1016,0,593,16,Scattered clouds,802,c02d,40,5.6,4.1
2022-07-24T18:00:00,25,24.8,80,12.9,90,779,31.1,487,d,0,899,47,1017,0,265,16,Overcast clouds,804,c04d,80,6.8,4.1
2022-07-24T19:00:00,25,24.9,92,14.8,76,688,21.7,325,d,0,899,53,1017,0,92,16,Overcast clouds,804,c04d,40,5.7,5.7
2022-07-24T20:00:00,23,22.9,86,14.8,57,537,12.5,166,d,0,898,60,1017,0,70,16,Overcast clouds,804,c04d,60,6.2,6.2
2022-07-24T21:00:00,21,20.8,87,13.9,28,233,3.7,34,d,0,898,64,1017,0,41,16,Overcast clouds,804,c04n,50,6.4,5.7
2022-07-24T22:00:00,20,19.8,86,13.9,0,0,-4.2,0,n,0,897,68,1017,0,0,16,Overcast clouds,804,c04n,40,6,5.7
2022-07-24T23:00:00,19,18.5,82,10.8,0,0,-10.9,0,n,0,897,59,1017,0,0,16,Overcast clouds,804,c04n,50,4.4,4.1
2022-07-25T00:00:00,19,18.5,86,10.8,0,0,-15.8,0,n,0,897,59,1017,0,0,16,Overcast clouds,804,c04n,30,4,3.1
2022-07-25T01:00:00,18,18,89,12.9,0,0,-18.7,0,n,1,897,72,1017,0,0,16,Light rain,500,r01n,30,9,6.2
2022-07-25T02:00:00,16,16,92,13.8,0,0,-19.3,0,n,0.5,897,87,1018,0,0,10,Overcast clouds,804,c04n,40,9,6.7
2022-07-25T03:00:00,15,15,94,13.9,0,0,-17.4,0,n,0.5,897,93,1018,0,0,10,Overcast clouds,804,c04n,20,5.1,5.1
2022-07-25T04:00:00,14,14,90,12.9,0,0,-13.2,0,n,0.5,897,93,1019,0,0,11,Overcast clouds,804,c04n,20,5.6,4.6
2022-07-25T05:00:00,14,14,89,11.9,0,0,-7.2,0,n,0.5,896,87,1019,0,0,10,Overcast clouds,804,c04n,20,5.6,3.6
2022-07-25T06:00:00,13,13,77,10.9,6,13,0.2,1,d,0.5,897,87,1020,0,7,10,Overcast clouds,804,c04n,50,4.8,4.6
2022-07-25T07:00:00,13,13,78,10.9,46,437,8.6,104,d,0,896,87,1020,0,60,11,Overcast clouds,804,c04d,30,3.6,3.6
2022-07-25T08:00:00,14,14,74,11,69,633,17.7,255,d,0,896,82,1020,0,164,16,Overcast clouds,804,c04d,30,2.8,2.1
2022-07-25T09:00:00,14,14,49,11,85,745,27.1,418,d,0,896,82,1020,0,371,16,Broken clouds,803,c03d,140,2.4,1
2022-07-25T10:00:00,15,15,74,10.8,97,815,36.4,574,d,0,896,76,1020,0,370,16,Overcast clouds,804,c04d,190,3.6,1.5
2022-07-25T11:00:00,16,16,42,9.9,105,860,45.1,708,d,0,896,67,1020,0,675,16,Broken clouds,803,c03d,190,5.2,2.6
2022-07-25T12:00:00,17,17,45,10.8,110,888,52.4,808,d,0,897,67,1020,0,735,16,Broken clouds,803,c03d,190,6,3.6
2022-07-25T13:00:00,19,18.6,27,11.8,113,903,57.2,865,d,0,901,63,1019,0,827,16,Scattered clouds,802,c02d,180,6.4,3.6
2022-07-25T14:00:00,19,18.5,77,10.8,114,905,58.1,875,d,0,898,59,1019,0,524,16,Overcast clouds,804,c04d,210,6,1.5
2022-07-25T15:00:00,21,20.5,78,10.8,112,896,54.8,837,d,0,898,52,1019,0,487,16,Overcast clouds,804,c04d,275,7,1
2022-07-25T16:00:00,21,20.5,78,10.8,108,874,48.4,754,d,0,899,52,1019,0,439,16,Overcast clouds,804,c04d,340,7,2.6
2022-07-25T17:00:00,20,19.6,77,12,100,836,40.1,633,d,0,899,60,1019,0,377,16,Overcast clouds,804,c04d,50,6.2,6.2
2022-07-25T18:00:00,20,19.6,90,12,90,778,31,485,d,0,898,60,1020,0,164,16,Overcast clouds,804,c04d,50,6.4,4.1
2022-07-25T19:00:00,19,18.6,81,11.8,76,686,21.6,322,d,0.5,899,63,1020,0,170,16,Overcast clouds,804,c04d,360,5.6,3.6
2022-07-25T20:00:00,19,18.5,76,10.8,57,533,12.3,163,d,0,898,59,1020,0,100,16,Overcast clouds,804,c04d,360,4.8,4.1
2022-07-25T21:00:00,19,18.6,100,11.8,27,224,3.5,32,d,0,898,63,1020,0,29,16,Overcast clouds,804,c04n,310,3.2,2.6
2022-07-25T22:00:00,18,18,49,11.8,0,0,-4.4,0,n,0,903,67,1021,0,0,16,Broken clouds,803,c03n,300,3.2,2.6
2022-07-25T23:00:00,17,17,77,12.9,0,0,-11.1,0,n,0,903,77,1021,0,0,16,Overcast clouds,804,c04n,360,3.6,2.6
2022-07-26T00:00:00,17,17,77,11.9,0,0,-16,0,n,0,899,72,1021,0,0,16,Overcast clouds,804,c04n,350,3.6,1.5
2022-07-26T01:00:00,16,16,43,12,0,0,-19,0,n,0,899,77,1021,0,0,16,Broken clouds,803,c03n,350,3.2,2.1
2022-07-26T02:00:00,15,15,6,12,0,0,-19.5,0,n,0,898,82,1021,0,0,16,Few clouds,801,c02n,340,2.8,1
2022-07-26T03:00:00,14,14,25,11,0,0,-17.6,0,n,0,898,82,1021,0,0,16,Scattered clouds,802,c02n,340,2.8,1.5
2022-07-26T04:00:00,15,15,38,12,0,0,-13.4,0,n,0,896,82,1021,0,0,16,Scattered clouds,802,c02n,190,2.8,1.6
2022-07-26T05:00:00,15,15,45,12,0,0,-7.4,0,n,0,896,82,1021,0,0,16,Broken clouds,803,c03n,40,2.8,1
2022-07-26T06:00:00,14,14,47,11.9,4,6,0,1,d,0,896,87,1021,0,5,16,Broken clouds,803,c03n,360,2.8,1
2022-07-26T07:00:00,15,15,76,12,46,431,8.5,101,d,0,897,82,1021,0,62,16,Overcast clouds,804,c04d,310,3.6,1
2022-07-26T08:00:00,16,16,78,12,69,631,17.5,252,d,0,897,77,1021,0,146,16,Overcast clouds,804,c04d,320,3.6,1.2
2022-07-26T09:00:00,17,17,77,10.8,85,743,26.9,416,d,0,898,67,1021,0,249,16,Overcast clouds,804,c04d,330,3.2,1
2022-07-26T10:00:00,18,18,77,10.9,96,814,36.2,572,d,0,899,63,1021,0,342,16,Overcast clouds,804,c04d,335,3.6,0.8
2022-07-26T11:00:00,19,18.6,35,11.8,105,860,44.9,705,d,0,899,63,1021,0,664,16,Scattered clouds,802,c02d,340,4.4,2.6
2022-07-26T12:00:00,19,18.6,39,11.8,110,888,52.2,805,d,0,899,63,1020,0,749,16,Scattered clouds,802,c02d,10,4.4,1.5
2022-07-26T13:00:00,21,20.6,76,11.9,113,902,57,863,d,0,899,56,1020,0,529,16,Overcast clouds,804,c04d,10,4.4,2.6
2022-07-26T14:00:00,22,21.6,75,12,114,905,57.9,873,d,0,900,53,1020,0,548,16,Overcast clouds,804,c04d,40,4.8,1
2022-07-26T15:00:00,22,21.6,8,12,112,895,54.6,835,d,0,900,53,1019,0,807,16,Few clouds,801,c02d,70,4.4,3.6
2022-07-26T16:00:00,23,22.6,26,10.8,107,873,48.2,752,d,0,900,46,1019,0,722,16,Scattered clouds,802,c02d,30,4.8,4.1
2022-07-26T17:00:00,23,22.6,54,10.8,100,836,39.9,630,d,0,900,46,1019,0,541,16,Broken clouds,803,c03d,80,5.2,3.1
2022-07-26T18:00:00,24,23.7,38,12,90,777,30.8,482,d,0,900,47,1019,0,450,16,Scattered clouds,802,c02d,70,5.6,4.1
2022-07-26T19:00:00,23,22.5,69,9.8,76,684,21.4,319,d,0,900,43,1019,0,238,16,Broken clouds,803,c03d,60,5.2,4.6
2022-07-26T20:00:00,21,20.4,0,9.9,56,529,12.1,160,d,0,899,49,1019,0,160,16,Clear Sky,800,c01d,110,4.1,4.1
2022-07-26T21:00:00,20,19.4,0,9.9,26,213,3.3,29,d,0,899,52,1019,0,29,16,Clear Sky,800,c01n,110,3.2,3.1
2022-07-26T22:00:00,20,19.5,1,11,0,0,-4.6,0,n,0,898,56,1019,0,0,16,Clear Sky,800,c01n,120,4.1,4.1
2022-07-26T23:00:00,19,18.4,34,9.8,0,0,-11.3,0,n,0,897,55,1020,0,0,16,Scattered clouds,802,c02n,120,3.6,3.6
2022-07-27T00:00:00,17,17,83,10.8,0,0,-16.3,0,n,0,899,67,1020,0,0,16,Overcast clouds,804,c04n,180,3.6,3.6
2022-07-27T01:00:00,16,16,100,11,0,0,-19.2,0,n,0,898,72,1019,0,0,16,Overcast clouds,804,c04n,180,3.2,2.6
2022-07-27T02:00:00,16,16,100,11,0,0,-19.7,0,n,0,897,72,1019,0,0,16,Overcast clouds,804,c04n,190,3.6,3.6
2022-07-27T03:00:00,16,16,34,12,0,0,-17.8,0,n,0,897,77,1019,0,0,16,Scattered clouds,802,c02n,180,2.8,2.6
2022-07-27T04:00:00,15,15,38,12,0,0,-13.6,0,n,0,897,82,1019,0,0,16,Scattered clouds,802,c02n,180,2.8,2.6
2022-07-27T05:00:00,16,16,79,12,0,0,-7.6,0,n,0,897,77,1019,0,0,16,Overcast clouds,804,c04n,170,2.6,2.6
2022-07-27T06:00:00,16,16,44,12.9,3,1,-0.2,0,n,0,897,82,1019,0,0,16,Broken clouds,803,c03n,190,2.8,1.5
2022-07-27T07:00:00,16,16,49,12.9,45,426,8.3,98,d,0,897,82,1019,0,87,16,Broken clouds,803,c03d,210,3.2,2
2022-07-27T08:00:00,18,18,9,12.9,68,628,17.4,250,d,0,897,72,1019,0,241,16,Few clouds,801,c02d,230,3.6,2.6
2022-07-27T09:00:00,19,18.6,2,11.8,84,742,26.8,413,d,0,898,63,1020,0,399,16,Few clouds,801,c02d,220,4,3.1
2022-07-27T10:00:00,20,19.6,4,12,96,813,36,569,d,0,899,60,1020,0,550,16,Few clouds,801,c02d,155,4.8,0.4
2022-07-27T11:00:00,23,22.6,48,11.7,105,859,44.7,703,d,0,899,49,1020,0,628,16,Broken clouds,803,c03d,95,5.2,1
2022-07-27T12:00:00,25,24.8,1,12.9,110,887,52,803,d,0,901,47,1020,0,775,16,Clear Sky,800,c01d,30,5.2,2.1
2022-07-27T13:00:00,26,25.7,0,11.7,113,902,56.8,861,d,0,904,41,1020,0,833,16,Clear Sky,800,c01d,350,4.8,2.6
2022-07-27T14:00:00,27,27,12,13,114,904,57.7,871,d,0,902,42,1020,0,840,16,Few clouds,801,c02d,10,10,4.1
2022-07-27T15:00:00,27,26.7,93,10.7,112,895,54.4,832,d,0,902,36,1019,0,222,16,Overcast clouds,804,c04d,30,10,4.1
2022-07-27T16:00:00,28,27.5,84,12,107,873,48,749,d,0,902,37,1019,0,352,16,Overcast clouds,804,c04d,90,8,5.1
2022-07-27T17:00:00,28,27.3,45,10.7,100,835,39.7,628,d,0,902,34,1019,0,572,16,Broken clouds,803,c03d,80,4.4,4.1
2022-07-27T18:00:00,27,26.7,74,10.7,90,775,30.6,479,d,0,902,36,1019,0,310,16,Overcast clouds,804,c04d,90,4,3.6
2022-07-27T19:00:00,27,27,13,13,76,682,21.2,316,d,0,902,42,1019,0,305,16,Few clouds,801,c02d,80,4.6,4.6
2022-07-27T20:00:00,25,24.9,36,13.9,56,525,11.9,157,d,0,902,50,1019,0,147,16,Scattered clouds,802,c02d,130,5.7,5.7
2022-07-27T21:00:00,24,23.9,36,15,25,202,3.2,27,d,0,901,57,1020,0,25,16,Scattered clouds,802,c02n,130,7,5.1
2022-07-27T22:00:00,22,21.9,37,14.9,0,0,-4.8,0,n,0,901,64,1020,0,0,16,Scattered clouds,802,c02n,160,7,5.1
2022-07-27T23:00:00,20,19.8,15,13.9,0,0,-11.5,0,n,0,901,68,1020,0,0,16,Few clouds,801,c02n,170,4.1,4.1
2022-07-28T00:00:00,19,18.8,2,13.8,0,0,-16.5,0,n,0,900,72,1020,0,0,16,Few clouds,801,c02n,170,3.2,3.1
2022-07-28T01:00:00,18,18,0,13.9,0,0,-19.4,0,n,0,900,77,1020,0,0,16,Clear Sky,800,c01n,180,3.6,3.1
2022-07-28T02:00:00,17,17,0,12.9,0,0,-19.9,0,n,0,899,77,1019,0,0,16,Clear Sky,800,c01n,160,3.6,3.1
2022-07-28T03:00:00,17,17,0,12.9,0,0,-18,0,n,0,899,77,1019,0,0,16,Clear Sky,800,c01n,170,3.6,2.1
2022-07-28T04:00:00,17,17,0,11.9,0,0,-13.8,0,n,0,898,72,1019,0,0,16,Clear Sky,800,c01n,160,3.6,3.1
2022-07-28T05:00:00,16,16,0,12,0,0,-7.8,0,n,0,898,77,1019,0,0,16,Clear Sky,800,c01n,170,3.2,2.6
2022-07-28T06:00:00,16,16,2,12,1,0,-0.3,0,n,0,898,77,1019,0,0,16,Few clouds,801,c02n,190,3.2,2.6
2022-07-28T07:00:00,16,16,12,12.9,45,420,8.1,96,d,0,897,82,1018,0,92,16,Few clouds,801,c02d,170,4,2.6
2022-07-28T08:00:00,18,18,37,12.9,68,626,17.2,247,d,0,897,72,1018,0,231,16,Scattered clouds,802,c02d,170,4.4,3.1
2022-07-28T09:00:00,20,19.8,73,13.9,84,741,26.6,410,d,0,896,68,1018,0,268,16,Overcast clouds,804,c04d,190,5.2,2.6
2022-07-28T10:00:00,22,21.8,39,13.9,96,812,35.9,566,d,0,896,60,1018,0,524,11,Scattered clouds,802,c02d,180,6,4.6
2022-07-28T11:00:00,24,23.8,5,12.9,104,858,44.5,700,d,0,899,50,1017,0,675,16,Few clouds,801,c02d,160,6.8,5.1
2022-07-28T12:00:00,26,25.7,2,11.7,110,887,51.8,801,d,0,900,41,1017,0,775,16,Few clouds,801,c02d,160,8,6.2
2022-07-28T13:00:00,27,27,0,13,113,901,56.5,858,d,0,900,42,1017,0,828,16,Clear Sky,800,c01d,140,8,7.2
2022-07-28T14:00:00,29,28.4,0,12.8,114,904,57.4,868,d,0,900,37,1016,0,838,16,Clear Sky,800,c01d,140,8,5.1
2022-07-28T15:00:00,29,28.4,0,12.8,112,894,54.2,830,d,0,900,37,1016,0,801,16,Clear Sky,800,c01d,150,9,7.2
2022-07-28T16:00:00,30,29.2,1,12.9,107,872,47.8,746,d,0,900,35,1015,0,720,16,Clear Sky,800,c01d,150,9,5.7
2022-07-28T17:00:00,30,29.2,0,12.9,100,834,39.5,625,d,0,900,35,1015,0,603,16,Clear Sky,800,c01d,140,9,6.7
2022-07-28T18:00:00,30,29.2,0,12.9,90,774,30.4,476,d,0,900,35,1015,0,459,16,Clear Sky,800,c01d,150,10,7.2
2022-07-28T19:00:00,29,28.5,5,13.6,75,680,21,313,d,0,900,39,1015,0,301,16,Few clouds,801,c02d,140,10,7.7
2022-07-28T20:00:00,27,27.2,5,14.7,55,521,11.8,154,d,0,899,47,1015,0,148,16,Few clouds,801,c02d,130,9,6.7
2022-07-28T21:00:00,25,24.9,82,14.8,24,191,3,25,d,0,898,53,1015,0,36,16,Overcast clouds,804,c04n,130,6.7,6.7
2022-07-28T22:00:00,24,23.8,5,13.8,0,0,-5,0,n,0,897,53,1015,0,0,16,Few clouds,801,c02n,150,5.7,5.7
2022-07-28T23:00:00,22,21.8,5,13.9,0,0,-11.7,0,n,0,897,60,1015,0,0,16,Few clouds,801,c02n,170,4.1,4.1
2022-07-29T00:00:00,21,20.8,5,13.9,0,0,-16.7,0,n,0,897,64,1015,0,0,16,Few clouds,801,c02n,160,3.6,3.6
2022-07-29T01:00:00,20,19.8,0,13.9,0,0,-19.6,0,n,0,896,68,1015,0,0,16,Clear Sky,800,c01n,170,3.6,3.6
2022-07-29T02:00:00,21,20.7,0,12.9,0,0,-20.2,0,n,0,896,60,1014,0,0,16,Clear Sky,800,c01n,195,2.8,1.6
2022-07-29T03:00:00,19,18.7,1,13,0,0,-18.2,0,n,0,896,68,1014,0,0,16,Clear Sky,800,c01n,215,1.6,0.8
2022-07-29T04:00:00,18,18,2,12.9,0,0,-14.1,0,n,0,895,72,1013,0,0,16,Few clouds,801,c02n,240,1.6,1.6
2022-07-29T05:00:00,19,18.8,1,13.8,0,0,-8,0,n,0,894,72,1013,0,0,16,Clear Sky,800,c01n,260,2,1
2022-07-29T06:00:00,17,17,1,12.9,0,0,-0.6,0,n,0,894,77,1013,0,0,16,Clear Sky,800,c01n,285,2.4,2
2022-07-29T07:00:00,18,18,1,11.8,44,414,7.9,93,d,0,894,67,1014,0,90,16,Clear Sky,800,c01d,305,3.2,2.4
2022-07-29T08:00:00,20,19.7,1,13,68,623,17,244,d,0,894,64,1013,0,235,16,Clear Sky,800,c01d,330,3.6,1.5
2022-07-29T09:00:00,23,22.6,4,11.7,84,739,26.4,407,d,0,895,49,1013,0,394,16,Few clouds,801,c02d,330,3.6,1.5
2022-07-29T10:00:00,26,25.7,17,11.7,96,811,35.7,563,d,0,896,41,1013,0,543,16,Few clouds,801,c02d,350,3.6,3.6
2022-07-29T11:00:00,28,27.6,58,12.8,104,858,44.3,698,d,0,897,39,1013,0,575,16,Broken clouds,803,c03d,10,4,3.1
2022-07-29T12:00:00,29,28.5,65,13.6,110,886,51.6,798,d,0,898,39,1013,0,603,16,Broken clouds,803,c03d,40,4.8,2.1
2022-07-29T13:00:00,29,28.5,66,13.6,113,901,56.3,856,d,0,898,39,1012,0,637,16,Broken clouds,803,c03d,60,5.2,2.6
2022-07-29T14:00:00,31,30.9,5,15.8,113,903,57.2,866,d,0,898,40,1012,0,829,16,Few clouds,801,c02d,30,6,1.5
2022-07-29T15:00:00,31,30.9,20,15.8,112,894,53.9,827,d,0,898,40,1011,0,789,16,Few clouds,801,c02d,50,8,2.1
2022-07-29T16:00:00,32,31.2,74,13.7,107,871,47.6,744,d,0,898,33,1011,0,476,16,Overcast clouds,804,c04d,70,8,5.7
2022-07-29T17:00:00,31,30.9,54,15.8,100,833,39.4,622,d,0,897,40,1010,0,527,16,Broken clouds,803,c03d,110,9,6.2
2022-07-29T18:00:00,29,28.5,17,13.6,89,773,30.3,473,d,0.25,896,39,1011,0,455,11,Few clouds,801,c02d,140,12,5.7
2022-07-29T19:00:00,18,18,96,14.9,75,678,20.9,310,d,0.75,896,82,1015,0,129,5,Light rain,500,r01d,300,16,11.8
2022-07-29T20:00:00,21,20.6,22,11.9,55,517,11.6,151,d,0.25,891,56,1015,0,145,8,Scattered clouds,802,c02d,280,15,10.3
2022-07-29T21:00:00,22,21.6,93,12,23,179,2.8,23,d,0.5,895,53,1014,0,29,11,Overcast clouds,804,c04n,170,9,7.2
2022-07-29T22:00:00,18,18,89,12.9,0,0,-5.2,0,n,0,896,72,1013,0,0,11,Overcast clouds,804,c04n,300,8,4.1
2022-07-29T23:00:00,19,18.7,43,13,0,0,-11.9,0,n,0,894,68,1014,0,0,16,Broken clouds,803,c03n,240,6,1.5
2022-07-30T00:00:00,17,17,10,11.9,0,0,-17,0,n,0,895,72,1014,0,0,16,Few clouds,801,c02n,20,4.8,4.1
2022-07-30T01:00:00,17,17,100,11.9,0,0,-19.9,0,n,0,894,72,1014,0,0,16,Overcast clouds,804,c04n,340,3.2,3.1
2022-07-30T02:00:00,16,16,59,12.9,0,0,-20.4,0,n,0,893,82,1015,0,0,16,Broken clouds,803,c03n,320,2.8,2.6
2022-07-30T03:00:00,16,16,39,12,0,0,-18.5,0,n,0,894,77,1015,0,0,16,Scattered clouds,802,c02n,340,3.1,3.1
2022-07-30T04:00:00,17,17,5,10.8,0,0,-14.3,0,n,0,894,67,1015,0,0,16,Few clouds,801,c02n,300,3.6,2.6
2022-07-30T05:00:00,17,17,6,10.8,0,0,-8.2,0,n,0,895,67,1016,0,0,16,Few clouds,801,c02n,220,4,1.5
2022-07-30T06:00:00,17,17,3,9.9,0,0,-0.7,0,n,0,895,63,1016,0,0,16,Few clouds,801,c02n,290,4,1.5
2022-07-30T07:00:00,17,17,5,9.9,44,408,7.8,90,d,0,895,63,1017,0,90,16,Few clouds,801,c02d,280,4.4,1.5
2022-07-30T08:00:00,18,18,5,10.9,67,621,16.9,241,d,0,895,63,1017,0,233,16,Few clouds,801,c02d,255,4.4,2.4
2022-07-30T09:00:00,20,19.5,0,11,84,738,26.2,404,d,0,896,56,1016,0,391,16,Clear Sky,800,c01d,230,4,3.1
2022-07-30T10:00:00,22,21.5,0,9.9,96,810,35.5,561,d,0,896,46,1016,0,561,16,Clear Sky,800,c01d,250,5.6,2.6
2022-07-30T11:00:00,24,23.6,0,11,104,857,44.2,695,d,0,897,44,1016,0,673,16,Clear Sky,800,c01d,280,7.2,3.6
2022-07-30T12:00:00,27,26.7,1,10.7,110,886,51.4,795,d,0,898,36,1016,0,771,16,Clear Sky,800,c01d,30,7.6,4.6
2022-07-30T13:00:00,27,26.4,5,8,113,901,56.1,853,d,0,899,30,1016,0,853,16,Few clouds,801,c02d,10,4,3.6
2022-07-30T14:00:00,28,27.3,0,10.7,113,903,57,863,d,0,899,34,1016,0,837,16,Clear Sky,800,c01d,40,4.1,4.1
2022-07-30T15:00:00,25,24.8,2,12.9,111,893,53.7,825,d,0.5,900,47,1017,0,796,16,Few clouds,801,c02d,360,6,4.6
2022-07-30T16:00:00,25,24.7,89,11.9,107,871,47.3,741,d,1.5,899,44,1017,0,260,16,Light rain,500,r01d,40,10.4,3.6
2022-07-30T17:00:00,27,27,95,13,100,832,39.2,619,d,0,900,42,1017,0,129,16,Overcast clouds,804,c04d,40,6.4,4.1
2022-07-30T18:00:00,24,23.9,40,15,89,771,30.1,470,d,0,900,57,1017,0,432,16,Scattered clouds,802,c02d,30,6.2,6.2
2022-07-30T19:00:00,22,21.6,66,12,75,676,20.7,307,d,0,899,53,1018,0,229,16,Broken clouds,803,c03d,30,11,4.6
2022-07-30T20:00:00,17,17,88,12.9,54,512,11.4,148,d,0.25,898,77,1019,0,56,16,Overcast clouds,804,c04d,30,11,6.7
2022-07-30T21:00:00,17,17,94,13.9,22,166,2.6,21,d,0,898,82,1018,0,27,11,Overcast clouds,804,c04n,150,5.7,5.7
2022-07-30T22:00:00,18,18,87,13.9,0,0,-5.4,0,n,0,896,77,1019,0,0,16,Overcast clouds,804,c04n,300,2.1,2.1
2022-07-30T23:00:00,16,16,32,13.8,0,0,-12.1,0,n,0,898,87,1019,0,0,16,Scattered clouds,802,c02n,320,2.4,1
