Datetime,Temperature,Apparent Temperature,Cloud Cover,Dew Point,DHI,DNI,Solar Zenith Angle,GHI,Pod,Precipitation,Pressure,Relative Humidity,Sea Level Pressure,Snow Depth,Solar Radiation,Visibility,Weather Description,Weather Code,Weather Icon,Wind Direction,Wind Gust Speed,Wind Speed
2023-07-01T00:00:00,19,18.6,7,11.8,0,0,-12.6,0,n,0,893,63,1012,0,0,16,Few clouds,801,c02n,50,3.6,3.6
2023-07-01T01:00:00,18,18,3,11.8,0,0,-15.3,0,n,0,893,67,1012,0,0,16,Few clouds,801,c02n,40,4.6,4.6
2023-07-01T02:00:00,16,16,0,12,0,0,-15.7,0,n,0,893,77,1012,0,0,16,Clear Sky,800,c01n,30,9,3.1
2023-07-01T03:00:00,16,16,0,12,0,0,-13.8,0,n,0,892,77,1013,0,0,16,Clear Sky,800,c01n,20,9,3.6
2023-07-01T04:00:00,15,15,0,12,0,0,-9.7,0,n,0,892,82,1013,0,0,16,Clear Sky,800,c01n,340,8,3.6
2023-07-01T05:00:00,14,14,0,11.9,0,0,-3.8,0,n,0,892,87,1013,0,0,16,Clear Sky,800,c01n,320,6.7,6.7
2023-07-01T06:00:00,15,15,0,12,26,220,3.5,31,d,0,891,82,1013,0,30,13,Clear Sky,800,c01n,330,2.6,2.6
2023-07-01T07:00:00,16,16,0,12,55,520,11.8,154,d,0,892,77,1012,0,149,13,Clear Sky,800,c01d,330,4.1,4.1
2023-07-01T08:00:00,17,17,0,12.9,75,675,20.8,308,d,0,892,77,1012,0,297,14,Clear Sky,800,c01d,255,3.2,1
2023-07-01T09:00:00,19,18.8,0,13.8,89,769,30.1,469,d,0,892,72,1012,0,451,16,Clear Sky,800,c01d,180,3.2,2.6
2023-07-01T10:00:00,21,20.9,0,14.9,100,831,39.5,622,d,0,892,68,1011,0,597,16,Clear Sky,800,c01d,175,3.6,2.6
2023-07-01T11:00:00,22,21.9,88,14.9,107,872,48.3,752,d,0,892,64,1010,0,283,16,Overcast clouds,804,c04d,170,6.8,3.1
2023-07-01T12:00:00,24,23.9,0,15,112,897,55.9,848,d,0,892,57,1009,0,814,16,Clear Sky,800,c01d,90,2.1,2.1
2023-07-01T13:00:00,26,25.7,5,11.7,115,910,60.9,903,d,0,892,41,1008,0,873,16,Few clouds,801,c02d,125,8.4,3.1
2023-07-01T14:00:00,28,27.1,5,8.8,115,912,61.7,911,d,0,892,30,1007,0,911,16,Few clouds,801,c02d,160,9.2,3.6
2023-07-01T15:00:00,29,27.5,24,4.5,114,903,57.9,871,d,0,892,21,1006,0,865,16,Scattered clouds,802,c02d,250,7,3.1
2023-07-01T16:00:00,29,27.4,89,2.3,109,882,51.1,788,d,0,892,18,1006,0,311,16,Overcast clouds,804,c04d,270,7,3.6
2023-07-01T17:00:00,27,27,85,13,102,847,42.5,669,d,0,891,42,1006,0,299,16,Overcast clouds,804,c04d,10,11,8.2
2023-07-01T18:00:00,22,21.9,41,14.9,93,793,33.3,522,d,0,891,64,1008,0,478,16,Broken clouds,803,c03d,360,16,10.8
2023-07-01T19:00:00,16,16,3,11,80,711,23.9,362,d,0,890,72,1011,0,351,14,Few clouds,801,c02d,350,16,11.3
2023-07-01T20:00:00,16,16,0,9,62,581,14.7,203,d,0,889,63,1012,0,203,16,Clear Sky,800,c01d,360,16,10.8
2023-07-01T21:00:00,15,15,33,8.9,38,347,6.1,66,d,0,890,67,1012,0,65,16,Scattered clouds,802,c02d,350,13,9.8
2023-07-01T22:00:00,15,15,46,8.9,0,0,-1.5,0,n,0,891,67,1013,0,0,16,Broken clouds,803,c03n,10,11,7.7
2023-07-01T23:00:00,14,14,80,8,0,0,-7.9,0,n,0,891,67,1014,0,0,16,Overcast clouds,804,c04n,10,7.2,7.2
2023-07-02T00:00:00,14,14,54,8,0,0,-12.7,0,n,0,891,67,1014,0,0,16,Broken clouds,803,c03n,360,10,4.1
2023-07-02T01:00:00,13,13,56,6.8,0,0,-15.4,0,n,0,892,66,1014,0,0,16,Broken clouds,803,c03n,340,9,4.6
2023-07-02T02:00:00,13,13,58,5.9,0,0,-15.8,0,n,0,892,62,1014,0,0,16,Broken clouds,803,c03n,350,8,4.1
2023-07-02T03:00:00,12,12,80,5,0,0,-13.8,0,n,0,892,62,1014,0,0,16,Overcast clouds,804,c04n,330,9,7.2
2023-07-02T04:00:00,12,12,80,5,0,0,-9.8,0,n,0,892,62,1015,0,0,16,Overcast clouds,804,c04n,350,10,6.2
2023-07-02T05:00:00,11,11,80,4.9,0,0,-3.9,0,n,0.5,892,66,1016,0,0,16,Overcast clouds,804,c04n,360,11,7.7
2023-07-02T06:00:00,8,8,82,2.9,26,215,3.4,30,d,0.5,892,70,1017,0,42,16,Overcast clouds,804,c04n,360,11,8.8
2023-07-02T07:00:00,8,8,81,2.9,55,518,11.7,153,d,0.5,891,70,1018,0,86,16,Overcast clouds,804,c04d,350,11,6.7
2023-07-02T08:00:00,9,9,79,3.8,74,674,20.7,307,d,0.5,892,70,1017,0,183,16,Overcast clouds,804,c04d,270,9,2.6
2023-07-02T09:00:00,11,11,80,4,89,769,30.1,468,d,0,891,62,1018,0,271,16,Overcast clouds,804,c04d,330,7,3.6
2023-07-02T10:00:00,12,12,0,5,99,831,39.4,621,d,0,893,62,1017,0,621,16,Clear Sky,800,c01d,360,6.8,2.1
2023-07-02T11:00:00,13,13,0,3.9,107,871,48.3,751,d,0,893,54,1017,0,751,16,Clear Sky,800,c01d,330,7.2,2.1
2023-07-02T12:00:00,16,16,0,5,112,897,55.8,847,d,0,893,48,1017,0,847,16,Clear Sky,800,c01d,240,8,2.6
2023-07-02T13:00:00,17,17,3,3,115,910,60.8,902,d,0,894,39,1017,0,902,16,Few clouds,801,c02d,330,9,5.1
2023-07-02T14:00:00,18,18,34,1.9,115,912,61.6,910,d,0,895,34,1016,0,889,16,Scattered clouds,802,c02d,185,8,4.1
2023-07-02T15:00:00,18,18,20,1.9,114,903,57.9,871,d,0,895,34,1016,0,868,16,Few clouds,801,c02d,40,9,6.7
2023-07-02T16:00:00,19,17.8,60,1.9,109,882,51,788,d,0,894,32,1016,0,663,16,Broken clouds,803,c03d,40,11,7.7
2023-07-02T17:00:00,16,16,100,2.8,102,847,42.5,668,d,0,895,41,1018,0,169,16,Overcast clouds,804,c04d,360,13,9.3
2023-07-02T18:00:00,14,14,92,6.8,93,793,33.3,522,d,0,895,62,1019,0,168,16,Overcast clouds,804,c04d,40,11,7.7
2023-07-02T19:00:00,16,16,94,5.9,80,711,23.9,361,d,0,894,51,1019,0,98,16,Overcast clouds,804,c04d,30,9,5.7
2023-07-02T20:00:00,15,15,90,5,62,581,14.7,203,d,0,896,51,1020,0,75,16,Overcast clouds,804,c04d,40,13,10.3
2023-07-02T21:00:00,14,14,5,3.8,38,345,6.1,66,d,0,896,50,1020,0,66,11,Few clouds,801,c02d,40,12,9.3
2023-07-02T22:00:00,12,12,62,4,0,0,-1.6,0,n,0,895,58,1020,0,0,16,Broken clouds,803,c03n,30,7.2,7.2
2023-07-02T23:00:00,13,13,44,3.9,0,0,-8,0,n,0,894,54,1020,0,0,16,Broken clouds,803,c03n,320,3.6,3.6
2023-07-03T00:00:00,12,12,5,5.9,0,0,-12.8,0,n,0,895,66,1020,0,0,16,Few clouds,801,c02n,310,3.1,3.1
2023-07-03T01:00:00,12,12,0,5,0,0,-15.4,0,n,0,895,62,1020,0,0,16,Clear Sky,800,c01n,300,3.6,3.6
2023-07-03T02:00:00,12,12,0,5,0,0,-15.9,0,n,0,895,62,1020,0,0,16,Clear Sky,800,c01n,310,4.1,4.1
2023-07-03T03:00:00,11,11,1,4.9,0,0,-13.9,0,n,0,896,66,1020,0,0,16,Clear Sky,800,c01n,320,4.1,4.1
2023-07-03T04:00:00,9,9,2,5,0,0,-9.9,0,n,0,905,76,1020,0,0,16,Few clouds,801,c02n,340,3.6,2.6
2023-07-03T05:00:00,8,8,2,3.8,0,0,-4,0,n,0,894,75,1021,0,0,11,Few clouds,801,c02n,350,3,2.6
2023-07-03T06:00:00,9,9,5,3.8,26,210,3.3,29,d,0,894,70,1021,0,29,16,Few clouds,801,c02n,320,4.1,4.1
2023-07-03T07:00:00,10,10,9,4,55,516,11.6,151,d,0,894,66,1021,0,151,16,Few clouds,801,c02d,300,4,3.6
2023-07-03T08:00:00,12,12,5,4,74,673,20.6,305,d,0,895,58,1021,0,305,16,Few clouds,801,c02d,300,10,3.1
2023-07-03T09:00:00,14,14,5,2.9,89,768,30,466,d,0,896,47,1020,0,466,16,Few clouds,801,c02d,340,10,5.7
2023-07-03T10:00:00,15,15,49,2.9,99,830,39.3,619,d,0,896,44,1020,0,570,16,Broken clouds,803,c03d,310,14,9.3
2023-07-03T11:00:00,16,16,75,1.7,107,871,48.2,750,d,0,897,38,1020,0,496,16,Overcast clouds,804,c04d,310,10,7.2
2023-07-03T12:00:00,17,17,100,1.8,112,897,55.7,846,d,0,897,36,1019,0,197,16,Overcast clouds,804,c04d,310,8,5.7
2023-07-03T13:00:00,17,17,93,1.8,115,910,60.7,901,d,0,897,36,1019,0,267,16,Overcast clouds,804,c04d,320,9,5.1
2023-07-03T14:00:00,19,17.7,87,0.6,115,911,61.5,909,d,0,896,29,1019,0,399,16,Overcast clouds,804,c04d,320,11,5.7
2023-07-03T15:00:00,16,16,91,3.8,113,902,57.8,870,d,0,897,44,1020,0,302,13,Overcast clouds,804,c04d,360,14,11.8
2023-07-03T16:00:00,14,14,89,4.8,109,881,51,787,d,0.25,897,54,1022,0,310,16,Overcast clouds,804,c04d,350,16,9.8
2023-07-03T17:00:00,13,13,89,5.9,102,846,42.5,668,d,0.5,897,62,1023,0,263,16,Overcast clouds,804,c04d,350,15,11.3
2023-07-03T18:00:00,13,13,86,6.8,93,792,33.2,521,d,0,897,66,1023,0,240,16,Overcast clouds,804,c04d,330,14,9.8
2023-07-03T19:00:00,14,14,94,5.9,80,710,23.8,361,d,0,897,58,1023,0,98,16,Overcast clouds,804,c04d,330,18,11.8
2023-07-03T20:00:00,14,14,94,5.9,62,580,14.6,202,d,0,898,58,1023,0,117,16,Overcast clouds,804,c04d,340,16,7.7
2023-07-03T21:00:00,13,13,60,5.9,37,344,6.1,65,d,0,899,62,1024,0,55,16,Broken clouds,803,c03d,350,17,11.8
2023-07-03T22:00:00,11,11,88,6,0,0,-1.6,0,n,0,899,71,1025,0,0,16,Overcast clouds,804,c04n,340,12,7.2
2023-07-03T23:00:00,10,10,89,6,0,0,-8.1,0,n,0,899,76,1025,0,0,16,Overcast clouds,804,c04n,340,11,6.2
2023-07-04T00:00:00,10,10,91,6,0,0,-12.8,0,n,0,899,76,1026,0,0,16,Overcast clouds,804,c04n,330,9,5.1
2023-07-04T01:00:00,9,9,85,5.9,0,0,-15.5,0,n,0,899,81,1026,0,0,16,Overcast clouds,804,c04n,330,8,4.6
2023-07-04T02:00:00,9,9,82,5,0,0,-15.9,0,n,0,899,76,1026,0,0,16,Overcast clouds,804,c04n,320,7.2,7.2
2023-07-04T03:00:00,9,9,44,5,0,0,-14,0,n,0,899,76,1026,0,0,16,Broken clouds,803,c03n,320,6.7,6.7
2023-07-04T04:00:00,10,10,46,5,0,0,-10,0,n,0,899,71,1027,0,0,16,Broken clouds,803,c03n,320,3.6,3.6
2023-07-04T05:00:00,9,9,45,5,0,0,-4.1,0,n,0,899,76,1027,0,0,16,Broken clouds,803,c03n,320,4.6,4.6
2023-07-04T06:00:00,8,8,42,3.8,25,204,3.2,28,d,0,899,75,1027,0,27,16,Broken clouds,803,c03n,330,5.7,5.7
2023-07-04T07:00:00,10,10,22,5,55,514,11.5,150,d,0,898,71,1027,0,149,16,Scattered clouds,802,c02d,330,4.4,3.6
2023-07-04T08:00:00,11,11,18,6,74,671,20.5,303,d,0,900,71,1027,0,302,16,Few clouds,801,c02d,330,5.2,4.1
2023-07-04T09:00:00,14,14,5,6.8,89,767,29.9,465,d,0,900,62,1026,0,465,16,Few clouds,801,c02d,320,6,3.1
2023-07-04T10:00:00,14,14,5,6.8,99,830,39.2,618,d,0,901,62,1026,0,618,16,Few clouds,801,c02d,10,5.6,2.1
2023-07-04T11:00:00,16,16,28,5.9,107,871,48.1,748,d,0,901,51,1025,0,739,16,Scattered clouds,802,c02d,55,5.2,2.1
2023-07-04T12:00:00,17,17,73,5.9,112,896,55.6,845,d,0,901,48,1025,0,584,16,Overcast clouds,804,c04d,100,4.4,2.1
2023-07-04T13:00:00,19,18,52,4.7,115,909,60.6,900,d,0,901,39,1025,0,812,16,Broken clouds,803,c03d,230,4.4,2.1
2023-07-04T14:00:00,17,17,72,5,115,911,61.4,908,d,0,902,45,1025,0,641,16,Overcast clouds,804,c04d,155,4.8,0.4
2023-07-04T15:00:00,19,17.9,52,4,113,902,57.8,869,d,0,901,37,1024,0,784,16,Broken clouds,803,c03d,80,4.8,3.6
2023-07-04T16:00:00,19,18,100,4.7,109,881,50.9,787,d,0,901,39,1023,0,188,16,Overcast clouds,804,c04d,120,4.8,2.1
2023-07-04T17:00:00,18,18,87,4.9,102,846,42.4,667,d,0,901,42,1023,0,293,16,Overcast clouds,804,c04d,90,5.7,5.7
2023-07-04T18:00:00,18,18,17,4.9,93,792,33.2,520,d,0,900,42,1023,0,519,16,Few clouds,801,c02d,110,8,1.5
2023-07-04T19:00:00,12,12,83,6.9,80,710,23.8,360,d,0,900,71,1025,0,188,8,Overcast clouds,804,c04d,60,8,5.1
2023-07-04T20:00:00,13,13,86,8.9,62,579,14.6,201,d,0,905,76,1025,0,93,16,Overcast clouds,804,c04d,190,3.2,3.1
2023-07-04T21:00:00,13,13,91,8.9,37,342,6,64,d,0,899,76,1024,0,59,16,Overcast clouds,804,c04d,190,1.6,1.5
2023-07-04T22:00:00,14,14,85,8,0,0,-1.7,0,n,0,899,67,1023,0,0,16,Overcast clouds,804,c04n,160,3.1,3.1
2023-07-04T23:00:00,13,13,82,10,0,0,-8.1,0,n,0,899,82,1023,0,0,16,Overcast clouds,804,c04n,230,2.1,2.1
2023-07-05T00:00:00,12,12,3,8.8,0,0,-12.9,0,n,0,898,81,1023,0,0,16,Few clouds,801,c02n,235,1.6,1
2023-07-05T01:00:00,10,10,0,7.9,0,0,-15.6,0,n,0,898,87,1023,0,0,16,Clear Sky,800,c01n,245,3.2,1.6
2023-07-05T02:00:00,11,11,0,7.9,0,0,-16,0,n,0,897,81,1023,0,0,16,Clear Sky,800,c01n,250,3.2,1.5
2023-07-05T03:00:00,10,10,2,7.9,0,0,-14.1,0,n,0,897,87,1022,0,0,16,Few clouds,801,c02n,230,2.8,2.6
2023-07-05T04:00:00,10,10,0,6.9,0,0,-10.1,0,n,0,896,81,1022,0,0,16,Clear Sky,800,c01n,225,2.8,1
2023-07-05T05:00:00,8,8,0,6.9,0,0,-4.2,0,n,0,896,93,1022,0,0,16,Clear Sky,800,c01n,225,2.8,1
2023-07-05T06:00:00,9,9,1,5.9,25,198,3.1,26,d,0,895,81,1021,0,26,16,Clear Sky,800,c01n,220,3.2,1
2023-07-05T07:00:00,9,9,4,7,54,511,11.4,148,d,0,895,87,1022,0,148,16,Few clouds,801,c02d,170,1,1
2023-07-05T08:00:00,12,12,1,6.9,74,670,20.4,302,d,0,895,71,1021,0,302,16,Clear Sky,800,c01d,170,3.6,2.1
2023-07-05T09:00:00,15,15,1,7.8,88,766,29.8,463,d,0,896,62,1021,0,463,16,Clear Sky,800,c01d,210,4.4,2.1
2023-07-05T10:00:00,17,17,5,5.9,99,829,39.1,616,d,0,897,48,1020,0,616,16,Few clouds,801,c02d,220,3.6,3.6
2023-07-05T11:00:00,19,18.1,1,6.8,107,870,48,747,d,0,897,45,1019,0,747,16,Clear Sky,800,c01d,230,4.4,3.6
2023-07-05T12:00:00,21,20.2,2,6.9,112,896,55.5,844,d,0,898,40,1019,0,844,16,Few clouds,801,c02d,280,4,1
2023-07-05T13:00:00,23,22.1,4,3,115,909,60.5,899,d,0,898,27,1019,0,899,16,Few clouds,801,c02d,330,7,5.7
2023-07-05T14:00:00,22,20.9,2,0.5,115,911,61.3,907,d,0,899,24,1019,0,907,16,Few clouds,801,c02d,320,7,3.6
2023-07-05T15:00:00,23,22.1,2,3,113,902,57.7,869,d,0,898,27,1018,0,869,16,Few clouds,801,c02d,110,5.2,2.1
2023-07-05T16:00:00,23,22.1,3,3,109,881,50.9,786,d,0,898,27,1018,0,786,16,Few clouds,801,c02d,320,4.8,1.5
2023-07-05T17:00:00,24,23.2,6,3.9,102,846,42.4,666,d,0,898,27,1018,0,666,16,Few clouds,801,c02d,165,4,3.1
2023-07-05T18:00:00,24,23.2,25,4.9,93,792,33.1,520,d,0,898,29,1017,0,516,16,Scattered clouds,802,c02d,10,3.6,2.1
2023-07-05T19:00:00,24,23.2,60,4.9,80,710,23.7,359,d,0,898,29,1017,0,302,16,Broken clouds,803,c03d,140,3.1,3.1
2023-07-05T20:00:00,23,22.2,74,5,62,578,14.6,200,d,0,897,31,1016,0,135,16,Overcast clouds,804,c04d,150,3.6,3.6
2023-07-05T21:00:00,21,20.1,90,5,37,339,5.9,63,d,0,897,35,1016,0,60,16,Overcast clouds,804,c04d,140,4.1,4.1
2023-07-05T22:00:00,19,18.1,100,5.8,0,0,-1.8,0,n,0,896,42,1016,0,0,16,Overcast clouds,804,c04n,160,3.1,3.1
2023-07-05T23:00:00,20,19.1,92,6,0,0,-8.2,0,n,0,896,40,1016,0,0,16,Overcast clouds,804,c04n,230,3.2,1.5
2023-07-06T00:00:00,19,18,100,4.7,0,0,-13,0,n,0,896,39,1016,0,0,16,Overcast clouds,804,c04n,230,2,1.5
2023-07-06T01:00:00,14,14,84,8,0,0,-15.7,0,n,0,896,67,1017,0,0,16,Overcast clouds,804,c04n,60,2.8,1.5
2023-07-06T02:00:00,15,15,94,6.8,0,0,-16.1,0,n,0,894,58,1017,0,0,16,Overcast clouds,804,c04n,10,3.2,2.1
2023-07-06T03:00:00,14,14,54,5.9,0,0,-14.2,0,n,0,894,58,1017,0,0,16,Broken clouds,803,c03n,10,3.6,2.6
2023-07-06T04:00:00,13,13,7,5.9,0,0,-10.2,0,n,0,894,62,1017,0,0,16,Few clouds,801,c02n,330,4,3.6
2023-07-06T05:00:00,14,14,17,5.9,0,0,-4.3,0,n,0,894,58,1017,0,0,16,Few clouds,801,c02n,340,5.7,5.7
2023-07-06T06:00:00,14,14,4,5.9,24,192,3,25,d,0,894,58,1017,0,25,16,Few clouds,801,c02n,340,4.8,2.6
2023-07-06T07:00:00,15,15,22,6.8,54,509,11.3,146,d,0,894,58,1017,0,145,16,Scattered clouds,802,c02d,335,5.2,3.2
2023-07-06T08:00:00,15,15,87,6.8,74,669,20.3,300,d,0,894,58,1017,0,132,16,Overcast clouds,804,c04d,0,5.2,1
2023-07-06T09:00:00,18,18,89,6.8,88,766,29.7,462,d,0,896,48,1017,0,182,16,Overcast clouds,804,c04d,330,5.2,2.6
2023-07-06T10:00:00,19,18.2,90,7.8,99,829,39,615,d,0,897,48,1018,0,228,16,Overcast clouds,804,c04d,340,5.6,5.1
2023-07-06T11:00:00,19,18.1,89,6.8,107,870,47.8,745,d,0,897,45,1018,0,294,16,Overcast clouds,804,c04d,320,5.6,3.1
2023-07-06T12:00:00,19,18.2,89,7.8,112,896,55.4,842,d,0,897,48,1018,0,332,14,Overcast clouds,804,c04d,320,5.6,3.1
2023-07-06T13:00:00,19,18.2,83,7.8,115,909,60.4,898,d,0,897,48,1018,0,469,16,Overcast clouds,804,c04d,320,5.2,3.1
2023-07-06T14:00:00,23,22.4,99,8.7,115,911,61.2,906,d,0,898,40,1017,0,118,16,Overcast clouds,804,c04d,360,5.6,4.1
2023-07-06T15:00:00,23,22.4,16,8.7,113,902,57.6,868,d,1,898,40,1017,0,866,16,Light rain,500,r01d,350,5.6,4.1
2023-07-06T16:00:00,24,23.4,88,8.8,109,881,50.8,785,d,2,898,38,1017,0,317,14,Light rain,500,r01d,270,16,3.6
2023-07-06T17:00:00,17,17,94,8.9,102,846,42.3,665,d,1,898,59,1017,0,180,16,Light rain,500,r01d,190,16,8.8
2023-07-06T18:00:00,17,17,96,9.9,93,792,33.1,519,d,1.75,897,63,1018,0,104,16,Light rain,500,r01d,260,9,4.1
2023-07-06T19:00:00,17,17,97,9.9,80,709,23.7,358,d,2,895,63,1018,0,131,11,Light rain,500,r01d,280,7,4.6
2023-07-06T20:00:00,14,14,97,8.8,62,577,14.5,200,d,1.25,896,71,1020,0,92,8,Light rain,500,r01d,330,13,9.3
2023-07-06T21:00:00,13,13,97,10.9,37,337,5.9,63,d,1,896,87,1020,0,46,11,Light rain,500,r01d,10,5.1,5.1
2023-07-06T22:00:00,14,14,97,9.8,0,0,-1.8,0,n,1,896,76,1019,0,0,11,Light rain,500,r01n,50,3.1,3.1
2023-07-06T23:00:00,14,14,97,11,0,0,-8.3,0,n,1,895,82,1019,0,0,13,Light rain,500,r01n,260,3.6,3.6
2023-07-07T00:00:00,14,14,95,9.8,0,0,-13.1,0,n,0.5,895,76,1019,0,0,13,Overcast clouds,804,c04n,290,2.6,2.6
2023-07-07T01:00:00,13,13,88,10,0,0,-15.8,0,n,0.25,896,82,1019,0,0,13,Overcast clouds,804,c04n,220,2.8,1.5
2023-07-07T02:00:00,13,13,82,10,0,0,-16.3,0,n,0,895,82,1019,0,0,13,Overcast clouds,804,c04n,310,2.4,1.5
2023-07-07T03:00:00,13,13,88,10,0,0,-14.4,0,n,0,895,82,1019,0,0,13,Overcast clouds,804,c04n,320,2.4,1.2
2023-07-07T04:00:00,13,13,87,10,0,0,-10.3,0,n,0,895,82,1019,0,0,13,Overcast clouds,804,c04n,330,2.4,2
2023-07-07T05:00:00,13,13,86,10,0,0,-4.4,0,n,0,895,82,1019,0,0,13,Overcast clouds,804,c04n,340,2,1
2023-07-07T06:00:00,13,13,86,10,23,185,2.9,24,d,0,895,82,1020,0,33,13,Overcast clouds,804,c04n,350,2.6,2.6
2023-07-07T07:00:00,12,12,86,9.9,54,506,11.2,145,d,0,896,87,1020,0,62,16,Overcast clouds,804,c04d,220,2.8,1.5
2023-07-07T08:00:00,14,14,86,9.8,74,667,20.2,298,d,0,895,76,1021,0,137,14,Overcast clouds,804,c04d,280,2.8,1
2023-07-07T09:00:00,17,17,80,9.9,88,765,29.6,460,d,0,896,63,1020,0,266,14,Overcast clouds,804,c04d,340,3.2,2.1
2023-07-07T10:00:00,18,18,48,8.8,99,828,38.9,613,d,0,898,55,1020,0,568,14,Broken clouds,803,c03d,250,1,0.4
2023-07-07T11:00:00,19,18.2,54,7.8,107,870,47.7,744,d,0,898,48,1020,0,662,14,Broken clouds,803,c03d,160,6.4,0.8
2023-07-07T12:00:00,20,19.3,8,9,112,895,55.3,841,d,0,898,49,1020,0,841,16,Few clouds,801,c02d,70,6.8,2.1
2023-07-07T13:00:00,21,20.3,5,8,115,909,60.3,896,d,0,899,43,1019,0,896,16,Few clouds,801,c02d,130,6.8,2.1
2023-07-07T14:00:00,22,21.4,6,8.9,115,911,61.1,905,d,0,899,43,1019,0,905,16,Few clouds,801,c02d,70,7.6,3.1
2023-07-07T15:00:00,22,21.5,43,10.8,113,902,57.5,867,d,0,899,49,1019,0,796,16,Broken clouds,803,c03d,360,7.2,5.7
2023-07-07T16:00:00,24,23.6,62,11,109,881,50.7,784,d,0,899,44,1018,0,621,16,Broken clouds,803,c03d,60,6.4,5.1
2023-07-07T17:00:00,22,21.6,100,12,102,845,42.3,664,d,0,899,53,1018,0,145,16,Overcast clouds,804,c04d,40,5.2,4.6
2023-07-07T18:00:00,23,22.5,42,9.8,92,791,33,518,d,1,898,43,1017,0,494,16,Light rain,500,r01d,350,4.4,1.5
2023-07-07T19:00:00,21,20.4,81,8.9,79,708,23.6,357,d,0.5,898,46,1018,0,200,16,Overcast clouds,804,c04d,220,8,6.2
2023-07-07T20:00:00,20,19.4,93,9.9,62,576,14.4,199,d,1,897,52,1018,0,121,16,Light rain,500,r01d,190,8,5.7
2023-07-07T21:00:00,20,19.2,92,7.7,36,334,5.8,62,d,0.5,897,45,1018,0,56,16,Overcast clouds,804,c04d,270,2.1,2.1
2023-07-07T22:00:00,19,18.2,95,7.8,0,0,-1.9,0,n,0,897,48,1018,0,0,16,Overcast clouds,804,c04n,190,1.6,1
2023-07-07T23:00:00,17,17,50,8.9,0,0,-8.4,0,n,0,897,59,1018,0,0,16,Broken clouds,803,c03n,185,1.2,0.8
2023-07-08T00:00:00,16,16,5,9,0,0,-13.2,0,n,0,896,63,1018,0,0,16,Few clouds,801,c02n,180,2.1,2.1
2023-07-08T01:00:00,15,15,0,8.9,0,0,-15.9,0,n,0,896,67,1018,0,0,16,Clear Sky,800,c01n,235,1.6,1
2023-07-08T02:00:00,13,13,0,7.9,0,0,-16.4,0,n,0,895,71,1017,0,0,16,Clear Sky,800,c01n,295,1.2,1.2
2023-07-08T03:00:00,12,12,1,7.9,0,0,-14.5,0,n,0,894,76,1017,0,0,16,Clear Sky,800,c01n,350,2.8,1
2023-07-08T04:00:00,12,12,0,7.9,0,0,-10.4,0,n,0,893,76,1017,0,0,16,Clear Sky,800,c01n,275,1,1
2023-07-08T05:00:00,11,11,0,7.9,0,0,-4.5,0,n,0,893,81,1017,0,0,16,Clear Sky,800,c01n,200,1,1
2023-07-08T06:00:00,10,10,0,6.9,23,178,2.8,23,d,0,893,81,1017,0,23,16,Clear Sky,800,c01n,200,2.8,1
2023-07-08T07:00:00,12,12,1,7.9,53,504,11.1,143,d,0,892,76,1017,0,143,13,Clear Sky,800,c01d,205,3.6,1
2023-07-08T08:00:00,14,14,0,8.8,73,666,20.1,296,d,0,893,71,1017,0,296,16,Clear Sky,800,c01d,205,4,1.2
2023-07-08T09:00:00,17,17,0,9.9,88,764,29.5,458,d,0,894,63,1016,0,458,16,Clear Sky,800,c01d,205,4.4,1
2023-07-08T10:00:00,20,19.3,0,9,99,827,38.8,611,d,0,895,49,1016,0,611,16,Clear Sky,800,c01d,210,5.6,1
2023-07-08T11:00:00,21,20.4,0,8.9,107,869,47.6,742,d,0,896,46,1015,0,742,16,Clear Sky,800,c01d,210,6.4,2.6
2023-07-08T12:00:00,23,22.3,0,7.9,112,895,55.2,840,d,0,896,38,1015,0,840,16,Clear Sky,800,c01d,210,6,3.1
2023-07-08T13:00:00,24,23.4,0,8.8,115,908,60.1,895,d,0,905,38,1015,0,895,16,Clear Sky,800,c01d,160,5.6,3.6
2023-07-08T14:00:00,24,23.4,0,7.6,115,910,61,904,d,0,896,35,1015,0,904,16,Clear Sky,800,c01d,190,2.6,2.6
2023-07-08T15:00:00,26,25.6,0,9.8,113,901,57.4,866,d,0,896,36,1014,0,866,16,Clear Sky,800,c01d,170,5.2,3.1
2023-07-08T16:00:00,26,25.4,0,5.6,109,880,50.7,783,d,0,897,27,1014,0,783,16,Clear Sky,800,c01d,170,3,1.6
2023-07-08T17:00:00,26,25.4,0,6.6,102,845,42.2,663,d,0,896,29,1013,0,663,16,Clear Sky,800,c01d,175,4.8,1
2023-07-08T18:00:00,27,26.5,0,8.9,92,791,33,517,d,0,896,32,1013,0,517,16,Clear Sky,800,c01d,180,4,3.1
2023-07-08T19:00:00,26,25.6,0,9.8,79,708,23.6,356,d,0,896,36,1012,0,356,16,Clear Sky,800,c01d,180,4.1,4.1
2023-07-08T20:00:00,25,24.4,0,7.6,62,575,14.4,197,d,0,895,33,1012,0,197,16,Clear Sky,800,c01d,160,3.6,3.6
2023-07-08T21:00:00,24,23.4,1,7.6,36,331,5.7,61,d,0,895,35,1012,0,61,16,Clear Sky,800,c01d,160,3.6,3.1
2023-07-08T22:00:00,23,22.3,10,6.7,0,0,-2,0,n,0,895,35,1012,0,0,16,Few clouds,801,c02n,180,3.6,2.6
2023-07-08T23:00:00,22,21.2,82,5.8,0,0,-8.5,0,n,0,894,35,1012,0,0,16,Overcast clouds,804,c04n,260,3.6,2
2023-07-09T00:00:00,17,17,5,7.9,0,0,-13.3,0,n,0,894,55,1013,0,0,16,Few clouds,801,c02n,340,3.2,2.1
2023-07-09T01:00:00,15,15,5,7.8,0,0,-16,0,n,0,892,62,1013,0,0,16,Few clouds,801,c02n,340,2,1.5
2023-07-09T02:00:00,14,14,6,8,0,0,-16.5,0,n,0,892,67,1013,0,0,16,Few clouds,801,c02n,340,4,1.5
2023-07-09T03:00:00,14,14,5,8,0,0,-14.6,0,n,0,891,67,1013,0,0,16,Few clouds,801,c02n,290,4,1
2023-07-09T04:00:00,14,14,3,8,0,0,-10.5,0,n,0,891,67,1012,0,0,16,Few clouds,801,c02n,315,4,1
2023-07-09T05:00:00,13,13,4,7.9,0,0,-4.7,0,n,0,891,71,1012,0,0,16,Few clouds,801,c02n,340,4,1
2023-07-09T06:00:00,14,14,5,8,22,171,2.7,21,d,0,890,67,1012,0,43,16,Few clouds,801,c02n,315,4,1
2023-07-09T07:00:00,14,14,4,8.8,53,501,11,141,d,0,891,71,1012,0,141,13,Few clouds,801,c02d,290,4.8,2.8
2023-07-09T08:00:00,17,17,0,7.9,73,665,20,294,d,0,891,55,1012,0,294,16,Clear Sky,800,c01d,265,4.4,1.6
2023-07-09T09:00:00,20,19.3,1,9,88,763,29.4,456,d,0,905,49,1012,0,456,16,Clear Sky,800,c01d,240,3.6,1
2023-07-09T10:00:00,22,21.5,1,9.9,99,827,38.7,610,d,0,893,46,1012,0,610,16,Clear Sky,800,c01d,215,3.2,0.4
2023-07-09T11:00:00,25,24.6,3,10.8,107,869,47.5,741,d,0,894,41,1011,0,718,16,Few clouds,801,c02d,190,1,1
2023-07-09T12:00:00,27,26.7,3,10.7,112,895,55,838,d,0,895,36,1011,0,813,16,Few clouds,801,c02d,165,4,0.8
2023-07-09T13:00:00,28,27,0,7.8,115,908,60,894,d,0,895,28,1011,0,894,16,Clear Sky,800,c01d,140,4.4,2.6
2023-07-09T14:00:00,29,27.8,0,8.7,115,910,60.9,903,d,0,896,28,1011,0,903,16,Clear Sky,800,c01d,100,4.1,4.1
2023-07-09T15:00:00,29,27.8,4,8.7,113,901,57.3,865,d,0,896,28,1011,0,865,16,Few clouds,801,c02d,100,4.4,3.6
2023-07-09T16:00:00,28,27,49,7.8,109,880,50.6,782,d,0.25,895,28,1010,0,720,16,Broken clouds,803,c03d,110,13,5.1
2023-07-09T17:00:00,19,18.5,86,10.8,102,845,42.1,662,d,2.25,895,59,1014,0,273,16,Light rain,500,r01d,320,13,6.7
2023-07-09T18:00:00,21,20.4,44,9.9,92,790,32.9,516,d,0.25,889,49,1012,0,488,13,Broken clouds,803,c03d,10,11,6.7
2023-07-09T19:00:00,22,21.4,94,8.9,79,707,23.5,355,d,1.25,893,43,1013,0,91,11,Light rain,500,r01d,230,13,8.8
2023-07-09T20:00:00,22,21.4,95,8.9,62,573,14.3,196,d,0,894,43,1012,0,110,11,Overcast clouds,804,c04d,230,8,4.6
2023-07-09T21:00:00,22,21.3,94,7.8,36,327,5.7,59,d,0,894,40,1012,0,52,11,Overcast clouds,804,c04d,240,2.8,1.5
2023-07-09T22:00:00,19,18.5,93,10.8,0,0,-2.1,0,n,0,894,59,1012,0,0,11,Overcast clouds,804,c04n,10,5.1,5.1
2023-07-09T23:00:00,19,18.4,88,9.8,0,0,-8.6,0,n,0,893,55,1013,0,0,11,Overcast clouds,804,c04n,95,2.8,1
2023-07-10T00:00:00,20,19.4,88,9.9,0,0,-13.4,0,n,0,893,52,1012,0,0,16,Overcast clouds,804,c04n,185,2,1
2023-07-10T01:00:00,19,18.4,84,9.8,0,0,-16.2,0,n,0,894,55,1011,0,0,16,Overcast clouds,804,c04n,270,2.4,1.5
2023-07-10T02:00:00,17,17,49,10.8,0,0,-16.6,0,n,0,893,67,1011,0,0,16,Broken clouds,803,c03n,270,1.6,1
2023-07-10T03:00:00,17,17,83,10.8,0,0,-14.7,0,n,0,892,67,1011,0,0,16,Overcast clouds,804,c04n,270,1.2,1
2023-07-10T04:00:00,16,16,54,11,0,0,-10.7,0,n,0,892,72,1011,0,0,16,Broken clouds,803,c03n,270,1.6,1.5
2023-07-10T05:00:00,16,16,81,11,0,0,-4.8,0,n,0,891,72,1012,0,0,16,Overcast clouds,804,c04n,190,2,1.5
2023-07-10T06:00:00,13,13,22,10,21,163,2.5,20,d,0,891,82,1013,0,40,16,Scattered clouds,802,c02n,350,2.4,1.5
2023-07-10T07:00:00,15,15,10,10,53,498,10.9,139,d,0,890,72,1012,0,139,16,Few clouds,801,c02d,230,3.2,1.5
2023-07-10T08:00:00,16,16,6,11,73,663,19.9,292,d,0,891,72,1012,0,283,16,Few clouds,801,c02d,195,1,1
2023-07-10T09:00:00,19,18.7,77,13,88,762,29.2,454,d,0,891,68,1012,0,270,16,Overcast clouds,804,c04d,165,4.4,0.8
2023-07-10T10:00:00,21,20.5,5,10.8,99,826,38.6,608,d,0,892,52,1012,0,589,16,Few clouds,801,c02d,130,6.4,2.1
2023-07-10T11:00:00,23,22.5,5,9.8,107,868,47.4,739,d,0,893,43,1011,0,739,16,Few clouds,801,c02d,90,7.6,2.1
2023-07-10T12:00:00,24,23.8,18,12.9,112,894,54.9,837,d,0,894,50,1011,0,805,16,Few clouds,801,c02d,90,9.2,3.1
2023-07-10T13:00:00,26,25.7,0,11,115,908,59.9,893,d,0,894,39,1010,0,865,16,Clear Sky,800,c01d,140,8,6.7
2023-07-10T14:00:00,26,25.7,0,11,115,910,60.8,902,d,0,894,39,1010,0,874,16,Clear Sky,800,c01d,180,8,4.1
2023-07-10T15:00:00,26,25.7,91,11,113,901,57.2,863,d,0,894,39,1010,0,273,16,Overcast clouds,804,c04d,120,10,3.6
2023-07-10T16:00:00,25,24.5,93,9.7,109,880,50.5,781,d,0.25,894,38,1010,0,232,16,Overcast clouds,804,c04d,180,12,8.8
2023-07-10T17:00:00,26,25.7,91,11.7,102,844,42,661,d,1,893,41,1010,0,208,16,Light rain,500,r01d,140,16,5.7
2023-07-10T18:00:00,17,17,84,11.9,92,790,32.8,514,d,0.25,893,72,1014,0,241,16,Overcast clouds,804,c04d,360,19,12.4
2023-07-10T19:00:00,17,17,89,12.9,79,706,23.4,354,d,0,893,77,1013,0,127,16,Overcast clouds,804,c04d,40,12,7.2
2023-07-10T20:00:00,17,17,58,12.9,61,572,14.2,195,d,0,892,77,1014,0,160,16,Broken clouds,803,c03d,70,13,10.3
2023-07-10T21:00:00,16,16,94,12.9,36,323,5.6,58,d,0.5,892,82,1014,0,49,16,Overcast clouds,804,c04d,70,12,8.8
2023-07-10T22:00:00,15,15,92,12.9,0,0,-2.2,0,n,0.5,892,87,1014,0,0,16,Overcast clouds,804,c04n,40,4,3.6
2023-07-10T23:00:00,15,15,92,12.9,0,0,-8.7,0,n,1,893,87,1015,0,0,11,Light rain,500,r01n,170,4.6,4.6
2023-07-11T00:00:00,14,14,95,12.9,0,0,-13.5,0,n,1,893,93,1014,0,0,10,Light rain,500,r01n,360,2.1,2.1
2023-07-11T01:00:00,14,14,95,14,0,0,-16.3,0,n,0.5,891,100,1012,0,0,10,Fog,741,a05n,20,6.7,6.7
2023-07-11T02:00:00,14,14,93,12.9,0,0,-16.8,0,n,0.5,891,93,1013,0,0,11,Overcast clouds,804,c04n,120,4.8,4.6
2023-07-11T03:00:00,13,13,88,11.9,0,0,-14.9,0,n,0,891,93,1012,0,0,11,Overcast clouds,804,c04n,120,6.8,3.1
2023-07-11T04:00:00,13,13,42,11.9,0,0,-10.8,0,n,0,890,93,1012,0,0,11,Broken clouds,803,c03n,140,5.2,4.1
2023-07-11T05:00:00,13,13,100,11.9,0,0,-4.9,0,n,0,890,93,1012,0,0,11,Overcast clouds,804,c04n,130,4.4,3.1
2023-07-11T06:00:00,13,13,100,11.9,21,155,2.4,19,d,0,890,93,1013,0,22,11,Overcast clouds,804,c04n,70,3.6,2.1
2023-07-11T07:00:00,13,13,100,11.9,53,495,10.7,137,d,0,890,93,1013,0,61,14,Overcast clouds,804,c04d,185,3.2,1.6
2023-07-11T08:00:00,14,14,90,11.9,73,661,19.8,290,d,0.25,890,87,1013,0,98,14,Overcast clouds,804,c04d,300,3.6,2.1
2023-07-11T09:00:00,14,14,95,11.9,88,761,29.1,452,d,0.75,890,87,1013,0,95,16,Light rain,500,r01d,60,4.4,1.5
2023-07-11T10:00:00,14,14,94,11.9,99,826,38.4,606,d,0,890,87,1014,0,144,16,Overcast clouds,804,c04d,60,5.6,2.6
2023-07-11T11:00:00,14,14,91,11.9,106,868,47.3,737,d,0.25,891,87,1014,0,231,14,Overcast clouds,804,c04d,30,6,3.1
2023-07-11T12:00:00,15,15,56,12,112,894,54.8,835,d,0.5,891,82,1014,0,702,16,Broken clouds,803,c03d,40,6.8,3.1
2023-07-11T13:00:00,17,17,84,11.9,115,907,59.7,891,d,0.5,892,72,1014,0,418,16,Overcast clouds,804,c04d,40,6.4,3.6
2023-07-11T14:00:00,17,17,83,12.9,115,910,60.6,900,d,0,893,77,1014,0,438,16,Overcast clouds,804,c04d,10,6.8,4.1
2023-07-11T15:00:00,17,17,88,11.9,113,901,57.1,862,d,0.5,893,72,1014,0,331,16,Overcast clouds,804,c04d,20,6.8,3.1
2023-07-11T16:00:00,16,16,84,13.8,109,880,50.4,780,d,0,893,87,1015,0,362,16,Overcast clouds,804,c04d,15,7.6,1
2023-07-11T17:00:00,18,18,81,13.9,102,844,41.9,660,d,0,892,77,1014,0,345,16,Overcast clouds,804,c04d,10,8.4,3.1
2023-07-11T18:00:00,19,18.5,81,10.8,92,789,32.7,513,d,0,893,59,1014,0,271,16,Overcast clouds,804,c04d,340,6,4.6
2023-07-11T19:00:00,19,18.6,27,11.8,79,705,23.3,352,d,0,893,63,1014,0,337,16,Scattered clouds,802,c02d,350,6.8,3.1
2023-07-11T20:00:00,18,18,45,11.8,61,570,14.1,193,d,0,893,67,1015,0,175,16,Broken clouds,803,c03d,10,4.4,4.1
2023-07-11T21:00:00,16,16,46,12,35,319,5.5,57,d,0,893,77,1015,0,51,16,Broken clouds,803,c03d,20,4.1,4.1
2023-07-11T22:00:00,15,15,48,12,0,0,-2.3,0,n,0,893,82,1016,0,0,16,Broken clouds,803,c03n,30,2.1,2.1
2023-07-11T23:00:00,14,14,52,11.9,0,0,-8.8,0,n,0,892,87,1016,0,0,16,Broken clouds,803,c03n,30,2.6,2.6
2023-07-12T00:00:00,14,14,9,12.9,0,0,-13.6,0,n,0,892,93,1017,0,0,16,Few clouds,801,c02n,70,2.1,2.1
2023-07-12T01:00:00,14,14,14,11.9,0,0,-16.4,0,n,0,893,87,1016,0,0,16,Few clouds,801,c02n,135,2,1.6
2023-07-12T02:00:00,13,13,40,11.9,0,0,-16.9,0,n,0,893,93,1016,0,0,11,Scattered clouds,802,c02n,205,2,1.6
2023-07-12T03:00:00,13,13,22,11.9,0,0,-15,0,n,0,892,93,1016,0,0,10,Scattered clouds,802,c02n,270,2.4,1
2023-07-12T04:00:00,13,13,45,11.9,0,0,-10.9,0,n,0,892,93,1016,0,0,10,Broken clouds,803,c03n,210,2.4,1.5
2023-07-12T05:00:00,13,13,49,11.9,0,0,-5.1,0,n,0,892,93,1015,0,0,13,Broken clouds,803,c03n,220,2.6,2.6
2023-07-12T06:00:00,12,12,62,10.9,20,146,2.3,17,d,0,905,93,1015,0,33,16,Broken clouds,803,c03n,245,2.8,1.6
2023-07-12T07:00:00,13,13,81,10.9,52,491,10.6,135,d,0,891,87,1015,0,71,16,Overcast clouds,804,c04d,270,4,2
2023-07-12T08:00:00,15,15,48,12,73,660,19.6,288,d,0,892,82,1015,0,257,16,Broken clouds,803,c03d,290,4.4,2
2023-07-12T09:00:00,18,18,98,12.9,87,760,29,450,d,0,893,72,1015,0,142,16,Overcast clouds,804,c04d,315,4.4,1
2023-07-12T10:00:00,20,19.4,100,9.9,98,825,38.3,604,d,0,894,52,1015,0,158,16,Overcast clouds,804,c04d,340,6.4,5.7
2023-07-12T11:00:00,20,19.5,100,11,106,867,47.1,736,d,0,895,56,1015,0,155,16,Overcast clouds,804,c04d,320,7.2,5.7
2023-07-12T12:00:00,20,19.4,100,9.9,112,894,54.7,834,d,0,895,52,1016,0,195,16,Overcast clouds,804,c04d,330,8,6.2
2023-07-12T13:00:00,21,20.4,82,9.9,114,907,59.6,890,d,0,895,49,1015,0,482,16,Overcast clouds,804,c04d,330,8,4.6
2023-07-12T14:00:00,21,20.4,88,8.9,115,909,60.5,899,d,0,895,46,1015,0,375,16,Overcast clouds,804,c04d,290,7.2,6.2
2023-07-12T15:00:00,21,20.4,89,8.9,113,900,57,861,d,0,895,46,1015,0,340,16,Overcast clouds,804,c04d,280,8,6.7
2023-07-12T16:00:00,22,21.5,84,9.9,109,879,50.3,778,d,0,895,46,1014,0,391,13,Overcast clouds,804,c04d,300,8,5.1
2023-07-12T17:00:00,22,21.5,100,9.9,102,844,41.8,659,d,1,895,46,1015,0,168,16,Light rain,500,r01d,300,8,5.1
2023-07-12T18:00:00,22,21.5,81,9.9,92,789,32.7,512,d,1,895,46,1015,0,287,13,Light rain,500,r01d,330,12,9.8
2023-07-12T19:00:00,20,19.3,86,9,79,704,23.2,351,d,0,895,49,1015,0,162,16,Overcast clouds,804,c04d,290,6.4,4.1
2023-07-12T20:00:00,20,19.4,44,9.9,61,569,14,192,d,0,894,52,1015,0,181,16,Broken clouds,803,c03d,300,3.6,2.6
2023-07-12T21:00:00,20,19.4,87,9.9,35,315,5.4,56,d,0,895,52,1015,0,60,16,Overcast clouds,804,c04d,230,2.6,2.6
2023-07-12T22:00:00,18,18,85,10.9,0,0,-2.4,0,n,0,895,63,1015,0,0,16,Overcast clouds,804,c04n,290,3.6,1.5
2023-07-12T23:00:00,18,18,91,9.9,0,0,-8.9,0,n,0,894,59,1015,0,0,16,Overcast clouds,804,c04n,240,4,1.5
2023-07-13T00:00:00,17,17,22,10.8,0,0,-13.8,0,n,0,894,67,1015,0,0,16,Scattered clouds,802,c02n,290,4,1
2023-07-13T01:00:00,15,15,56,10,0,0,-16.6,0,n,0,894,72,1015,0,0,16,Broken clouds,803,c03n,340,4.8,1
2023-07-13T02:00:00,15,15,100,10,0,0,-17,0,n,0,893,72,1016,0,0,16,Overcast clouds,804,c04n,320,5.6,2.8
2023-07-13T03:00:00,16,16,80,9,0,0,-15.1,0,n,0,905,63,1015,0,0,11,Overcast clouds,804,c04n,300,9,5.7
2023-07-13T04:00:00,15,15,90,8.9,0,0,-11.1,0,n,0,894,67,1015,0,0,11,Overcast clouds,804,c04n,310,8,5.7
2023-07-13T05:00:00,16,16,94,8,0,0,-5.2,0,n,0,893,59,1015,0,0,8,Overcast clouds,804,c04n,300,4.6,4.6
2023-07-13T06:00:00,15,15,93,7.8,19,137,2.1,16,d,0,894,62,1015,0,24,6,Overcast clouds,804,c04n,300,5.2,3.2
2023-07-13T07:00:00,16,16,85,8,52,488,10.5,133,d,0,893,59,1016,0,64,6,Overcast clouds,804,c04d,300,5.6,5.1
2023-07-13T08:00:00,17,17,79,7.9,72,658,19.5,286,d,0,894,55,1016,0,171,6,Overcast clouds,804,c04d,290,9,3.6
2023-07-13T09:00:00,18,18,51,8.8,87,759,28.9,448,d,0.5,894,55,1016,0,407,6,Broken clouds,803,c03d,280,9,5.7
2023-07-13T10:00:00,19,18.3,54,8.9,98,824,38.2,602,d,1.5,895,52,1016,0,528,6,Light rain,500,r01d,300,7,5.1
2023-07-13T11:00:00,19,18.3,84,8.9,106,867,47,734,d,0.5,896,52,1016,0,369,6,Overcast clouds,804,c04d,270,6.4,6.2
2023-07-13T12:00:00,20,19.5,100,11,112,893,54.5,832,d,0,896,56,1016,0,168,6,Overcast clouds,804,c04d,290,7,4.6
2023-07-13T13:00:00,21,20.5,81,10.8,114,907,59.4,888,d,0,896,52,1017,0,470,6,Overcast clouds,804,c04d,350,7,4.1
2023-07-13T14:00:00,21,20.4,9,9.9,115,909,60.3,898,d,0,897,49,1016,0,898,8,Few clouds,801,c02d,330,8,4.1
2023-07-13T15:00:00,22,21.5,57,10.8,113,900,56.8,859,d,0,897,49,1016,0,718,6,Broken clouds,803,c03d,340,9,3.6
2023-07-13T16:00:00,21,20.4,100,8.9,109,879,50.2,777,d,0,897,46,1016,0,187,6,Overcast clouds,804,c04d,280,10,6.2
2023-07-13T17:00:00,22,21.4,86,8.9,102,843,41.8,657,d,0,897,43,1016,0,303,5,Overcast clouds,804,c04d,280,8.4,7.7
2023-07-13T18:00:00,21,20.4,100,8.9,92,788,32.5,510,d,0,897,46,1016,0,143,5,Overcast clouds,804,c04d,290,7.6,6.7
2023-07-13T19:00:00,21,20.4,83,8.9,79,703,23.1,349,d,0,897,46,1016,0,182,6,Overcast clouds,804,c04d,330,9.2,5.1
2023-07-13T20:00:00,20,19.4,100,9.9,61,567,13.9,190,d,0,897,52,1017,0,80,6,Overcast clouds,804,c04d,290,6.8,3.1
2023-07-13T21:00:00,20,19.3,100,9,34,310,5.3,54,d,0,896,49,1017,0,39,5,Overcast clouds,804,c04d,310,6,5.1
2023-07-13T22:00:00,18,18,80,9.9,0,0,-2.5,0,n,0,897,59,1018,0,0,6,Overcast clouds,804,c04n,330,5.6,3.1
2023-07-13T23:00:00,17,17,98,9.9,0,0,-9.1,0,n,0,897,63,1018,0,0,5,Overcast clouds,804,c04n,320,5.2,3.1
2023-07-14T00:00:00,17,17,11,9.9,0,0,-13.9,0,n,0,897,63,1019,0,0,5,Few clouds,801,c02n,270,8,1.5
2023-07-14T01:00:00,17,17,23,9.9,0,0,-16.7,0,n,0,897,63,1019,0,0,8,Scattered clouds,802,c02n,280,7,4.1
2023-07-14T02:00:00,16,16,84,9,0,0,-17.2,0,n,0,897,63,1019,0,0,10,Overcast clouds,804,c04n,290,5.6,3.1
2023-07-14T03:00:00,15,15,83,8.9,0,0,-15.3,0,n,0,897,67,1019,0,0,10,Overcast clouds,804,c04n,40,5.2,1.5
2023-07-14T04:00:00,14,14,87,8.8,0,0,-11.2,0,n,0,897,71,1020,0,0,10,Overcast clouds,804,c04n,360,4.6,4.6
2023-07-14T05:00:00,15,15,57,8.9,0,0,-5.3,0,n,0,896,67,1019,0,0,8,Broken clouds,803,c03n,240,4.4,1.5
2023-07-14T06:00:00,14,14,9,8.8,18,128,2,15,d,0,897,71,1020,0,33,8,Few clouds,801,c02n,125,4.4,3.2
2023-07-14T07:00:00,14,14,5,8.8,51,485,10.3,131,d,0,896,71,1020,0,131,10,Few clouds,801,c02d,10,4.8,2.6
2023-07-14T08:00:00,16,16,5,9.9,72,656,19.4,283,d,0,896,67,1020,0,283,10,Few clouds,801,c02d,330,7,3.1
2023-07-14T09:00:00,18,18,56,10.9,87,758,28.7,446,d,0,898,63,1020,0,376,8,Broken clouds,803,c03d,340,7,5.1
2023-07-14T10:00:00,18,18,46,10.9,98,824,38.1,600,d,0,899,63,1020,0,543,8,Broken clouds,803,c03d,340,8.4,5.7
2023-07-14T11:00:00,18,18,86,10.9,106,866,46.9,732,d,0,899,63,1021,0,315,10,Overcast clouds,804,c04d,330,7,5.1
2023-07-14T12:00:00,20,19.5,80,11,111,893,54.4,830,d,0,899,56,1021,0,454,10,Overcast clouds,804,c04d,340,7,4.1
2023-07-14T13:00:00,21,20.6,48,11.9,114,907,59.3,887,d,0,900,56,1020,0,792,10,Broken clouds,803,c03d,330,8,5.7
2023-07-14T14:00:00,22,21.5,5,10.8,115,909,60.2,896,d,0,900,49,1020,0,868,10,Few clouds,801,c02d,350,9,6.2
2023-07-14T15:00:00,23,22.6,19,10.8,113,900,56.7,858,d,0,901,46,1020,0,829,8,Few clouds,801,c02d,360,8,5.7
2023-07-14T16:00:00,22,21.4,47,8.9,109,879,50,776,d,0,901,43,1020,0,722,8,Broken clouds,803,c03d,330,5,3.1
2023-07-14T17:00:00,22,21.5,100,9.9,102,843,41.7,656,d,0,901,46,1020,0,168,8,Overcast clouds,804,c04d,20,7.2,3.6
2023-07-14T18:00:00,22,21.4,100,8.9,92,787,32.5,509,d,0,901,43,1020,0,143,6,Overcast clouds,804,c04d,20,5.6,4.6
2023-07-14T19:00:00,22,21.4,62,8.9,79,702,23,348,d,0,900,43,1020,0,286,6,Broken clouds,803,c03d,40,4.4,2.6
2023-07-14T20:00:00,21,20.4,42,9.9,60,565,13.8,188,d,0,900,49,1020,0,179,5,Broken clouds,803,c03d,60,2.8,2.1
2023-07-14T21:00:00,19,18.4,6,9.8,34,305,5.2,53,d,0,900,55,1020,0,53,6,Few clouds,801,c02d,100,2.4,2.1
2023-07-14T22:00:00,19,18.5,46,10.8,0,0,-2.6,0,n,0,899,59,1020,0,0,6,Broken clouds,803,c03n,110,2.8,2.6
2023-07-14T23:00:00,19,18.5,84,10.8,0,0,-9.2,0,n,0,902,59,1021,0,0,8,Overcast clouds,804,c04n,175,2.8,1.2
2023-07-15T00:00:00,18,18,83,11.8,0,0,-14.1,0,n,0,899,67,1020,0,0,8,Overcast clouds,804,c04n,240,3.1,3.1
2023-07-15T01:00:00,17,17,84,12.9,0,0,-16.9,0,n,0,899,77,1020,0,0,8,Overcast clouds,804,c04n,190,2,1.5
2023-07-15T02:00:00,16,16,22,12.9,0,0,-17.4,0,n,0,899,82,1020,0,0,8,Scattered clouds,802,c02n,115,2,1.2
2023-07-15T03:00:00,16,16,66,12.9,0,0,-15.5,0,n,0,898,82,1020,0,0,8,Broken clouds,803,c03n,40,2.6,2.6
2023-07-15T04:00:00,16,16,45,13.8,0,0,-11.4,0,n,0,898,87,1020,0,0,8,Broken clouds,803,c03n,230,3.6,3.6
2023-07-15T05:00:00,15,15,56,12,0,0,-5.5,0,n,0,905,82,1020,0,0,4,Broken clouds,803,c03n,220,2.4,1.5
2023-07-15T06:00:00,14,14,5,11.9,18,118,1.8,13,d,0,897,87,1020,0,30,5,Few clouds,801,c02n,220,2.4,2.1
2023-07-15T07:00:00,14,14,5,11,51,481,10.2,128,d,0,897,82,1020,0,124,5,Few clouds,801,c02d,210,3.6,1
2023-07-15T08:00:00,14,14,9,11.9,72,655,19.2,281,d,0,897,87,1020,0,271,6,Few clouds,801,c02d,200,3.6,1.5
2023-07-15T09:00:00,17,17,9,9.9,87,757,28.6,443,d,0,897,63,1020,0,443,6,Few clouds,801,c02d,280,4,2.1
2023-07-15T10:00:00,19,18.5,5,10.8,98,823,37.9,598,d,0,898,59,1020,0,579,6,Few clouds,801,c02d,250,4,2.1
2023-07-15T11:00:00,20,19.6,8,12,106,866,46.7,730,d,0,899,60,1019,0,705,6,Few clouds,801,c02d,285,6,0.8
2023-07-15T12:00:00,23,22.6,5,11.7,111,893,54.2,828,d,0,898,49,1018,0,801,6,Few clouds,801,c02d,325,4.4,0.4
2023-07-15T13:00:00,24,23.5,13,9.9,114,906,59.1,885,d,0,899,41,1018,0,884,6,Few clouds,801,c02d,360,4.8,2.1
2023-07-15T14:00:00,24,23.7,10,12,115,909,60,895,d,0,899,47,1018,0,865,10,Few clouds,801,c02d,60,4.4,3.6
2023-07-15T15:00:00,25,24.7,57,11.9,113,900,56.6,857,d,0,899,44,1018,0,715,10,Broken clouds,803,c03d,60,4.4,2.6
2023-07-15T16:00:00,25,24.6,27,10.8,109,878,49.9,774,d,0,900,41,1017,0,742,8,Scattered clouds,802,c02d,50,4.1,4.1
2023-07-15T17:00:00,24,23.4,85,8.8,102,842,41.5,654,d,0.5,899,38,1017,0,315,8,Overcast clouds,804,c04d,50,5.2,4.1
2023-07-15T18:00:00,25,24.6,64,10.8,92,787,32.3,507,d,1,899,41,1017,0,391,8,Light rain,500,r01d,110,5.6,4.1
2023-07-15T19:00:00,23,22.6,68,10.8,78,701,23,346,d,0.25,899,46,1017,0,251,10,Broken clouds,803,c03d,90,5.1,5.1
2023-07-15T20:00:00,22,21.5,21,10.8,60,563,13.7,187,d,0.25,898,49,1017,0,180,10,Scattered clouds,802,c02d,90,5.7,5.7
2023-07-15T21:00:00,18,18,27,12.9,33,300,5,51,d,0,898,72,1018,0,49,6,Scattered clouds,802,c02d,50,5.1,5.1
2023-07-15T22:00:00,17,17,91,10.8,0,0,-2.8,0,n,0.25,897,67,1019,0,0,5,Overcast clouds,804,c04n,20,5.7,5.7
2023-07-15T23:00:00,17,17,86,11.9,0,0,-9.3,0,n,0.5,897,72,1019,0,0,8,Overcast clouds,804,c04n,340,3.1,3.1
2023-07-16T00:00:00,17,17,89,10.8,0,0,-14.2,0,n,0,897,67,1019,0,0,10,Overcast clouds,804,c04n,340,2.1,2.1
2023-07-16T01:00:00,16,16,94,9.9,0,0,-17,0,n,0,897,67,1019,0,0,10,Overcast clouds,804,c04n,70,2.6,2.6
2023-07-16T02:00:00,15,15,93,10.8,0,0,-17.5,0,n,0,898,76,1020,0,0,8,Overcast clouds,804,c04n,120,1.6,1
2023-07-16T03:00:00,15,15,89,10.8,0,0,-15.6,0,n,0,897,76,1019,0,0,10,Overcast clouds,804,c04n,170,3.2,2
2023-07-16T04:00:00,15,15,44,10.8,0,0,-11.6,0,n,0,897,76,1019,0,0,10,Broken clouds,803,c03n,220,2.1,2.1
2023-07-16T05:00:00,15,15,97,10.8,0,0,-5.6,0,n,0,897,76,1018,0,0,10,Overcast clouds,804,c04n,210,2.1,2.1
2023-07-16T06:00:00,14,14,43,11,17,108,1.7,12,d,0,896,82,1018,0,28,8,Broken clouds,803,c03n,210,2.1,2.1
2023-07-16T07:00:00,14,14,0,11,51,477,10.1,126,d,0,896,82,1018,0,122,8,Clear Sky,800,c01d,180,2.8,1.5
2023-07-16T08:00:00,16,16,0,12,72,653,19.1,279,d,0,895,77,1018,0,270,6,Clear Sky,800,c01d,180,3.6,2.1
2023-07-16T09:00:00,17,17,0,10.8,87,756,28.5,441,d,0,896,67,1018,0,427,5,Clear Sky,800,c01d,190,6,2.6
2023-07-16T10:00:00,20,19.6,1,12,98,822,37.8,596,d,0,896,60,1018,0,576,4,Clear Sky,800,c01d,160,7.6,5.1
2023-07-16T11:00:00,20,19.7,0,13,106,865,46.6,728,d,0,898,64,1018,0,702,3,Clear Sky,800,c01d,160,8,4.6
2023-07-16T12:00:00,21,20.8,0,13.9,111,892,54,827,d,0,898,64,1017,0,796,3,Clear Sky,800,c01d,130,8,5.1
2023-07-16T13:00:00,23,22.8,0,13.8,114,906,59,883,d,0,898,56,1017,0,850,3,Clear Sky,800,c01d,140,8,6.2
2023-07-16T14:00:00,24,23.8,3,13.8,115,908,59.9,893,d,0,898,53,1016,0,859,3,Few clouds,801,c02d,130,9,6.2
2023-07-16T15:00:00,25,24.9,2,13.9,113,899,56.4,855,d,0,897,50,1015,0,823,3,Few clouds,801,c02d,150,10,6.7
2023-07-16T16:00:00,26,25.7,7,11.7,108,878,49.8,772,d,0,897,41,1015,0,747,4,Few clouds,801,c02d,130,10,6.7
2023-07-16T17:00:00,26,25.7,46,11,101,842,41.4,652,d,0,898,39,1014,0,590,5,Broken clouds,803,c03d,120,10,7.7
2023-07-16T18:00:00,25,24.7,96,11.9,92,786,32.2,505,d,0,897,44,1014,0,93,5,Overcast clouds,804,c04d,130,11,9.3
2023-07-16T19:00:00,25,24.6,3,10.8,78,700,22.8,344,d,0,896,41,1013,0,333,6,Few clouds,801,c02d,130,11,8.8
2023-07-16T20:00:00,24,23.6,31,11,60,560,13.6,185,d,0,896,44,1013,0,176,5,Scattered clouds,802,c02d,130,10,7.2
2023-07-16T21:00:00,23,22.6,83,11.7,33,294,4.9,49,d,0,895,49,1013,0,57,6,Overcast clouds,804,c04n,120,7,5.1
2023-07-16T22:00:00,20,19.6,46,12,0,0,-2.9,0,n,0,895,60,1013,0,0,6,Broken clouds,803,c03n,90,5.6,3.1
2023-07-16T23:00:00,20,19.5,45,11,0,0,-9.5,0,n,0,894,56,1013,0,0,8,Broken clouds,803,c03n,110,4.8,3.6
2023-07-17T00:00:00,18,18,54,10.9,0,0,-14.4,0,n,0,893,63,1012,0,0,6,Broken clouds,803,c03n,100,4,3.6
2023-07-17T01:00:00,17,17,25,10.8,0,0,-17.2,0,n,0,892,67,1011,0,0,5,Scattered clouds,802,c02n,120,4.8,3.6
2023-07-17T02:00:00,16,16,60,9.9,0,0,-17.7,0,n,0,891,67,1011,0,0,6,Broken clouds,803,c03n,120,4.6,4.6
2023-07-17T03:00:00,15,15,83,10,0,0,-15.8,0,n,0,890,72,1010,0,0,5,Overcast clouds,804,c04n,140,4,3.6
2023-07-17T04:00:00,14,14,25,9.8,0,0,-11.7,0,n,0,889,76,1009,0,0,5,Scattered clouds,802,c02n,120,2.8,1.5
2023-07-17T05:00:00,12,12,12,8.8,0,0,-5.8,0,n,0,888,81,1009,0,0,2,Haze,721,a03n,230,2.4,1.2
2023-07-17T06:00:00,11,11,4,8.9,16,98,1.5,11,d,0,887,87,1009,0,27,4,Few clouds,801,c02n,340,2.4,1.5
2023-07-17T07:00:00,13,13,1,10,50,473,9.9,124,d,0,886,82,1008,0,120,4,Clear Sky,800,c01d,285,2.4,1
2023-07-17T08:00:00,16,16,6,11,71,651,19,276,d,0,887,72,1007,0,267,4,Few clouds,801,c02d,230,3.6,2.6
2023-07-17T09:00:00,18,18,88,11.8,87,755,28.3,439,d,0,887,67,1008,0,169,3,Overcast clouds,804,c04d,340,5.7,5.7
2023-07-17T10:00:00,18,18,94,11.8,98,821,37.6,593,d,0.25,888,67,1008,0,141,3,Overcast clouds,804,c04d,350,7.2,7.2
2023-07-17T11:00:00,19,18.7,95,13,106,865,46.4,726,d,0,888,68,1007,0,151,4,Overcast clouds,804,c04d,10,8,7.2
2023-07-17T12:00:00,19,18.7,56,13,111,892,53.9,825,d,0.5,888,68,1007,0,692,4,Broken clouds,803,c03d,360,7,5.1
2023-07-17T13:00:00,20,19.8,51,13.9,114,906,58.8,881,d,0.5,888,68,1006,0,767,4,Broken clouds,803,c03d,20,7,4.1
2023-07-17T14:00:00,22,21.8,3,13.9,115,908,59.7,891,d,2.5,887,60,1005,0,843,4,Light rain,500,r01d,30,10,7.7
2023-07-17T15:00:00,12,12,89,7.9,113,899,56.3,853,d,5.25,888,76,1010,0,307,6,Moderate rain,501,r02d,330,13,9.3
2023-07-17T16:00:00,14,14,73,8,108,878,49.7,771,d,2.75,884,67,1009,0,518,16,Light rain,500,r01d,290,8,6.2
2023-07-17T17:00:00,12,12,87,8.8,101,841,41.3,651,d,0,886,81,1012,0,286,6,Overcast clouds,804,c04d,330,11.6,6.7
2023-07-17T18:00:00,13,13,90,10,91,785,32.1,503,d,0,887,82,1011,0,171,16,Overcast clouds,804,c04d,340,10.8,5.1
2023-07-17T19:00:00,15,15,84,8.9,78,699,22.7,342,d,0,887,67,1011,0,172,16,Overcast clouds,804,c04d,290,9,3.1
2023-07-17T20:00:00,15,15,89,8.9,60,558,13.5,183,d,0,889,67,1012,0,72,16,Overcast clouds,804,c04d,350,10,6.2
2023-07-17T21:00:00,15,15,81,8.9,32,288,4.8,48,d,0,890,67,1012,0,59,16,Overcast clouds,804,c04n,330,3.1,3.1
2023-07-17T22:00:00,14,14,93,8,0,0,-3,0,n,0,890,67,1012,0,0,16,Overcast clouds,804,c04n,330,3.2,3.1
2023-07-17T23:00:00,12,12,92,7.9,0,0,-9.6,0,n,0,890,76,1012,0,0,16,Overcast clouds,804,c04n,265,3,2
2023-07-18T00:00:00,13,13,91,7.9,0,0,-14.5,0,n,0,889,71,1013,0,0,16,Overcast clouds,804,c04n,200,4.1,4.1
2023-07-18T01:00:00,12,12,56,7.9,0,0,-17.4,0,n,0,890,76,1012,0,0,16,Broken clouds,803,c03n,200,2.8,1.6
2023-07-18T02:00:00,11,11,78,7.9,0,0,-17.9,0,n,0,889,81,1012,0,0,16,Overcast clouds,804,c04n,200,3.2,2.1
2023-07-18T03:00:00,11,11,82,7.9,0,0,-16,0,n,0,893,81,1014,0,0,16,Overcast clouds,804,c04n,225,4.4,1
2023-07-18T04:00:00,11,11,94,6,0,0,-11.9,0,n,0,889,71,1015,0,0,16,Overcast clouds,804,c04n,255,8,1
2023-07-18T05:00:00,13,13,45,2.8,0,0,-6,0,n,0,890,50,1015,0,0,16,Broken clouds,803,c03n,280,8,4.6
2023-07-18T06:00:00,15,15,42,2.9,15,87,1.4,9,d,0,891,44,1015,0,24,16,Broken clouds,803,c03n,280,10,6.2
2023-07-18T07:00:00,14,14,74,2.9,50,469,9.8,122,d,0,892,47,1015,0,83,16,Overcast clouds,804,c04d,290,6,4.6
2023-07-18T08:00:00,16,16,23,3.8,71,649,18.8,274,d,0,892,44,1015,0,272,16,Scattered clouds,802,c02d,300,7.6,4.1
2023-07-18T09:00:00,17,17,5,4,86,754,28.2,436,d,0,893,42,1016,0,436,16,Few clouds,801,c02d,280,8.4,4.1
2023-07-18T10:00:00,18,18,20,3.9,98,821,37.5,591,d,0,894,39,1016,0,589,16,Few clouds,801,c02d,310,9,5.1
2023-07-18T11:00:00,19,18,10,4.7,106,864,46.3,724,d,0,894,39,1016,0,724,16,Few clouds,801,c02d,350,9,5.7
2023-07-18T12:00:00,19,18,60,4.7,111,891,53.7,823,d,0,895,39,1017,0,693,16,Broken clouds,803,c03d,20,9,5.1
2023-07-18T13:00:00,20,19,54,4.9,114,905,58.6,880,d,0,895,37,1016,0,783,16,Broken clouds,803,c03d,320,9,2.1
2023-07-18T14:00:00,21,20.2,45,6.9,115,908,59.5,889,d,0,896,40,1017,0,836,16,Broken clouds,803,c03d,20,9,5.1
2023-07-18T15:00:00,20,19.2,60,7.7,113,899,56.1,852,d,0,896,45,1017,0,717,16,Broken clouds,803,c03d,340,7.6,4.1
2023-07-18T16:00:00,22,21.2,11,6.7,108,877,49.5,769,d,0,896,37,1017,0,769,16,Few clouds,801,c02d,20,7.2,4.1
2023-07-18T17:00:00,22,21.2,20,6.7,101,841,41.2,649,d,0,897,37,1017,0,647,16,Few clouds,801,c02d,360,8,3.1
2023-07-18T18:00:00,22,21.2,5,6.7,91,785,32,501,d,1,897,37,1017,0,501,16,Light rain,500,r01d,350,8,4.6
2023-07-18T19:00:00,21,20.2,5,6.9,78,698,22.6,340,d,0,898,40,1018,0,340,16,Few clouds,801,c02d,360,6,5.1
2023-07-18T20:00:00,21,20.2,9,6.9,59,555,13.4,180,d,0,897,40,1018,0,180,16,Few clouds,801,c02d,360,5,4.6
2023-07-18T21:00:00,19,18.1,5,6.8,32,282,4.7,46,d,0,898,45,1019,0,46,16,Few clouds,801,c02n,360,2.1,2.1
2023-07-18T22:00:00,18,18,13,8,0,0,-3.2,0,n,0,898,52,1020,0,0,16,Few clouds,801,c02n,360,2.6,2.6
2023-07-18T23:00:00,17,17,70,9.9,0,0,-9.8,0,n,0,898,63,1021,0,0,16,Broken clouds,803,c03n,40,6.7,6.7
2023-07-19T00:00:00,15,15,5,10,0,0,-14.7,0,n,0,903,72,1022,0,0,16,Few clouds,801,c02n,300,3.2,2.1
2023-07-19T01:00:00,15,15,2,10,0,0,-17.5,0,n,0,899,72,1023,0,0,14,Few clouds,801,c02n,330,2.8,2.1
2023-07-19T02:00:00,13,13,4,8.9,0,0,-18,0,n,0,900,76,1023,0,0,14,Few clouds,801,c02n,330,2.8,2.6
2023-07-19T03:00:00,14,14,10,8.8,0,0,-16.2,0,n,0,899,71,1024,0,0,16,Few clouds,801,c02n,310,2.8,1.5
2023-07-19T04:00:00,12,12,9,7.9,0,0,-12.1,0,n,0,900,76,1024,0,0,14,Few clouds,801,c02n,280,2.8,1.6
2023-07-19T05:00:00,11,11,4,7.9,0,0,-6.1,0,n,0,900,81,1025,0,0,16,Few clouds,801,c02n,255,3.2,2
2023-07-19T06:00:00,11,11,3,7.9,14,76,1.2,8,d,0,899,81,1025,0,22,16,Few clouds,801,c02n,230,3.2,1
2023-07-19T07:00:00,11,11,0,8.9,49,465,9.6,119,d,0,900,87,1026,0,119,16,Clear Sky,800,c01d,200,3.6,1
2023-07-19T08:00:00,14,14,0,8.8,71,647,18.7,271,d,0,900,71,1026,0,271,10,Clear Sky,800,c01d,220,4,2.1
2023-07-19T09:00:00,16,16,1,9,86,752,28,434,d,0,902,63,1026,0,434,10,Clear Sky,800,c01d,215,3.6,1
2023-07-19T10:00:00,18,18,1,8,97,820,37.3,589,d,0,905,52,1026,0,589,10,Clear Sky,800,c01d,210,3.6,2.1
2023-07-19T11:00:00,19,18.1,1,6.8,106,864,46.1,722,d,0,904,45,1026,0,722,10,Clear Sky,800,c01d,290,4.4,1.5
2023-07-19T12:00:00,20,19.2,1,6.7,111,891,53.5,821,d,0,904,42,1026,0,821,8,Clear Sky,800,c01d,230,6,2.1
2023-07-19T13:00:00,20,19.2,3,7.7,114,905,58.4,878,d,0,904,45,1026,0,878,6,Few clouds,801,c02d,150,5.6,3.6
2023-07-19T14:00:00,22,21.2,5,6.7,114,907,59.3,888,d,0,904,37,1025,0,888,6,Few clouds,801,c02d,130,5.6,2.1
2023-07-19T15:00:00,23,22.4,4,8.7,113,898,55.9,850,d,0,904,40,1024,0,850,6,Few clouds,801,c02d,170,6,4.1
2023-07-19T16:00:00,24,23.4,51,7.6,108,877,49.4,767,d,0,904,35,1024,0,697,6,Broken clouds,803,c03d,150,6,3.1
2023-07-19T17:00:00,24,23.4,44,7.6,101,840,41,647,d,0,905,35,1024,0,611,6,Broken clouds,803,c03d,100,6,4.1
2023-07-19T18:00:00,24,23.4,23,7.6,91,784,31.9,499,d,0,898,35,1024,0,496,8,Scattered clouds,802,c02d,130,7.2,6.2
2023-07-19T19:00:00,22,21.3,93,7.8,78,696,22.5,338,d,0,898,40,1024,0,100,10,Overcast clouds,804,c04d,130,7.6,5.7
2023-07-19T20:00:00,22,21.3,25,7.8,59,553,13.2,178,d,0,898,40,1024,0,177,16,Scattered clouds,802,c02d,120,5.1,5.1
2023-07-19T21:00:00,21,20.3,25,8,31,275,4.5,44,d,0,898,43,1024,0,44,16,Scattered clouds,802,c02n,110,4.6,4.6
2023-07-19T22:00:00,18,18,23,8.8,0,0,-3.3,0,n,0,898,55,1024,0,0,16,Scattered clouds,802,c02n,100,4,3.1
2023-07-19T23:00:00,18,18,33,8.8,0,0,-9.9,0,n,0,898,55,1024,0,0,16,Scattered clouds,802,c02n,110,4.1,4.1
2023-07-20T00:00:00,17,17,12,7.9,0,0,-14.9,0,n,0,898,55,1024,0,0,16,Few clouds,801,c02n,130,4.1,4.1
2023-07-20T01:00:00,16,16,12,9,0,0,-17.7,0,n,0,898,63,1025,0,0,16,Few clouds,801,c02n,150,3.6,3.6
2023-07-20T02:00:00,15,15,12,8.9,0,0,-18.2,0,n,0,898,67,1025,0,0,16,Few clouds,801,c02n,100,3.6,2.1
2023-07-20T03:00:00,15,15,12,8.9,0,0,-16.3,0,n,0,898,67,1024,0,0,16,Few clouds,801,c02n,170,2.1,2.1
2023-07-20T04:00:00,13,13,12,8.9,0,0,-12.3,0,n,0,898,76,1025,0,0,16,Few clouds,801,c02n,70,3.2,2.6
2023-07-20T05:00:00,12,12,12,7.9,0,0,-6.3,0,n,0,898,76,1025,0,0,16,Few clouds,801,c02n,60,3.2,2.1
2023-07-20T06:00:00,11.8,11.8,12,8.5,13,65,1.1,7,d,0,898,80,1025,0,20,16,Few clouds,801,c02n,360,2.8,0.5
2023-07-20T07:00:00,13,13,12,8.9,49,461,9.5,117,d,0,898,76,1025,0,117,16,Few clouds,801,c02d,310,3.2,1
2023-07-20T08:00:00,15,15,12,8.9,70,645,18.5,269,d,0,898,67,1024,0,269,14,Few clouds,801,c02d,190,4,2.1
2023-07-20T09:00:00,17,17,12,8.9,86,751,27.9,431,d,0,898,59,1024,0,431,14,Few clouds,801,c02d,180,5.6,1.2
2023-07-20T10:00:00,19,18.3,12,8.9,97,819,37.2,587,d,0,898,52,1024,0,587,14,Few clouds,801,c02d,165,6.8,1.6
2023-07-20T11:00:00,21,20.4,12,9.9,106,863,46,720,d,0,898,49,1024,0,720,14,Few clouds,801,c02d,150,8.4,2.4
2023-07-20T12:00:00,22,21.4,12,8.9,111,891,53.4,819,d,0,898,43,1023,0,818,16,Few clouds,801,c02d,140,8,4.6
2023-07-20T13:00:00,23,22.5,12,9.8,114,905,58.2,876,d,0,898,43,1023,0,875,16,Few clouds,801,c02d,170,8,5.7
2023-07-20T14:00:00,25,24.6,91,10.8,114,907,59.2,886,d,0,898,41,1023,0,280,16,Overcast clouds,804,c04d,140,8,5.1
2023-07-20T15:00:00,26,25.6,5,9.8,112,898,55.8,848,d,0,898,36,1022,0,848,16,Few clouds,801,c02d,160,8,4.1
2023-07-20T16:00:00,26,25.5,38,8.9,108,876,49.2,765,d,0,898,34,1022,0,739,16,Scattered clouds,802,c02d,170,6.8,2.6
2023-07-20T17:00:00,27,26.4,84,8,101,840,40.9,645,d,0,898,30,1021,0,324,16,Overcast clouds,804,c04d,180,5.6,3.1
2023-07-20T18:00:00,26,25.5,100,7.6,91,783,31.7,497,d,0,898,31,1021,0,141,16,Overcast clouds,804,c04d,140,4.8,2.1
2023-07-20T19:00:00,25,24.5,89,9.7,77,695,22.3,335,d,0,898,38,1021,0,132,16,Overcast clouds,804,c04d,100,3.1,3.1
2023-07-20T20:00:00,25,24.5,94,9.7,59,550,13.1,176,d,0,898,38,1021,0,107,16,Overcast clouds,804,c04d,60,4.6,4.6
2023-07-20T21:00:00,23,22.6,93,10.8,31,267,4.4,42,d,0,898,46,1021,0,42,16,Overcast clouds,804,c04n,90,4.1,4.1
2023-07-20T22:00:00,21,20.5,45,10.8,0,0,-3.5,0,n,0,898,52,1021,0,0,16,Broken clouds,803,c03n,80,3.1,3.1
2023-07-20T23:00:00,20,19.5,15,11,0,0,-10.1,0,n,0,898,56,1021,0,0,16,Few clouds,801,c02n,90,1.6,1.2
2023-07-21T00:00:00,19,18.5,0,10.8,0,0,-15.1,0,n,0,898,59,1021,0,0,16,Clear Sky,800,c01n,105,1.2,0.8
2023-07-21T01:00:00,18,18,1,9.9,0,0,-17.9,0,n,0,898,59,1021,0,0,16,Clear Sky,800,c01n,120,2.4,1
2023-07-21T02:00:00,17,17,3,9.9,0,0,-18.4,0,n,0,898,63,1021,0,0,16,Few clouds,801,c02n,130,2.6,2.6
2023-07-21T03:00:00,17,17,5,9.9,0,0,-16.5,0,n,0,898,63,1021,0,0,16,Few clouds,801,c02n,170,2.4,1.5
2023-07-21T04:00:00,16,16,56,9.9,0,0,-12.4,0,n,0,898,67,1020,0,0,16,Broken clouds,803,c03n,180,2.4,1.5
2023-07-21T05:00:00,15,15,1,10.8,0,0,-6.5,0,n,0,898,76,1020,0,0,16,Clear Sky,800,c01n,200,2.4,2.1
2023-07-21T06:00:00,13,13,18,8.9,11,54,0.9,5,d,0,898,76,1020,0,16,16,Few clouds,801,c02n,40,2,1
2023-07-21T07:00:00,14,14,9,9.8,48,456,9.3,114,d,0,898,76,1020,0,114,16,Few clouds,801,c02d,350,2.4,1.5
2023-07-21T08:00:00,16,16,5,11,70,643,18.4,266,d,0,898,72,1020,0,258,14,Few clouds,801,c02d,310,1,0.4
2023-07-21T09:00:00,19,18.6,9,11.8,86,750,27.7,429,d,0,898,63,1020,0,415,14,Few clouds,801,c02d,275,2.8,0.8
2023-07-21T10:00:00,22,21.5,12,10.8,97,818,37,584,d,0,898,49,1019,0,566,14,Few clouds,801,c02d,240,3.6,1
2023-07-21T11:00:00,24,23.6,55,11,105,863,45.8,717,d,0,898,44,1019,0,610,14,Broken clouds,803,c03d,200,4.4,2.1
2023-07-21T12:00:00,25,24.5,25,8.9,111,890,53.2,817,d,0,898,36,1018,0,810,16,Scattered clouds,802,c02d,100,5.2,2.6
2023-07-21T13:00:00,27,26.6,25,9.8,114,904,58,874,d,0,898,34,1018,0,867,16,Scattered clouds,802,c02d,190,6,3.1
2023-07-21T14:00:00,28,27.3,25,10.7,114,907,59,884,d,0,898,34,1017,0,850,16,Scattered clouds,802,c02d,160,6,2.1
2023-07-21T15:00:00,28,27.3,23,10.7,112,897,55.6,846,d,0,898,34,1017,0,815,16,Scattered clouds,802,c02d,100,5.6,1
2023-07-21T16:00:00,28,27.1,88,8.8,108,876,49.1,763,d,0.25,898,30,1016,0,318,16,Overcast clouds,804,c04d,40,3,2.1
2023-07-21T17:00:00,27,26.5,97,8.9,101,839,40.8,643,d,0.25,898,32,1017,0,121,16,Overcast clouds,804,c04d,150,10,5.1
2023-07-21T18:00:00,22,21.5,97,10.8,91,782,31.6,495,d,2.5,898,49,1019,0,145,10,Light rain,500,r01d,310,10,6.7
2023-07-21T19:00:00,22,21.6,92,12,77,693,22.2,333,d,2.5,898,53,1018,0,87,11,Light rain,500,r01d,360,4.1,4.1
2023-07-21T20:00:00,21,20.7,84,12.9,58,547,12.9,174,d,0.25,898,60,1018,0,81,16,Overcast clouds,804,c04d,20,2.8,2.6
2023-07-21T21:00:00,21,20.6,85,11.9,30,260,4.2,40,d,0,898,56,1017,0,48,16,Overcast clouds,804,c04n,330,3.2,2.6
2023-07-21T22:00:00,21,20.4,82,9.9,0,0,-3.7,0,n,0,898,49,1017,0,0,16,Overcast clouds,804,c04n,220,2.8,2.1
2023-07-21T23:00:00,20,19.5,25,11,0,0,-10.3,0,n,0,898,56,1016,0,0,16,Scattered clouds,802,c02n,250,2.4,2.1
2023-07-22T00:00:00,18,18,25,11.8,0,0,-15.2,0,n,0,898,67,1016,0,0,16,Scattered clouds,802,c02n,305,3.2,1
2023-07-22T01:00:00,17,17,86,11.9,0,0,-18.1,0,n,0,898,72,1016,0,0,16,Overcast clouds,804,c04n,360,2.4,2.1
2023-07-22T02:00:00,17,17,90,10.8,0,0,-18.6,0,n,0,898,67,1016,0,0,16,Overcast clouds,804,c04n,210,2,1.5
2023-07-22T03:00:00,16,16,25,9.9,0,0,-16.7,0,n,0,898,67,1017,0,0,16,Scattered clouds,802,c02n,350,3.6,3.6
2023-07-22T04:00:00,15,15,25,10,0,0,-12.6,0,n,0,898,72,1017,0,0,16,Scattered clouds,802,c02n,340,2.1,2.1
2023-07-22T05:00:00,15,15,50,10,0,0,-6.7,0,n,0,898,72,1016,0,0,16,Broken clouds,803,c03n,30,2.1,2.1
2023-07-22T06:00:00,16,16,1,9.9,10,43,0.7,4,d,0,898,67,1016,0,14,16,Clear Sky,800,c01n,260,2.8,1.5
2023-07-22T07:00:00,15,15,1,10.8,48,452,9.1,112,d,0,895,76,1017,0,108,16,Clear Sky,800,c01d,10,3.2,1.5
2023-07-22T08:00:00,17,17,1,10.8,70,640,18.2,264,d,0,895,67,1017,0,256,16,Clear Sky,800,c01d,100,3.6,1
2023-07-22T09:00:00,19,18.6,0,11.8,86,749,27.6,426,d,0,895,63,1016,0,412,16,Clear Sky,800,c01d,190,4,1
2023-07-22T10:00:00,22,21.5,0,10.8,97,818,36.9,582,d,0,896,49,1015,0,564,16,Clear Sky,800,c01d,210,4.4,2.1
2023-07-22T11:00:00,24,23.5,0,9.9,105,862,45.6,715,d,0,896,41,1014,0,715,16,Clear Sky,800,c01d,230,4.8,1.5
2023-07-22T12:00:00,25,24.5,1,8.9,111,890,53,815,d,0,896,36,1014,0,815,16,Clear Sky,800,c01d,220,5.2,2.1
2023-07-22T13:00:00,26,25.7,0,11,114,904,57.8,872,d,0,896,39,1013,0,845,16,Clear Sky,800,c01d,195,6.4,2.1
2023-07-22T14:00:00,28,27.1,5,8.8,114,906,58.8,882,d,0,896,30,1012,0,882,16,Few clouds,801,c02d,170,5.6,3.1
2023-07-22T15:00:00,29,27.7,8,7.6,112,897,55.4,844,d,0,897,26,1012,0,844,16,Few clouds,801,c02d,90,4.8,2.6
2023-07-22T16:00:00,30,28.4,24,7.8,108,875,48.9,761,d,0,896,25,1011,0,756,16,Scattered clouds,802,c02d,10,4.4,2.6
2023-07-22T17:00:00,30,28.3,43,6.6,101,838,40.6,640,d,0,896,23,1011,0,607,16,Broken clouds,803,c03d,55,4.4,1.2
2023-07-22T18:00:00,30,28.4,36,7.8,91,781,31.5,492,d,0,896,25,1010,0,478,16,Scattered clouds,802,c02d,100,4.8,3.1
2023-07-22T19:00:00,29,27.7,44,7.6,77,691,22,330,d,1,896,26,1010,0,312,16,Light rain,500,r01d,100,4.6,4.6
2023-07-22T20:00:00,28,27.2,48,9.8,58,544,12.8,171,d,0,895,32,1010,0,158,16,Broken clouds,803,c03d,100,4.1,4.1
2023-07-22T21:00:00,25,24.6,10,10.8,29,251,4.1,38,d,0,895,41,1010,0,37,16,Few clouds,801,c02n,100,3.1,3.1
2023-07-22T22:00:00,23,22.5,1,9.8,0,0,-3.8,0,n,0,894,43,1011,0,0,16,Clear Sky,800,c01n,60,4,1
2023-07-22T23:00:00,21,20.8,0,13.9,0,0,-10.5,0,n,0,894,64,1011,0,0,16,Clear Sky,800,c01n,340,4.1,4.1
2023-07-23T00:00:00,20,19.9,1,14.8,0,0,-15.4,0,n,0,893,72,1012,0,0,16,Clear Sky,800,c01n,340,3.6,3.6
2023-07-23T01:00:00,19,19,1,14.9,0,0,-18.3,0,n,0,893,77,1012,0,0,16,Clear Sky,800,c01n,330,3.6,3.6
2023-07-23T02:00:00,18,18,1,14.9,0,0,-18.8,0,n,0,893,82,1012,0,0,16,Clear Sky,800,c01n,340,3.6,3.6
2023-07-23T03:00:00,17,17,1,15,0,0,-16.9,0,n,0,892,88,1012,0,0,16,Clear Sky,800,c01n,350,3.2,2.6
2023-07-23T04:00:00,17,17,1,13.9,0,0,-12.8,0,n,0,892,82,1012,0,0,16,Clear Sky,800,c01n,360,4.1,4.1
2023-07-23T05:00:00,16,16,0,13.8,0,0,-6.8,0,n,0,892,87,1012,0,0,16,Clear Sky,800,c01n,350,4,2.6
2023-07-23T06:00:00,16,16,0,12.9,9,32,0.6,3,d,0,892,82,1013,0,12,13,Clear Sky,800,c01n,40,5.6,1
2023-07-23T07:00:00,17,17,2,13.9,47,447,9,109,d,0,893,82,1014,0,105,8,Few clouds,801,c02d,195,7.2,4.4
2023-07-23T08:00:00,18,18,1,13.9,70,638,18,261,d,0,894,77,1015,0,251,8,Clear Sky,800,c01d,350,9.8,9.8
2023-07-23T09:00:00,18,18,42,13.9,85,748,27.4,424,d,0,895,77,1016,0,388,6,Broken clouds,803,c03d,350,9.3,9.3
2023-07-23T10:00:00,18,18,42,13.9,97,817,36.7,579,d,0,896,77,1016,0,530,5,Broken clouds,803,c03d,350,8.2,8.2
2023-07-23T11:00:00,20,19.9,99,14.8,105,862,45.5,713,d,0,896,72,1016,0,168,6,Overcast clouds,804,c04d,320,8,5.7
2023-07-23T12:00:00,23,22.9,0,14.8,111,889,52.8,812,d,0,896,60,1015,0,779,6,Clear Sky,800,c01d,350,6.4,3.6
2023-07-23T13:00:00,24,23.8,0,13.8,114,904,57.6,870,d,0,897,53,1015,0,837,6,Clear Sky,800,c01d,60,5.6,4.1
2023-07-23T14:00:00,26,25.9,0,13.8,114,906,58.5,880,d,0,897,47,1014,0,847,6,Clear Sky,800,c01d,40,8.4,4.1
2023-07-23T15:00:00,27,27.1,2,13.7,112,897,55.2,842,d,0,897,44,1013,0,811,6,Few clouds,801,c02d,90,8.4,5.1
2023-07-23T16:00:00,28,27.5,4,12,108,875,48.7,759,d,0,897,37,1013,0,734,6,Few clouds,801,c02d,120,8.8,4.6
2023-07-23T17:00:00,29,27.8,21,8.7,101,838,40.4,638,d,0,897,28,1012,0,635,6,Scattered clouds,802,c02d,140,8.4,5.7
2023-07-23T18:00:00,29,28.2,24,12,91,780,31.3,490,d,0,896,35,1011,0,470,6,Scattered clouds,802,c02d,120,7.6,4.6
2023-07-23T19:00:00,29,28,4,10.6,77,690,21.9,328,d,0,896,32,1011,0,318,6,Few clouds,801,c02d,110,8,5.1
2023-07-23T20:00:00,28,27.3,0,10.7,58,540,12.6,168,d,0,896,34,1010,0,163,10,Clear Sky,800,c01d,110,6.4,5.1
2023-07-23T21:00:00,25,24.7,0,11.9,28,243,3.9,36,d,0,895,44,1011,0,35,13,Clear Sky,800,c01n,90,4.1,4.1
2023-07-23T22:00:00,24,23.6,0,11,0,0,-4,0,n,0,894,44,1012,0,0,13,Clear Sky,800,c01n,110,4,2.6
2023-07-23T23:00:00,24,23.6,0,11,0,0,-10.7,0,n,0,894,44,1011,0,0,13,Clear Sky,800,c01n,130,4.6,4.6
2023-07-24T00:00:00,23,22.5,0,9.8,0,0,-15.6,0,n,0,894,43,1011,0,0,13,Clear Sky,800,c01n,190,3.6,3.1
2023-07-24T01:00:00,20,19.4,0,9.9,0,0,-18.5,0,n,0,894,52,1011,0,0,13,Clear Sky,800,c01n,235,3.2,1
2023-07-24T02:00:00,18,18,0,10.9,0,0,-19,0,n,0,893,63,1011,0,0,13,Clear Sky,800,c01n,285,2.8,0.8
2023-07-24T03:00:00,16,16,0,11,0,0,-17.1,0,n,0,891,72,1011,0,0,13,Clear Sky,800,c01n,330,2.6,2.6
2023-07-24T04:00:00,16,16,0,11,0,0,-13,0,n,0,890,72,1011,0,0,13,Clear Sky,800,c01n,320,2.4,1.5
2023-07-24T05:00:00,16,16,0,12,0,0,-7,0,n,0,890,77,1011,0,0,13,Clear Sky,800,c01n,340,9,5.1
2023-07-24T06:00:00,16,16,1,14.9,8,22,0.4,2,d,0,891,93,1012,0,10,4,Clear Sky,800,c01n,340,9,7.2
2023-07-24T07:00:00,16,16,1,13.8,47,442,8.8,106,d,0,892,87,1012,0,102,6,Clear Sky,800,c01d,340,9,6.7
2023-07-24T08:00:00,17,17,42,13.9,69,636,17.9,258,d,0,892,82,1013,0,236,6,Broken clouds,803,c03d,360,6.7,6.7
2023-07-24T09:00:00,17,17,83,15,85,746,27.3,421,d,0,893,88,1014,0,203,6,Overcast clouds,804,c04d,350,4,3.1
2023-07-24T10:00:00,19,19,9,14.9,97,816,36.6,577,d,0,893,77,1013,0,553,6,Few clouds,801,c02d,340,5.2,3.1
2023-07-24T11:00:00,21,20.9,2,14.9,105,861,45.3,710,d,0,894,68,1013,0,681,6,Few clouds,801,c02d,260,7.2,1
2023-07-24T12:00:00,21,20.9,5,14.9,111,889,52.6,810,d,0,894,68,1014,0,777,10,Few clouds,801,c02d,0,8.4,1
2023-07-24T13:00:00,26,25.8,2,12.8,113,903,57.4,867,d,0,894,44,1010,0,837,6,Few clouds,801,c02d,100,6.4,3.1
2023-07-24T14:00:00,30,29,5,12,114,906,58.3,878,d,0,894,33,1009,0,849,8,Few clouds,801,c02d,160,12,6.7
2023-07-24T15:00:00,33,31,15,7.8,112,896,55,839,d,0,894,21,1008,0,838,8,Few clouds,801,c02d,160,13,6.7
2023-07-24T16:00:00,34,31.7,63,5.5,108,874,48.5,756,d,0,895,17,1006,0,615,8,Broken clouds,803,c03d,140,12,9.3
2023-07-24T17:00:00,34,31.6,87,2.8,101,837,40.3,636,d,0,894,14,1005,0,279,10,Overcast clouds,804,c04d,220,12,7.7
2023-07-24T18:00:00,34,31.6,39,2.8,90,779,31.1,487,d,0,893,14,1005,0,469,13,Scattered clouds,802,c02d,200,10,6.7
2023-07-24T19:00:00,33,30.6,17,0.9,76,688,21.7,325,d,0,893,13,1004,0,324,13,Few clouds,801,c02d,200,11,7.2
2023-07-24T20:00:00,32,29.8,10,0.2,57,537,12.5,166,d,0,892,13,1004,0,166,16,Few clouds,801,c02d,210,8.2,8.2
2023-07-24T21:00:00,29,27.5,86,3.8,28,233,3.7,34,d,0,892,20,1005,0,44,16,Overcast clouds,804,c04n,190,5.2,5.1
2023-07-24T22:00:00,27,26.2,84,4.7,0,0,-4.2,0,n,0,890,24,1005,0,0,16,Overcast clouds,804,c04n,270,7.6,3.1
2023-07-24T23:00:00,25,24.3,84,4.7,0,0,-10.9,0,n,0,890,27,1005,0,0,16,Overcast clouds,804,c04n,250,7.2,1.5
2023-07-25T00:00:00,24,23.2,98,3.9,0,0,-15.8,0,n,0,890,27,1005,0,0,16,Overcast clouds,804,c04n,260,5.2,3.6
2023-07-25T01:00:00,24,23.2,100,3.9,0,0,-18.7,0,n,0,889,27,1005,0,0,16,Overcast clouds,804,c04n,240,6.4,3.6
2023-07-25T02:00:00,23,22.1,25,3.5,0,0,-19.3,0,n,0,886,28,1006,0,0,16,Scattered clouds,802,c02n,300,4.1,4.1
2023-07-25T03:00:00,17,17,0,10.8,0,0,-17.4,0,n,0,890,67,1007,0,0,16,Clear Sky,800,c01n,360,4.4,4.1
2023-07-25T04:00:00,16,16,0,12,0,0,-13.2,0,n,0,889,77,1007,0,0,14,Clear Sky,800,c01n,10,4.1,4.1
2023-07-25T05:00:00,15,15,0,12,0,0,-7.2,0,n,0,888,82,1008,0,0,16,Clear Sky,800,c01n,360,3.6,3.6
2023-07-25T06:00:00,15,15,1,10.8,6,13,0.2,1,d,0,888,76,1008,0,7,16,Clear Sky,800,c01n,310,3.6,2.1
2023-07-25T07:00:00,17,17,1,10.8,46,437,8.6,104,d,0,888,67,1008,0,101,16,Clear Sky,800,c01d,280,4,2.6
2023-07-25T08:00:00,18,18,0,10.9,69,633,17.7,255,d,0,889,63,1009,0,247,13,Clear Sky,800,c01d,270,4.8,1.5
2023-07-25T09:00:00,19,18.5,1,10.8,85,745,27.1,418,d,0,890,59,1009,0,405,13,Clear Sky,800,c01d,220,7,3.6
2023-07-25T10:00:00,21,20.5,5,10.8,97,815,36.4,574,d,0,891,52,1009,0,556,13,Few clouds,801,c02d,40,7,4.6
2023-07-25T11:00:00,22,21.5,0,9.9,105,860,45.1,708,d,0,891,46,1009,0,708,13,Clear Sky,800,c01d,125,8.4,1
2023-07-25T12:00:00,24,23.3,100,6.7,110,888,52.4,808,d,0,892,33,1009,0,191,11,Overcast clouds,804,c04d,215,10,1
2023-07-25T13:00:00,23,22.1,59,3.5,113,903,57.2,865,d,0,892,28,1009,0,736,13,Broken clouds,803,c03d,300,8.4,3.6
2023-07-25T14:00:00,23,22,82,0.8,114,905,58.1,875,d,0,892,23,1009,0,474,14,Overcast clouds,804,c04d,330,12,4.6
2023-07-25T15:00:00,25,24.1,83,0.5,112,896,54.8,837,d,0,892,20,1010,0,437,14,Overcast clouds,804,c04d,310,13,8.8
2023-07-25T16:00:00,24,23,86,-0.3,108,874,48.4,754,d,0,893,20,1010,0,348,14,Overcast clouds,804,c04d,290,14,10.3
2023-07-25T17:00:00,23,21.9,84,-1.1,100,836,40.1,633,d,0,893,20,1011,0,318,13,Overcast clouds,804,c04d,290,15,12.9
2023-07-25T18:00:00,23,21.9,82,-1.1,90,778,31,485,d,0,892,20,1011,0,263,16,Overcast clouds,804,c04d,290,14,11.8
2023-07-25T19:00:00,23,21.9,76,-1.1,76,686,21.6,322,d,0,893,20,1011,0,208,16,Overcast clouds,804,c04d,290,13,7.7
2023-07-25T20:00:00,21,19.7,80,-2.1,57,533,12.3,163,d,0,893,21,1012,0,94,16,Overcast clouds,804,c04d,290,12,8.8
2023-07-25T21:00:00,19,17.7,92,0.6,27,224,3.5,32,d,0,893,29,1012,0,37,16,Overcast clouds,804,c04n,270,8,5.1
2023-07-25T22:00:00,18,18,68,-1.3,0,0,-4.4,0,n,0,892,27,1013,0,0,16,Broken clouds,803,c03n,270,8,5.7
2023-07-25T23:00:00,16,16,39,1,0,0,-11.1,0,n,0,893,36,1013,0,0,16,Scattered clouds,802,c02n,360,8,4.6
2023-07-26T00:00:00,13,13,88,7.9,0,0,-16,0,n,0,892,71,1013,0,0,16,Overcast clouds,804,c04n,30,6,3.1
2023-07-26T01:00:00,12,12,87,7.9,0,0,-19,0,n,0,891,76,1014,0,0,16,Overcast clouds,804,c04n,330,5.6,1.5
2023-07-26T02:00:00,12,12,83,7.9,0,0,-19.5,0,n,0,891,76,1014,0,0,16,Overcast clouds,804,c04n,220,5.6,3.2
2023-07-26T03:00:00,11,11,4,7.9,0,0,-17.6,0,n,0,891,81,1013,0,0,16,Few clouds,801,c02n,110,5.6,1.5
2023-07-26T04:00:00,13,13,0,3.9,0,0,-13.4,0,n,0,890,54,1013,0,0,16,Clear Sky,800,c01n,230,5.6,3.1
2023-07-26T05:00:00,12,12,0,0.8,0,0,-7.4,0,n,0,890,46,1013,0,0,16,Clear Sky,800,c01n,230,8,2.1
2023-07-26T06:00:00,13,13,0,-1.3,4,6,0,1,d,0,890,37,1013,0,5,16,Clear Sky,800,c01n,270,8,5.7
2023-07-26T07:00:00,15,15,0,-1.1,46,431,8.5,101,d,0,890,33,1013,0,101,16,Clear Sky,800,c01d,280,9,6.7
2023-07-26T08:00:00,16,16,0,-0.2,69,631,17.5,252,d,0,891,33,1013,0,252,16,Clear Sky,800,c01d,280,8,5.7
2023-07-26T09:00:00,17,17,1,0.6,85,743,26.9,416,d,0,892,33,1013,0,416,16,Clear Sky,800,c01d,280,8,5.1
2023-07-26T10:00:00,18,18,1,-1.3,96,814,36.2,572,d,0,892,27,1013,0,572,16,Clear Sky,800,c01d,280,13,9.3
2023-07-26T11:00:00,19,17.6,40,-1.4,105,860,44.9,705,d,0,892,25,1013,0,677,16,Scattered clouds,802,c02d,270,10,6.7
2023-07-26T12:00:00,20,18.7,0,-1.2,110,888,52.2,805,d,0,892,24,1013,0,805,16,Clear Sky,800,c01d,290,10,7.2
2023-07-26T13:00:00,21,19.8,4,-0.3,113,902,57,863,d,0,893,24,1013,0,863,16,Few clouds,801,c02d,260,10,6.2
2023-07-26T14:00:00,22,20.9,4,0.5,114,905,57.9,873,d,0,897,24,1013,0,873,16,Few clouds,801,c02d,280,10,7.2
2023-07-26T15:00:00,23,22,6,0.8,112,895,54.6,835,d,0,894,23,1013,0,835,16,Few clouds,801,c02d,270,10,5.1
2023-07-26T16:00:00,24,23,44,0.4,107,873,48.2,752,d,0,894,21,1013,0,710,16,Broken clouds,803,c03d,280,10,6.7
2023-07-26T17:00:00,23,22,100,0.8,100,836,39.9,630,d,0,894,23,1013,0,163,16,Overcast clouds,804,c04d,270,10,7.2
2023-07-26T18:00:00,23,22,100,0.8,90,777,30.8,482,d,0,894,23,1013,0,138,16,Overcast clouds,804,c04d,280,10,7.2
2023-07-26T19:00:00,20,19.2,5,7.7,76,684,21.4,319,d,0,894,45,1014,0,319,16,Few clouds,801,c02d,360,14,9.3
2023-07-26T20:00:00,17,17,56,6.8,56,529,12.1,160,d,0,894,51,1016,0,140,16,Broken clouds,803,c03d,360,8.4,7.7
2023-07-26T21:00:00,15,15,5,7.8,26,213,3.3,29,d,0,894,62,1016,0,29,16,Few clouds,801,c02n,360,10,6.7
2023-07-26T22:00:00,15,15,5,7.8,0,0,-4.6,0,n,0,894,62,1017,0,0,16,Few clouds,801,c02n,10,7.6,4.1
2023-07-26T23:00:00,14,14,3,6.8,0,0,-11.3,0,n,0,894,62,1016,0,0,16,Few clouds,801,c02n,350,4.4,3.1
2023-07-27T00:00:00,13,13,0,6.8,0,0,-16.3,0,n,0,893,66,1017,0,0,16,Clear Sky,800,c01n,330,2.8,1.5
2023-07-27T01:00:00,12,12,15,6.9,0,0,-19.2,0,n,0,893,71,1017,0,0,16,Few clouds,801,c02n,350,2.6,2.6
2023-07-27T02:00:00,13,13,36,6.8,0,0,-19.7,0,n,0,893,66,1017,0,0,16,Scattered clouds,802,c02n,290,2.4,2.1
2023-07-27T03:00:00,12,12,66,6.9,0,0,-17.8,0,n,0,894,71,1017,0,0,16,Broken clouds,803,c03n,290,2.8,1.5
2023-07-27T04:00:00,12,12,91,6.9,0,0,-13.6,0,n,0,893,71,1017,0,0,16,Overcast clouds,804,c04n,250,3.2,1.5
2023-07-27T05:00:00,11,11,83,6.9,0,0,-7.6,0,n,0,893,76,1017,0,0,16,Overcast clouds,804,c04n,230,3.2,2.1
2023-07-27T06:00:00,11,11,100,6.9,3,1,-0.2,0,n,0,893,76,1017,0,0,16,Overcast clouds,804,c04n,230,2.1,2.1
2023-07-27T07:00:00,11,11,100,6.9,45,426,8.3,98,d,0,894,76,1018,0,55,16,Overcast clouds,804,c04d,250,2,1.5
2023-07-27T08:00:00,13,13,100,7.9,68,628,17.4,250,d,0,894,71,1019,0,93,16,Overcast clouds,804,c04d,290,2.4,1
2023-07-27T09:00:00,14,14,46,8,84,742,26.8,413,d,0,895,67,1020,0,386,16,Broken clouds,803,c03d,310,4,3.1
2023-07-27T10:00:00,15,15,42,6.8,96,813,36,569,d,0,896,58,1020,0,542,16,Broken clouds,803,c03d,10,4.8,3.6
2023-07-27T11:00:00,16,16,27,9,105,859,44.7,703,d,0,896,63,1020,0,696,16,Scattered clouds,802,c02d,350,4.8,3.6
2023-07-27T12:00:00,16,16,42,8,110,887,52,803,d,0,897,59,1020,0,765,16,Broken clouds,803,c03d,350,4.8,3.1
2023-07-27T13:00:00,18.8,17.8,44,5.4,113,902,56.8,861,d,0,897,42,1020,0,813,16,Broken clouds,803,c03d,15,3.2,2.79
2023-07-27T14:00:00,18.8,17.9,34,6.5,114,904,57.7,871,d,0,897,45,1020,0,851,16,Scattered clouds,802,c02d,22,5,4.11
2023-07-27T15:00:00,19.6,18.7,29,6,112,895,54.4,832,d,0,897,41,1020,0,821,16,Scattered clouds,802,c02d,25,3.4,2.77
2023-07-27T16:00:00,19.5,18.7,36,6.9,107,873,48,749,d,0,898,44,1021,0,728,16,Scattered clouds,802,c02d,29,4.7,3.78
2023-07-27T17:00:00,17.9,17.9,100,6.9,100,835,39.7,628,d,0,898,49,1021,0,163,16,Overcast clouds,804,c04d,35,4.7,3.43
2023-07-27T18:00:00,18.2,18.2,89,7.8,90,775,30.6,479,d,0,898,51,1022,0,189,16,Overcast clouds,804,c04d,37,5.6,4.21
2023-07-27T19:00:00,15.9,15.9,100,8.1,76,682,21.2,316,d,0,897,60,1023,0,108,16,Overcast clouds,804,c04d,38,5.1,3.57
2023-07-27T20:00:00,14.1,14.1,100,10.3,56,525,11.9,157,d,0.5,897,78,1023,0,66,13,Overcast clouds,804,c04d,26,6,2.87
2023-07-27T21:00:00,14.4,14.4,89,8.3,25,202,3.2,27,d,0.5,898,67,1024,0,36,11,Overcast clouds,804,c04n,29,6.1,3.69
2023-07-27T22:00:00,13.4,13.4,88,8.7,0,0,-4.8,0,n,0.5,898,73,1025,0,0,13,Overcast clouds,804,c04n,37,6.1,2.92
2023-07-27T23:00:00,13,13,100,8.9,0,0,-11.5,0,n,0.5,899,77,1025,0,0,11,Overcast clouds,804,c04n,33,5.6,2.82
2023-07-28T00:00:00,12.5,12.5,100,9.3,0,0,-16.5,0,n,0,899,81,1025,0,0,10,Overcast clouds,804,c04n,49,5.2,2.23
2023-07-28T01:00:00,11.9,11.9,100,9.4,0,0,-19.4,0,n,0,899,85,1026,0,0,8,Overcast clouds,804,c04n,45,5.7,2.71
2023-07-28T02:00:00,11.6,11.6,100,9.8,0,0,-19.9,0,n,0,899,89,1025,0,0,8,Overcast clouds,804,c04n,65,4.1,1.95
2023-07-28T03:00:00,10.6,10.6,100,8.3,0,0,-18,0,n,0,899,86,1025,0,0,6,Overcast clouds,804,c04n,29,3.5,2.21
2023-07-28T04:00:00,10.2,10.2,100,8,0,0,-13.8,0,n,0,899,87,1025,0,0,6,Overcast clouds,804,c04n,38,3.5,2.13
2023-07-28T05:00:00,9.9,9.9,100,8.3,0,0,-7.8,0,n,0,899,90,1026,0,0,10,Overcast clouds,804,c04n,54,3.7,1.72
2023-07-28T06:00:00,10.3,10.3,100,8.4,1,0,-0.3,0,n,0,899,88,1026,0,0,8,Overcast clouds,804,c04n,77,2.2,1.52
2023-07-28T07:00:00,10.4,10.4,100,8.5,45,420,8.1,96,d,0,899,88,1027,0,55,10,Overcast clouds,804,c04d,88,2.3,1.54
2023-07-28T08:00:00,10.5,10.5,100,8.5,68,626,17.2,247,d,0,899,87,1027,0,93,10,Overcast clouds,804,c04d,94,2.3,1.56
2023-07-28T09:00:00,10.5,10.5,100,8,84,741,26.6,410,d,0,900,84,1027,0,125,10,Overcast clouds,804,c04d,90,2.6,1.54
2023-07-28T10:00:00,11,11,100,7.9,96,812,35.9,566,d,0,900,81,1028,0,153,4,Overcast clouds,804,c04d,131,2.6,1.65
2023-07-28T11:00:00,12.5,12.5,98,8.4,104,858,44.5,700,d,0,900,76,1028,0,112,8,Overcast clouds,804,c04d,112,2.2,1.7
2023-07-28T12:00:00,13.8,13.8,100,8,110,887,51.8,801,d,0,900,68,1028,0,190,14,Overcast clouds,804,c04d,96,2.2,1.94
2023-07-28T13:00:00,13.9,13.9,100,8.2,113,901,56.5,858,d,0,901,69,1028,0,199,6,Overcast clouds,804,c04d,122,2.8,2.15
2023-07-28T14:00:00,14,14,60,8.6,114,904,57.4,868,d,0,901,70,1028,0,730,8,Broken clouds,803,c03d,107,3.8,2.95
2023-07-28T15:00:00,13.3,13.3,89,9.3,112,894,54.2,830,d,0,901,76,1027,0,327,6,Overcast clouds,804,c04d,77,3.3,2.13
2023-07-28T16:00:00,13.9,13.9,100,9.8,107,872,47.8,746,d,0,901,77,1027,0,182,16,Overcast clouds,804,c04d,121,3.4,2.33
2023-07-28T17:00:00,13.6,13.6,99,9.7,100,834,39.5,625,d,0,901,77,1027,0,181,16,Overcast clouds,804,c04d,102,3.9,1.79
2023-07-28T18:00:00,14.9,14.9,100,10.4,90,774,30.4,476,d,0,901,74,1027,0,122,16,Overcast clouds,804,c04d,110,4,1.98
2023-07-28T19:00:00,15.2,15.2,100,8.9,75,680,21,313,d,0,901,66,1027,0,106,16,Overcast clouds,804,c04d,148,1.9,0.88
2023-07-28T20:00:00,15.1,15.1,100,8.9,55,521,11.8,154,d,0,901,66,1027,0,70,14,Overcast clouds,804,c04d,55,1.8,0.57
2023-07-28T21:00:00,13.5,13.5,64,11.1,24,191,3,25,d,0,901,86,1027,0,43,14,Broken clouds,803,c03n,56,3.9,1.83
2023-07-28T22:00:00,13,13,100,11,0,0,-5,0,n,0,901,88,1027,0,0,11,Overcast clouds,804,c04n,234,3.6,0.71
2023-07-28T23:00:00,12.9,12.9,100,10.7,0,0,-11.7,0,n,0,901,87,1027,0,0,11,Overcast clouds,804,c04n,9,3.2,0.63
2023-07-29T00:00:00,12.4,12.4,100,10.8,0,0,-16.7,0,n,0,902,90,1027,0,0,13,Overcast clouds,804,c04n,120,3.6,0.6
2023-07-29T01:00:00,11.6,11.6,83,10.6,0,0,-19.6,0,n,0,901,93,1027,0,0,11,Overcast clouds,804,c04n,94,3.9,0.37
2023-07-29T02:00:00,10.4,10.4,100,9.8,0,0,-20.2,0,n,0,901,95,1027,0,0,13,Overcast clouds,804,c04n,155,2.4,0.47
2023-07-29T03:00:00,12,12,52,10.7,0,0,-18.2,0,n,0,900,92,1026,0,0,13,Broken clouds,803,c03n,101,3,1.28
2023-07-29T04:00:00,10.8,10.8,76,10.5,0,0,-14.1,0,n,0,900,98,1025,0,0,13,Fog,741,a05n,106,4,1.31
2023-07-29T05:00:00,10.4,10.4,87,10.3,0,0,-8,0,n,0,899,99,1025,0,0,13,Fog,741,a05n,84,3.5,0.72
2023-07-29T06:00:00,11.6,11.6,0,10.9,0,0,-0.6,0,n,0,898,96,1025,0,0,13,Clear Sky,800,c01n,113,3.3,1.92
2023-07-29T07:00:00,11.8,11.8,7,10.8,44,414,7.9,93,d,0,899,94,1025,0,90,13,Few clouds,801,c02d,109,4.9,1.45
2023-07-29T08:00:00,13.5,13.5,6,11.1,68,623,17,244,d,0,899,85,1025,0,236,16,Few clouds,801,c02d,138,6.1,2.59
2023-07-29T09:00:00,14.9,14.9,4,10.4,84,739,26.4,407,d,0,899,74,1024,0,395,16,Few clouds,801,c02d,147,6.3,2.54
2023-07-29T10:00:00,17,17,5,10,96,811,35.7,563,d,0,899,63,1024,0,563,16,Few clouds,801,c02d,148,5.4,3.06
2023-07-29T11:00:00,19.2,18.6,6,9.5,104,858,44.3,698,d,0,900,53,1023,0,698,16,Few clouds,801,c02d,146,4.3,3.1
2023-07-29T12:00:00,21,20.3,4,8.6,110,886,51.6,798,d,0,900,45,1023,0,798,16,Few clouds,801,c02d,147,4.9,3.83
2023-07-29T13:00:00,22.4,21.7,2,8.2,113,901,56.3,856,d,0,901,40,1022,0,856,16,Few clouds,801,c02d,145,5.1,3.94
2023-07-29T14:00:00,23.4,22.8,1,8.8,113,903,57.2,866,d,0,901,39,1021,0,866,16,Clear Sky,800,c01d,140,4.2,3.5
2023-07-29T15:00:00,24.2,23.7,0,9.3,112,894,53.9,827,d,0,901,39,1021,0,827,16,Clear Sky,800,c01d,132,4.7,3.82
2023-07-29T16:00:00,25.1,24.6,0,8.9,107,871,47.6,744,d,0,901,36,1020,0,744,16,Clear Sky,800,c01d,123,3.9,3.3
2023-07-29T17:00:00,25.3,24.8,0,8.7,100,833,39.4,622,d,0,901,35,1020,0,622,16,Clear Sky,800,c01d,130,4.4,3.69
2023-07-29T18:00:00,25.3,24.7,0,8.1,89,773,30.3,473,d,0,901,33,1020,0,473,16,Clear Sky,800,c01d,123,4.5,3.72
2023-07-29T19:00:00,24.7,24.1,0,8.3,75,678,20.9,310,d,0,901,35,1019,0,310,16,Clear Sky,800,c01d,138,4.4,3.53
2023-07-29T20:00:00,23.9,23.3,0,8.6,55,517,11.6,151,d,0,900,38,1019,0,151,16,Clear Sky,800,c01d,136,4.3,3.3
2023-07-29T21:00:00,22.3,21.8,0,10.8,23,179,2.8,23,d,0,899,48,1019,0,45,16,Clear Sky,800,c01n,130,4.3,2.36
2023-07-29T22:00:00,19.8,19.4,0,11.7,0,0,-5.2,0,n,0,899,60,1019,0,0,16,Clear Sky,800,c01n,119,3.8,1.89
2023-07-29T23:00:00,18.2,18.2,0,12.2,0,0,-11.9,0,n,0,899,68,1019,0,0,16,Clear Sky,800,c01n,150,3.5,1.37
2023-07-30T00:00:00,17.1,17.1,2,12.4,0,0,-17,0,n,0,898,74,1019,0,0,16,Few clouds,801,c02n,163,2.5,0.89
2023-07-30T01:00:00,16.4,16.4,1,12.4,0,0,-19.9,0,n,0,898,77,1019,0,0,16,Clear Sky,800,c01n,21,1.3,0.34
2023-07-30T02:00:00,15.5,15.5,100,12.3,0,0,-20.4,0,n,0,897,82,1019,0,0,16,Overcast clouds,804,c04n,110,2.1,1.81
2023-07-30T03:00:00,14.6,14.6,0,9.6,0,0,-18.5,0,n,0,896,72,1018,0,0,16,Clear Sky,800,c01n,149,1.4,1.33
2023-07-30T04:00:00,13.2,13.2,1,10,0,0,-14.3,0,n,0,896,81,1018,0,0,16,Clear Sky,800,c01n,155,2.7,1.26
2023-07-30T05:00:00,12.6,12.6,0,10.1,0,0,-8.2,0,n,0,895,85,1017,0,0,16,Clear Sky,800,c01n,193,2.2,0.69
2023-07-30T06:00:00,12,12,0,9.3,0,0,-0.7,0,n,0,895,83,1018,0,0,16,Clear Sky,800,c01n,291,1.5,1.14
2023-07-30T07:00:00,13,13,0,9.4,44,408,7.8,90,d,0,894,79,1017,0,90,16,Clear Sky,800,c01d,294,1.2,0.92
2023-07-30T08:00:00,15.9,15.9,0,9.3,67,621,16.9,241,d,0,894,65,1017,0,241,16,Clear Sky,800,c01d,240,2,0.37
2023-07-30T09:00:00,19.2,18.5,0,9,84,738,26.2,404,d,0,894,51,1016,0,404,13,Clear Sky,800,c01d,207,3.3,1.49
2023-07-30T10:00:00,23.2,22.5,5,7.2,96,810,35.5,561,d,0,895,36,1016,0,561,13,Few clouds,801,c02d,210,3.8,1.91
2023-07-30T11:00:00,24.7,24.2,0,9.2,104,857,44.2,695,d,0,896,37,1015,0,695,13,Clear Sky,800,c01d,203,3.9,2.28
2023-07-30T12:00:00,28,26.9,0,5.9,110,886,51.4,795,d,0,896,24,1015,0,795,13,Clear Sky,800,c01d,190,5,2.73
2023-07-30T13:00:00,29.3,27.7,0,5.4,113,901,56.1,853,d,0,897,22,1014,0,853,13,Clear Sky,800,c01d,176,7.6,3.56
2023-07-30T14:00:00,31,28.9,0,1.4,113,903,57,863,d,0,898,15,1014,0,863,13,Clear Sky,800,c01d,239,8.3,4.5
2023-07-30T15:00:00,31.6,29.4,3,1.2,111,893,53.7,825,d,0,898,14,1013,0,825,14,Few clouds,801,c02d,226,9,5.85
2023-07-30T16:00:00,30.8,28.8,84,0.7,107,871,47.3,741,d,0,897,15,1014,0,372,16,Overcast clouds,804,c04d,263,7.7,5.04
2023-07-30T17:00:00,26.9,26.5,14,9.8,100,832,39.2,619,d,0,897,34,1013,0,618,16,Few clouds,801,c02d,119,7.2,4.65
2023-07-30T18:00:00,31.6,29.5,3,1.4,89,771,30.1,470,d,0,897,15,1013,0,470,16,Few clouds,801,c02d,268,6.7,4.4
2023-07-30T19:00:00,30.2,28.3,100,1.9,75,676,20.7,307,d,0.25,896,16,1013,0,106,16,Overcast clouds,804,c04d,260,5.2,3.5
2023-07-30T20:00:00,26.6,26.1,94,6.9,54,512,11.4,148,d,0,896,29,1014,0,94,16,Overcast clouds,804,c04d,158,8.7,5.16
2023-07-30T21:00:00,24.1,23.5,99,7,22,166,2.6,21,d,0,895,34,1013,0,25,16,Overcast clouds,804,c04n,274,4.1,1.92
2023-07-30T22:00:00,21.2,21.2,92,15,0,0,-5.4,0,n,0.25,896,68,1015,0,0,16,Overcast clouds,804,c04n,44,8.7,4.27
2023-07-30T23:00:00,20.5,20.3,88,13.4,0,0,-12.1,0,n,0.5,896,64,1016,0,0,16,Overcast clouds,804,c04n,27,6,2.49
