Datetime,Temperature,Apparent Temperature,Cloud Cover,Dew Point,DHI,DNI,Solar Zenith Angle,GHI,Pod,Precipitation,Pressure,Relative Humidity,Sea Level Pressure,Snow Depth,Solar Radiation,Visibility,Weather Description,Weather Code,Weather Icon,Wind Direction,Wind Gust Speed,Wind Speed
2022-05-01T00:00:00,10,10,75,-4,0,0,-20.6,0,n,0,893,37,1020,0,0,16,Overcast clouds,804,c04n,170,5.1,5.1
2022-05-01T01:00:00,9,9,100,-3.2,0,0,-23.3,0,n,0,893,42,1019,0,0,16,Overcast clouds,804,c04n,170,5.1,5.1
2022-05-01T02:00:00,7,4.8,100,-2.2,0,0,-23.4,0,n,0,892,52,1020,0,0,16,Overcast clouds,804,c04n,200,3.1,3.1
2022-05-01T03:00:00,7,6.1,75,-2.2,0,0,-21,0,n,0,892,52,1020,0,0,16,Overcast clouds,804,c04n,215,2.4,1.6
2022-05-01T04:00:00,7,6.6,45,-2.2,0,0,-16.3,0,n,0,891,52,1019,0,0,16,Broken clouds,803,c03n,225,2.4,1.2
2022-05-01T05:00:00,6,5.8,75,-2.1,0,0,-9.8,0,n,0,891,56,1020,0,0,16,Overcast clouds,804,c04n,240,2.4,1
2022-05-01T06:00:00,5,4.7,75,-2.1,0,0,-2,0,n,0,891,60,1020,0,0,16,Overcast clouds,804,c04n,250,2.4,1
2022-05-01T07:00:00,5,4.7,75,-1,41,379,6.8,77,d,0,891,65,1020,0,51,16,Overcast clouds,804,c04d,340,2.4,1
2022-05-01T08:00:00,6,6.2,100,-0.1,67,616,16,230,d,0,891,65,1020,0,90,16,Overcast clouds,804,c04d,280,2.8,0.8
2022-05-01T09:00:00,8,8,100,1.8,84,741,25.5,396,d,0,891,65,1020,0,124,16,Overcast clouds,804,c04d,220,4.4,1.5
2022-05-01T10:00:00,9,9,100,1,96,816,34.6,554,d,0,892,57,1019,0,151,16,Overcast clouds,804,c04d,190,6.4,3.6
2022-05-01T11:00:00,10,10,75,-1.1,105,864,43,687,d,0,892,46,1019,0,455,16,Overcast clouds,804,c04d,190,9,6.2
2022-05-01T12:00:00,12,12,100,0.8,110,893,49.7,784,d,0,892,46,1018,0,188,16,Overcast clouds,804,c04d,230,9,5.1
2022-05-01T13:00:00,13,13,75,-2.1,113,906,53.7,836,d,0,893,35,1018,0,553,16,Overcast clouds,804,c04d,210,12.8,9.8
2022-05-01T14:00:00,14,14,75,-2,113,907,53.9,839,d,0,893,33,1017,0,555,16,Overcast clouds,804,c04d,190,11,10.3
2022-05-01T15:00:00,12,12,75,-2.2,111,895,50.3,792,d,0,892,37,1017,0,524,16,Overcast clouds,804,c04d,200,11,9.3
2022-05-01T16:00:00,14,14,75,-3.3,105,868,43.8,700,d,0,891,30,1016,0,463,16,Overcast clouds,804,c04d,180,12,9.3
2022-05-01T17:00:00,14,14,75,-2,97,823,35.6,570,d,0,891,33,1015,0,377,16,Overcast clouds,804,c04d,200,11,8.2
2022-05-01T18:00:00,14,14,45,-1.2,85,751,26.5,414,d,0,891,35,1015,0,389,16,Broken clouds,803,c03d,200,11,7.7
2022-05-01T19:00:00,12,12,45,-1.2,69,633,17.1,249,d,0,891,40,1015,0,234,16,Broken clouds,803,c03d,180,10,6.2
2022-05-01T20:00:00,12,12,45,-1.2,45,417,7.8,93,d,0,889,40,1014,0,87,16,Broken clouds,803,c03d,190,10,7.2
2022-05-01T21:00:00,11,11,75,-1.1,0,0,-0.9,0,n,0,889,43,1014,0,0,16,Overcast clouds,804,c04n,180,8,6.7
2022-05-01T22:00:00,10,10,100,-1.1,0,0,-8.9,0,n,0,889,46,1014,0,0,16,Overcast clouds,804,c04n,180,8,5.1
2022-05-01T23:00:00,9,9,75,-1.1,0,0,-15.5,0,n,0,888,49,1013,0,0,16,Overcast clouds,804,c04n,190,7.6,4.6
2022-05-02T00:00:00,8,8,75,-1,0,0,-20.3,0,n,0,887,53,1013,0,0,16,Overcast clouds,804,c04n,200,6.4,2.6
2022-05-02T01:00:00,7,5.2,75,-0.9,0,0,-23,0,n,0,886,57,1013,0,0,16,Overcast clouds,804,c04n,190,4.4,2.6
2022-05-02T02:00:00,6,5.1,75,-0.9,0,0,-23.1,0,n,0,886,61,1012,0,0,16,Overcast clouds,804,c04n,200,4,1.5
2022-05-02T03:00:00,3,0,75,-2.1,0,0,-20.7,0,n,0,885,69,1013,0,0,16,Overcast clouds,804,c04n,340,3.2,3.1
2022-05-02T04:00:00,3,0.9,45,-3.1,0,0,-16,0,n,0,884,64,1012,0,0,16,Broken clouds,803,c03n,340,3.2,2.1
2022-05-02T05:00:00,3,2.5,75,-2.1,0,0,-9.5,0,n,0,883,69,1012,0,0,16,Overcast clouds,804,c04n,285,3.2,1
2022-05-02T06:00:00,3,2.5,45,-2.1,0,0,-1.7,0,n,0,883,69,1012,0,0,16,Broken clouds,803,c03n,230,3.6,1
2022-05-02T07:00:00,4,1.6,75,-1.2,42,388,7,81,d,0,883,69,1012,0,54,16,Overcast clouds,804,c04d,150,3.6,2.6
2022-05-02T08:00:00,5,2.8,80,-1,67,620,16.3,234,d,0,887,65,1012,0,135,16,Overcast clouds,804,c04d,240,4.4,2.6
2022-05-02T09:00:00,8,8,75,1,84,743,25.7,400,d,0,884,61,1011,0,265,16,Overcast clouds,804,c04d,290,5.2,1
2022-05-02T10:00:00,10,10,75,0.9,96,818,34.9,558,d,0,885,53,1011,0,369,16,Overcast clouds,804,c04d,340,5.6,2.1
2022-05-02T11:00:00,11,11,100,1,105,865,43.2,691,d,0,905,50,1011,0,174,16,Overcast clouds,804,c04d,265,5.6,1
2022-05-02T12:00:00,13,13,100,2.8,110,893,50,787,d,0,886,50,1010,0,189,16,Overcast clouds,804,c04d,185,6,3.1
2022-05-02T13:00:00,14,14,100,-2,113,907,54,839,d,0,887,33,1010,0,197,16,Overcast clouds,804,c04d,110,5.2,2.6
2022-05-02T14:00:00,14,14,100,-1.2,113,908,54.2,842,d,0,887,35,1010,0,197,16,Overcast clouds,804,c04d,60,4.8,3.6
2022-05-02T15:00:00,14,14,100,-1.2,111,895,50.5,795,d,0,887,35,1011,0,191,16,Overcast clouds,804,c04d,70,5.6,2.1
2022-05-02T16:00:00,16,16,75,-2,106,869,44,703,d,0,887,29,1011,0,465,16,Overcast clouds,804,c04d,100,6,4.1
2022-05-02T17:00:00,16,16,75,-2,97,824,35.8,573,d,0,887,29,1010,0,379,16,Overcast clouds,804,c04d,40,6.4,5.1
2022-05-02T18:00:00,16,16,75,-1.1,86,752,26.7,418,d,0,887,31,1011,0,277,16,Overcast clouds,804,c04d,30,6.8,3.1
2022-05-02T19:00:00,14,14,100,-2,69,636,17.3,252,d,0,887,33,1011,0,94,16,Overcast clouds,804,c04d,80,6.8,3.1
2022-05-02T20:00:00,14,14,75,-2,45,424,8.1,96,d,0.5,887,33,1011,0,64,16,Overcast clouds,804,c04d,60,6,4.1
2022-05-02T21:00:00,12,12,75,-2.2,0,0,-0.7,0,n,0.5,887,37,1012,0,0,16,Overcast clouds,804,c04n,70,5.6,2.6
2022-05-02T22:00:00,11,11,75,-3.1,0,0,-8.6,0,n,0.5,887,37,1012,0,0,16,Overcast clouds,804,c04n,70,5.2,4.1
2022-05-02T23:00:00,8,8,45,-1,0,0,-15.2,0,n,0.5,887,53,1012,0,0,16,Broken clouds,803,c03n,360,5.2,3.1
2022-05-03T00:00:00,7,4.5,25,-2.2,0,0,-20.1,0,n,0.5,886,52,1013,0,0,16,Scattered clouds,802,c02n,30,4.8,3.6
2022-05-03T01:00:00,6,3.3,25,-0.9,0,0,-22.7,0,n,0,886,61,1013,0,0,16,Scattered clouds,802,c02n,360,4,3.6
2022-05-03T02:00:00,5,1.8,25,0.9,0,0,-22.8,0,n,0,886,75,1014,0,0,16,Scattered clouds,802,c02n,350,4.1,4.1
2022-05-03T03:00:00,5,2.8,25,0.9,0,0,-20.4,0,n,0,886,75,1014,0,0,16,Scattered clouds,802,c02n,350,4,2.6
2022-05-03T04:00:00,5,3.9,25,0.9,0,0,-15.7,0,n,0.25,886,75,1015,0,0,16,Scattered clouds,802,c02n,310,3.6,1.5
2022-05-03T05:00:00,4,3.6,100,2.8,0,0,-9.3,0,n,0,889,92,1015,0,0,16,Overcast clouds,804,c04n,325,3.2,1
2022-05-03T06:00:00,3,1.5,75,-1,0,0,-1.4,0,n,0,886,75,1015,0,0,16,Overcast clouds,804,c04n,345,2.8,1.6
2022-05-03T07:00:00,4,3.6,75,0.9,43,397,7.3,84,d,0,886,80,1015,0,56,16,Overcast clouds,804,c04d,360,2.4,1
2022-05-03T08:00:00,6,5.1,75,1.9,68,623,16.5,238,d,0,887,75,1015,0,157,16,Overcast clouds,804,c04d,10,2.8,1.5
2022-05-03T09:00:00,7,6.2,75,1.9,84,745,25.9,404,d,0,887,70,1016,0,267,16,Overcast clouds,804,c04d,320,3.6,1.5
2022-05-03T10:00:00,11,11,75,4,97,819,35.1,561,d,0,888,62,1015,0,371,16,Overcast clouds,804,c04d,190,4.8,1.5
2022-05-03T11:00:00,13,13,25,3.9,105,866,43.5,694,d,0,890,54,1015,0,688,16,Scattered clouds,802,c02d,130,6.8,3.1
2022-05-03T12:00:00,14,14,25,2.9,111,894,50.2,791,d,0,890,47,1014,0,785,16,Scattered clouds,802,c02d,170,6.4,5.1
2022-05-03T13:00:00,16,16,25,1,113,907,54.2,842,d,0,890,36,1014,0,835,16,Scattered clouds,802,c02d,180,5.6,2.1
2022-05-03T14:00:00,17,17,75,1.8,113,908,54.4,845,d,0,891,36,1013,0,559,16,Overcast clouds,804,c04d,190,5.2,1.5
2022-05-03T15:00:00,17,17,75,-0.2,111,896,50.8,798,d,0.25,891,31,1013,0,528,16,Overcast clouds,804,c04d,200,7.2,7.2
2022-05-03T16:00:00,18,18,75,0.6,106,869,44.3,706,d,0,890,31,1013,0,467,16,Overcast clouds,804,c04d,100,7,3.6
2022-05-03T17:00:00,18,18,45,-0.3,98,825,36,577,d,0,891,29,1012,0,543,16,Broken clouds,803,c03d,180,7,5.1
2022-05-03T18:00:00,18,18,25,-0.3,86,754,26.9,421,d,0,890,29,1012,0,418,16,Scattered clouds,802,c02d,160,6,4.1
2022-05-03T19:00:00,18,18,100,-1.3,70,639,17.5,256,d,0,890,27,1012,0,96,16,Overcast clouds,804,c04d,170,5.2,4.1
2022-05-03T20:00:00,17,17,100,-2.1,46,431,8.3,100,d,0,890,27,1012,0,56,16,Overcast clouds,804,c04d,180,4.6,4.6
2022-05-03T21:00:00,15,15,75,-2,0,0,-0.5,0,n,0.25,889,31,1012,0,0,16,Overcast clouds,804,c04n,240,5.2,1
2022-05-03T22:00:00,15,15,75,-4.3,0,0,-8.4,0,n,0.5,889,26,1012,0,0,16,Overcast clouds,804,c04n,300,9,4.1
2022-05-03T23:00:00,14,14,75,-4.2,0,0,-15,0,n,0,889,28,1012,0,0,16,Overcast clouds,804,c04n,310,9,6.7
2022-05-04T00:00:00,14,14,25,-4.2,0,0,-19.8,0,n,0,889,28,1012,0,0,16,Scattered clouds,802,c02n,290,4.8,3.6
2022-05-04T01:00:00,12,12,45,-4.2,0,0,-22.4,0,n,0,889,32,1012,0,0,16,Broken clouds,803,c03n,310,10,4.6
2022-05-04T02:00:00,13,13,45,-3.3,0,0,-22.5,0,n,0,888,32,1011,0,0,16,Broken clouds,803,c03n,300,11,8.2
2022-05-04T03:00:00,13,13,45,-3.3,0,0,-20.1,0,n,0,888,32,1012,0,0,16,Broken clouds,803,c03n,300,4.6,4.6
2022-05-04T04:00:00,11,11,75,-2.1,0,0,-15.4,0,n,0,889,40,1012,0,0,16,Overcast clouds,804,c04n,195,4.4,1
2022-05-04T05:00:00,9,9,75,-1.1,0,0,-9,0,n,0,887,49,1011,0,0,16,Overcast clouds,804,c04n,90,4,1
2022-05-04T06:00:00,10,10,75,-1.1,0,0,-1.2,0,n,0,886,46,1011,0,0,16,Overcast clouds,804,c04n,230,3.6,2.1
2022-05-04T07:00:00,10,10,75,-1.1,43,406,7.5,88,d,0,887,46,1011,0,58,16,Overcast clouds,804,c04d,210,4.1,4.1
2022-05-04T08:00:00,11,11,75,-1.1,68,627,16.8,242,d,0,887,43,1011,0,160,16,Overcast clouds,804,c04d,220,4,2.1
2022-05-04T09:00:00,11,11,75,-1.1,85,747,26.2,408,d,0,887,43,1011,0,270,16,Overcast clouds,804,c04d,210,4,2.6
2022-05-04T10:00:00,12,12,75,-1.2,97,820,35.3,565,d,0,887,40,1011,0,374,16,Overcast clouds,804,c04d,240,4.4,2.6
2022-05-04T11:00:00,13,13,75,-1.3,105,866,43.7,698,d,0.25,887,37,1011,0,462,16,Overcast clouds,804,c04d,220,5.2,3.6
2022-05-04T12:00:00,14,14,75,2,111,894,50.5,794,d,0.5,887,44,1010,0,525,16,Overcast clouds,804,c04d,200,5.6,2.6
2022-05-04T13:00:00,15,15,100,0.8,113,908,54.5,846,d,0.5,887,38,1010,0,198,16,Overcast clouds,804,c04d,220,9.6,3.1
2022-05-04T14:00:00,16,16,100,1,114,908,54.7,848,d,0.5,887,36,1009,0,199,16,Overcast clouds,804,c04d,230,10.8,2.1
2022-05-04T15:00:00,16,16,100,1.7,111,896,51,801,d,0,888,38,1009,0,191,16,Overcast clouds,804,c04d,200,10,2.6
2022-05-04T16:00:00,20,18.7,100,-1.2,106,870,44.5,709,d,0,887,24,1008,0,177,16,Overcast clouds,804,c04d,290,10,6.7
2022-05-04T17:00:00,19,17.6,100,-1.4,98,826,36.2,580,d,0,889,25,1009,0,156,16,Overcast clouds,804,c04d,310,10,7.2
2022-05-04T18:00:00,19,17.6,100,-1.4,86,755,27.1,425,d,0,888,25,1008,0,129,16,Overcast clouds,804,c04d,280,10,5.1
2022-05-04T19:00:00,18,18,75,-1.3,70,642,17.7,259,d,0,888,27,1009,0,171,16,Overcast clouds,804,c04d,290,10,7.7
2022-05-04T20:00:00,17,17,75,-1.1,47,438,8.5,103,d,0,888,29,1009,0,68,16,Overcast clouds,804,c04d,290,7,5.1
2022-05-04T21:00:00,16,16,75,-1.1,2,0,-0.3,0,n,0,887,31,1009,0,0,16,Overcast clouds,804,c04n,290,3.6,3.6
2022-05-04T22:00:00,14,14,75,-1.2,0,0,-8.1,0,n,0,887,35,1009,0,0,16,Overcast clouds,804,c04n,320,4.4,2.1
2022-05-04T23:00:00,13,13,75,-2.1,0,0,-14.7,0,n,0,887,35,1009,0,0,16,Overcast clouds,804,c04n,170,5.6,3.1
2022-05-05T00:00:00,12,12,75,-1.2,0,0,-19.5,0,n,0,886,40,1009,0,0,16,Overcast clouds,804,c04n,180,5.6,1
2022-05-05T01:00:00,11,11,25,1,0,0,-22.1,0,n,0,885,50,1008,0,0,16,Scattered clouds,802,c02n,220,5.6,3.1
2022-05-05T02:00:00,12,12,45,1.9,0,0,-22.2,0,n,0,884,50,1008,0,0,16,Broken clouds,803,c03n,240,5.6,3.6
2022-05-05T03:00:00,13,13,75,-1.3,0,0,-19.8,0,n,0.25,884,37,1007,0,0,16,Overcast clouds,804,c04n,270,4.8,4.1
2022-05-05T04:00:00,12,12,75,-1.2,0,0,-15.2,0,n,0,884,40,1006,0,0,16,Overcast clouds,804,c04n,210,4.4,4.1
2022-05-05T05:00:00,11,11,75,-1.1,0,0,-8.7,0,n,0,883,43,1006,0,0,16,Overcast clouds,804,c04n,230,3.6,3.1
2022-05-05T06:00:00,11,11,75,-1.1,0,0,-0.9,0,n,0.25,883,43,1006,0,0,16,Overcast clouds,804,c04n,250,3.6,3.1
2022-05-05T07:00:00,10,10,75,-2,44,413,7.8,91,d,0.5,882,43,1006,0,60,16,Overcast clouds,804,c04d,230,4,3.6
2022-05-05T08:00:00,10,10,75,-0.2,68,630,17,246,d,0.25,882,49,1006,0,163,16,Overcast clouds,804,c04d,240,4.4,2.6
2022-05-05T09:00:00,10,10,100,0.9,85,748,26.4,412,d,0.5,882,53,1005,0,126,16,Overcast clouds,804,c04d,200,4.8,2.6
2022-05-05T10:00:00,11,11,100,1.8,97,821,35.6,569,d,0.5,881,53,1005,0,154,16,Overcast clouds,804,c04d,220,4.8,2.1
2022-05-05T11:00:00,13,13,75,0.7,105,867,44,701,d,0.25,881,43,1004,0,464,16,Overcast clouds,804,c04d,220,6,3.6
2022-05-05T12:00:00,16,16,100,2.8,111,895,50.8,797,d,0,882,41,1003,0,191,16,Overcast clouds,804,c04d,220,7.2,3.6
2022-05-05T13:00:00,17,17,75,4,114,908,54.8,849,d,0,882,42,1002,0,562,16,Overcast clouds,804,c04d,180,9.6,4.6
2022-05-05T14:00:00,19,17.9,100,4,114,909,55,851,d,0,882,37,1001,0,199,16,Overcast clouds,804,c04d,180,10,7.2
2022-05-05T15:00:00,20,18.9,100,2.8,111,897,51.3,804,d,0,882,32,999,0,191,16,Overcast clouds,804,c04d,170,10,6.7
2022-05-05T16:00:00,19,17.8,100,1.9,106,871,44.7,712,d,0.5,881,32,999,0,177,16,Overcast clouds,804,c04d,190,10,7.7
2022-05-05T17:00:00,18,18,100,1.9,98,827,36.4,583,d,0.5,880,34,998,0,156,16,Overcast clouds,804,c04d,210,9,7.2
2022-05-05T18:00:00,18,18,100,1.9,86,757,27.3,428,d,0.75,875,34,998,0,129,16,Light rain,500,r01d,210,11,6.7
2022-05-05T19:00:00,17,17,100,1.8,70,645,17.9,262,d,1,879,36,997,0,96,16,Light rain,500,r01d,210,11.2,4.1
2022-05-05T20:00:00,15,15,75,5,47,444,8.7,106,d,2.25,877,51,997,0,65,16,Light rain,500,r01d,180,6.8,4.6
2022-05-05T21:00:00,14,14,75,5.9,4,4,-0.1,1,d,1.5,876,58,997,0,4,16,Light rain,500,r01n,170,5.2,2.1
2022-05-05T22:00:00,12,12,75,5.9,0,0,-7.9,0,n,1,875,66,996,0,0,16,Light rain,500,r01n,180,6.8,2.1
2022-05-05T23:00:00,12,12,75,5.9,0,0,-14.5,0,n,0,874,66,995,0,0,16,Overcast clouds,804,c04n,210,7.6,4.1
2022-05-06T00:00:00,12,12,75,4,0,0,-19.3,0,n,0,873,58,994,0,0,16,Overcast clouds,804,c04n,230,8,2.1
2022-05-06T01:00:00,11,11,75,2.8,0,0,-21.8,0,n,0,873,57,993,0,0,16,Overcast clouds,804,c04n,230,9.2,3.1
2022-05-06T02:00:00,11,11,75,1.8,0,0,-21.9,0,n,0,872,53,993,0,0,16,Overcast clouds,804,c04n,270,8.8,1.5
2022-05-06T03:00:00,10,10,45,0.9,0,0,-19.5,0,n,0,872,53,993,0,0,16,Broken clouds,803,c03n,240,8.8,3.1
2022-05-06T04:00:00,9,9,25,-0.1,0,0,-14.9,0,n,0,871,53,993,0,0,16,Scattered clouds,802,c02n,200,8,1.5
2022-05-06T05:00:00,9,9,100,-1.1,0,0,-8.5,0,n,0,871,49,992,0,0,16,Overcast clouds,804,c04n,240,15,2.6
2022-05-06T06:00:00,11,11,75,-2.1,0,0,-0.7,0,n,0.5,870,40,992,0,0,16,Overcast clouds,804,c04n,280,15,9.3
2022-05-06T07:00:00,11,11,75,-3.1,45,421,8,95,d,0.5,871,37,993,0,63,16,Overcast clouds,804,c04d,290,14,10.3
2022-05-06T08:00:00,11,11,75,-4.2,69,634,17.2,250,d,0,872,34,994,0,165,16,Overcast clouds,804,c04d,290,14,9.8
2022-05-06T09:00:00,13,13,75,-7.1,85,750,26.6,416,d,0,872,24,995,0,275,16,Overcast clouds,804,c04d,290,18,13.9
2022-05-06T10:00:00,14,14,45,-6.2,97,822,35.8,572,d,0,873,24,995,0,538,16,Broken clouds,803,c03d,300,15,8.8
2022-05-06T11:00:00,14,14,45,-7.9,106,868,44.2,704,d,0,874,21,995,0,662,16,Broken clouds,803,c03d,300,12,8.8
2022-05-06T12:00:00,15,15,45,-9.1,111,895,51,800,d,0,874,18,995,0,752,16,Broken clouds,803,c03d,300,12,8.8
2022-05-06T13:00:00,16,16,7,-11.4,114,909,55.1,852,d,0,874,14,995,0,852,16,Few clouds,801,c02d,310,13,10.3
2022-05-06T14:00:00,15,15,25,-12.2,114,909,55.3,854,d,0,875,14,995,0,847,16,Scattered clouds,802,c02d,300,13,7.7
2022-05-06T15:00:00,16,16,25,-11.4,111,897,51.5,807,d,0,875,14,995,0,800,16,Scattered clouds,802,c02d,320,11,8.8
2022-05-06T16:00:00,16,16,25,-12.4,106,871,45,715,d,0,875,13,995,0,709,16,Scattered clouds,802,c02d,310,12,4.6
2022-05-06T17:00:00,17,17,25,-13.6,98,827,36.7,586,d,0,875,11,995,0,581,16,Scattered clouds,802,c02d,290,11,9.3
2022-05-06T18:00:00,16,16,25,-13.4,87,758,27.5,431,d,0,875,12,995,0,428,16,Scattered clouds,802,c02d,290,9,6.7
2022-05-06T19:00:00,15,15,4,-12.2,71,648,18.1,266,d,0,874,14,995,0,266,16,Few clouds,801,c02d,290,10,7.2
2022-05-06T20:00:00,14,14,25,-11.4,48,450,8.9,109,d,0,875,16,995,0,108,16,Scattered clouds,802,c02d,310,10,7.7
2022-05-06T21:00:00,12,12,25,-11.6,6,11,0.2,1,d,0,874,18,996,0,7,16,Scattered clouds,802,c02n,300,10,7.2
2022-05-06T22:00:00,11,11,45,-10.5,0,0,-7.7,0,n,0,874,21,996,0,0,16,Broken clouds,803,c03n,310,11,8.2
2022-05-06T23:00:00,10,10,75,-9.1,0,0,-14.2,0,n,0,874,25,996,0,0,16,Overcast clouds,804,c04n,310,5.7,5.7
2022-05-07T00:00:00,9,9,75,-9,0,0,-19,0,n,0,873,27,996,0,0,16,Overcast clouds,804,c04n,320,6.2,6.2
2022-05-07T01:00:00,7,4.5,25,-9.4,0,0,-21.6,0,n,0,873,30,996,0,0,16,Scattered clouds,802,c02n,360,3.6,3.6
2022-05-07T02:00:00,5,3.3,45,-9.2,0,0,-21.7,0,n,0,872,35,996,0,0,16,Broken clouds,803,c03n,330,3.6,2.1
2022-05-07T03:00:00,4,0,25,-8,0,0,-19.3,0,n,0,871,41,997,0,0,16,Scattered clouds,802,c02n,10,5.1,5.1
2022-05-07T04:00:00,5,2.1,45,-8.1,0,0,-14.7,0,n,0,869,38,997,0,0,16,Broken clouds,803,c03n,20,3.6,3.6
2022-05-07T05:00:00,5,3.3,45,-7.1,0,0,-8.2,0,n,0,872,41,998,0,0,11,Broken clouds,803,c03n,100,3.2,2.1
2022-05-07T06:00:00,6,2.5,100,-5,0,0,-0.5,0,n,0,873,45,998,0,0,11,Overcast clouds,804,c04n,80,5.1,5.1
2022-05-07T07:00:00,6,4,100,-2.1,46,428,8.2,98,d,0,873,56,998,0,56,11,Overcast clouds,804,c04d,80,4.4,2.6
2022-05-07T08:00:00,6,3.6,75,-2.1,69,637,17.4,253,d,0,873,56,999,0,167,16,Overcast clouds,804,c04d,30,4.4,3.1
2022-05-07T09:00:00,8,8,75,-0.2,86,752,26.8,419,d,0,874,56,999,0,277,16,Overcast clouds,804,c04d,110,4.4,2.6
2022-05-07T10:00:00,8,8,75,-2,97,823,36,576,d,0,874,49,998,0,381,16,Overcast clouds,804,c04d,200,5.2,2.1
2022-05-07T11:00:00,11,11,75,-2.1,106,869,44.5,708,d,0,874,40,997,0,468,16,Overcast clouds,804,c04d,220,5.2,3.1
2022-05-07T12:00:00,12,12,45,-4.2,111,896,51.3,803,d,0,874,32,997,0,755,16,Broken clouds,803,c03d,220,6.4,3.6
2022-05-07T13:00:00,13,13,75,-5.1,114,909,55.4,854,d,0,874,28,996,0,565,16,Overcast clouds,804,c04d,200,8,6.7
2022-05-07T14:00:00,14,14,75,-9.2,114,909,55.5,857,d,0,874,19,996,0,567,16,Overcast clouds,804,c04d,280,8,4.1
2022-05-07T15:00:00,14,14,75,-10.6,111,898,51.8,810,d,0,874,17,996,0,536,16,Overcast clouds,804,c04d,280,8,4.6
2022-05-07T16:00:00,15,15,75,-6.5,106,872,45.2,718,d,0.25,874,22,996,0,475,16,Overcast clouds,804,c04d,360,10,6.2
2022-05-07T17:00:00,11,11,75,-4.2,98,828,36.9,589,d,0.5,875,34,998,0,390,16,Overcast clouds,804,c04d,10,8.8,8.8
2022-05-07T18:00:00,10,10,75,-1.1,87,760,27.7,434,d,0.25,875,46,998,0,287,16,Overcast clouds,804,c04d,110,6.8,6.2
2022-05-07T19:00:00,9,9,89,-1.1,71,650,18.3,269,d,0,876,49,999,0,106,16,Overcast clouds,804,c04d,30,7.7,7.7
2022-05-07T20:00:00,8,8,75,-3.5,48,456,9.1,112,d,0,875,44,1000,0,74,11,Overcast clouds,804,c04d,70,6.2,6.2
2022-05-07T21:00:00,7,3.8,75,0.9,8,22,0.4,2,d,0,874,65,1000,0,9,8,Overcast clouds,804,c04n,10,5.1,5.1
2022-05-07T22:00:00,7,5.7,100,-2.2,0,0,-7.5,0,n,0.25,875,52,1000,0,0,8,Overcast clouds,804,c04n,140,2.8,2
2022-05-07T23:00:00,7,5.2,75,0.2,0,0,-14,0,n,0,874,62,1000,0,0,16,Overcast clouds,804,c04n,270,4.4,2.6
2022-05-08T00:00:00,6,3.3,75,0.6,0,0,-18.7,0,n,0,875,68,1000,0,0,11,Overcast clouds,804,c04n,10,8,3.6
2022-05-08T01:00:00,4,0,100,0.3,0,0,-21.3,0,n,0,874,77,1001,0,0,11,Overcast clouds,804,c04n,10,8,5.1
2022-05-08T02:00:00,2,-1.9,100,-2.9,0,0,-21.4,0,n,0,874,70,1001,0,0,16,Overcast clouds,804,c04n,360,4.1,4.1
2022-05-08T03:00:00,2,-1.6,45,-0.1,0,0,-19,0,n,0,873,86,1001,0,0,16,Broken clouds,803,c03n,340,4.4,3.6
2022-05-08T04:00:00,2,-1.2,75,-0.1,0,0,-14.4,0,n,0,873,86,1001,0,0,11,Overcast clouds,804,c04n,330,4,3.1
2022-05-08T05:00:00,2,-0.7,100,-0.1,0,0,-8,0,n,0,873,86,1001,0,0,11,Overcast clouds,804,c04n,280,2.8,2.6
2022-05-08T06:00:00,2,1.4,25,-0.6,2,0,-0.3,0,n,0,873,83,1001,0,0,16,Scattered clouds,802,c02n,250,2.4,1
2022-05-08T07:00:00,2,0.5,75,-1.1,46,435,8.4,102,d,0,873,80,1001,0,67,16,Overcast clouds,804,c04d,220,2,1.5
2022-05-08T08:00:00,4,3.6,25,0.9,70,640,17.6,257,d,0,873,80,1001,0,255,16,Scattered clouds,802,c02d,225,2.8,1
2022-05-08T09:00:00,5,2.8,45,0.9,86,754,27,423,d,0,874,75,1001,0,398,16,Broken clouds,803,c03d,230,4.4,2.6
2022-05-08T10:00:00,5,1.8,45,-0.8,98,824,36.3,579,d,0,874,66,1000,0,544,16,Broken clouds,803,c03d,210,6,4.1
2022-05-08T11:00:00,8,8,75,0.5,106,869,44.7,711,d,0,873,59,999,0,470,16,Overcast clouds,804,c04d,220,7.2,3.1
2022-05-08T12:00:00,8,8,75,-1,111,896,51.5,806,d,0,874,53,998,0,533,16,Overcast clouds,804,c04d,180,6.8,1.5
2022-05-08T13:00:00,8,8,45,-2,114,909,55.6,857,d,0,874,49,998,0,806,16,Broken clouds,803,c03d,180,6,4.6
2022-05-08T14:00:00,9,9,75,-2,114,910,55.8,859,d,0,873,46,998,0,568,16,Overcast clouds,804,c04d,180,12,6.2
2022-05-08T15:00:00,7,3,75,-2.2,112,898,52,813,d,0.25,873,52,998,0,538,16,Overcast clouds,804,c04d,220,12,7.2
2022-05-08T16:00:00,7,2.9,75,-1.2,106,872,45.4,721,d,0.5,872,56,997,0,477,16,Overcast clouds,804,c04d,180,12,7.7
2022-05-08T17:00:00,7,3.5,75,0.9,98,829,37.1,592,d,0.5,871,65,999,0,392,16,Overcast clouds,804,c04d,30,9,5.7
2022-05-08T18:00:00,9,9,75,2.8,87,761,27.9,438,d,0.5,873,65,998,0,290,16,Overcast clouds,804,c04d,30,8,2.6
2022-05-08T19:00:00,8,8,45,-3.2,71,653,18.5,272,d,0.25,873,45,998,0,256,16,Broken clouds,803,c03d,20,4.8,2.1
2022-05-08T20:00:00,7,4,75,-1.2,49,462,9.3,115,d,0,873,56,999,0,76,11,Overcast clouds,804,c04d,140,4.6,4.6
2022-05-08T21:00:00,4,0.9,75,0.9,9,34,0.6,3,d,0,872,80,1000,0,11,5,Overcast clouds,804,c04n,260,3.6,3.6
2022-05-08T22:00:00,2,-2.8,100,1,0,0,-7.2,0,n,0.5,872,93,1001,0,0,5,Overcast clouds,804,c04n,340,6,5.7
2022-05-08T23:00:00,0,-3.6,100,-0.6,0,0,-13.7,0,n,0,872,96,1001,0,0,2,Haze,721,a03n,360,6,3.1
2022-05-09T00:00:00,0,-5,100,0,0,0,-18.5,0,n,0.5,871,100,1001,3.5,0,2,Flurries,623,s06n,10,6,5.1
2022-05-09T01:00:00,1,-3.7,100,1,0,0,-21,0,n,1,871,100,1001,2,0,3,Mix snow/rain,610,s04n,20,7.2,5.1
2022-05-09T02:00:00,1,-2.8,100,0,0,0,-21.1,0,n,1,872,93,1001,2,0,5,Mix snow/rain,610,s04n,40,8.8,3.6
2022-05-09T03:00:00,1,-2.8,100,1,0,0,-18.8,0,n,1,872,100,1002,2,0,5,Mix snow/rain,610,s04n,10,8.8,3.6
2022-05-09T04:00:00,1,-2.8,100,1,0,0,-14.2,0,n,1,873,100,1002,2,0,6,Mix snow/rain,610,s04n,50,8.4,3.6
2022-05-09T05:00:00,1,-2.8,100,0,0,0,-7.8,0,n,1,873,93,1003,2,0,6,Mix snow/rain,610,s04n,50,7.2,3.6
2022-05-09T06:00:00,1,-1.9,100,0,4,4,0,1,d,0.5,873,93,1003,1,4,6,Mix snow/rain,610,s04n,60,5.6,2.6
2022-05-09T07:00:00,1,-2.4,100,-1.1,47,442,8.6,105,d,0.5,874,86,1004,1,58,10,Mix snow/rain,610,s04d,90,4.4,3.1
2022-05-09T08:00:00,1,-2.4,75,-1.1,70,643,17.9,261,d,0.5,874,86,1004,1,173,11,Mix snow/rain,610,s04d,100,4.4,3.1
2022-05-09T09:00:00,1,-0.6,100,-2.1,86,755,27.3,426,d,0.5,875,80,1005,1,129,11,Mix snow/rain,610,s04d,150,5.6,1.5
2022-05-09T10:00:00,2,-0.2,100,1,98,825,36.5,582,d,0,875,93,1005,0,156,6,Overcast clouds,804,c04d,210,4.8,2.1
2022-05-09T11:00:00,2,-0.7,100,1,106,870,44.9,714,d,0,875,93,1005,0,177,13,Overcast clouds,804,c04d,210,4.8,2.6
2022-05-09T12:00:00,4,1.6,75,1.9,111,897,51.8,809,d,0,875,86,1005,0,535,16,Overcast clouds,804,c04d,200,6.4,2.6
2022-05-09T13:00:00,5,2.1,75,-1,114,910,55.9,860,d,0,876,65,1005,0,569,16,Overcast clouds,804,c04d,180,6,3.6
2022-05-09T14:00:00,5,1.8,75,-1,114,910,56.1,862,d,0,876,65,1004,0,570,16,Overcast clouds,804,c04d,170,8,4.1
2022-05-09T15:00:00,6,3.6,75,-1.2,112,898,52.3,815,d,0,876,60,1004,0,539,16,Overcast clouds,804,c04d,180,8,3.1
2022-05-09T16:00:00,7,4,45,-0.2,107,873,45.6,724,d,0,877,60,1004,0,681,16,Broken clouds,803,c03d,170,6,4.6
2022-05-09T17:00:00,7,6.2,45,-1.2,99,830,37.3,595,d,0,877,56,1004,0,560,16,Broken clouds,803,c03d,170,5.6,1.5
2022-05-09T18:00:00,8,8,25,-2,87,763,28.1,441,d,0,877,49,1004,0,437,16,Scattered clouds,802,c02d,180,5.2,3.6
2022-05-09T19:00:00,8,8,75,-4.1,72,656,18.7,276,d,0,878,42,1005,0,183,16,Overcast clouds,804,c04d,200,9,4.1
2022-05-09T20:00:00,7,3.4,75,-1.2,50,467,9.5,119,d,0,878,56,1006,0,79,16,Overcast clouds,804,c04d,310,9,6.2
2022-05-09T21:00:00,6,3.6,75,-1.2,11,47,0.8,5,d,0,878,60,1006,0,14,16,Overcast clouds,804,c04n,230,4.8,3.1
2022-05-09T22:00:00,6,4.4,75,-1.2,0,0,-7,0,n,0,878,60,1007,0,0,16,Overcast clouds,804,c04n,280,4,2.1
2022-05-09T23:00:00,4,2.1,75,-2.2,0,0,-13.5,0,n,0,879,64,1007,0,0,16,Overcast clouds,804,c04n,320,3.2,2.1
2022-05-10T00:00:00,4,2.2,75,-2.2,0,0,-18.2,0,n,0,878,64,1007,0,0,16,Overcast clouds,804,c04n,185,3.2,2
2022-05-10T01:00:00,2,1.4,75,-2.1,0,0,-20.8,0,n,0,878,74,1007,0,0,16,Overcast clouds,804,c04n,50,3.2,1
2022-05-10T02:00:00,1,-1.9,75,-2.1,0,0,-20.9,0,n,0,877,80,1007,0,0,16,Overcast clouds,804,c04n,360,3.2,2.6
2022-05-10T03:00:00,1,-4,75,-2.1,0,0,-18.5,0,n,0,877,80,1008,0,0,10,Overcast clouds,804,c04n,360,5.7,5.7
2022-05-10T04:00:00,1,-4.3,75,0,0,0,-13.9,0,n,0,878,93,1009,0,0,8,Overcast clouds,804,c04n,30,6.2,6.2
2022-05-10T05:00:00,1,-3.4,100,0,0,0,-7.5,0,n,0,879,93,1009,0,0,5,Overcast clouds,804,c04n,30,5.2,4.6
2022-05-10T06:00:00,0,-4,100,-1,6,12,0.2,1,d,0,879,93,1010,0,6,5,Overcast clouds,804,c04n,40,4.4,3.6
2022-05-10T07:00:00,0,-0.8,100,-1.1,48,448,8.8,108,d,0,879,92,1011,0,59,6,Overcast clouds,804,c04d,100,4.4,1
2022-05-10T08:00:00,1,-0.6,100,-0.1,70,646,18,264,d,0,880,92,1011,0,96,6,Overcast clouds,804,c04d,110,4.8,1.5
2022-05-10T09:00:00,1,-2.4,100,0,86,757,27.5,429,d,0,880,93,1012,0,129,8,Overcast clouds,804,c04d,90,4.4,3.1
2022-05-10T10:00:00,2,-1.2,100,1,98,826,36.7,585,d,0,881,93,1012,0,157,8,Overcast clouds,804,c04d,110,4.8,3.1
2022-05-10T11:00:00,4,1.2,100,0.9,106,870,45.1,717,d,0,882,80,1012,0,178,8,Overcast clouds,804,c04d,160,6,3.1
2022-05-10T12:00:00,5,3.3,100,1.8,111,897,52,812,d,0,883,80,1012,0,192,13,Overcast clouds,804,c04d,170,9.6,2.1
2022-05-10T13:00:00,7,6.9,100,1.9,114,910,56.2,863,d,0,883,70,1012,0,200,16,Overcast clouds,804,c04d,225,6.8,1
2022-05-10T14:00:00,9,9,100,1.9,114,910,56.3,865,d,0,884,61,1012,0,201,16,Overcast clouds,804,c04d,275,12,3.1
2022-05-10T15:00:00,5,-0.2,100,0.9,112,899,52.5,818,d,0.25,885,75,1014,0,194,10,Overcast clouds,804,c04d,330,12,9.3
2022-05-10T16:00:00,6,0.8,100,1.9,107,873,45.8,727,d,0.25,884,75,1015,0,180,10,Overcast clouds,804,c04d,360,14,10.3
2022-05-10T17:00:00,4,-0.8,100,3,99,831,37.5,598,d,0,886,93,1016,0,159,10,Overcast clouds,804,c04d,50,10,7.2
2022-05-10T18:00:00,6,3.6,100,1.9,88,764,28.3,444,d,0,885,75,1016,0,132,16,Overcast clouds,804,c04d,40,7.2,3.1
2022-05-10T19:00:00,7,6.2,100,1.9,72,658,18.9,279,d,0,887,70,1016,0,100,16,Overcast clouds,804,c04d,200,6.8,1.5
2022-05-10T20:00:00,6,4,100,1.9,50,473,9.7,122,d,0,887,75,1017,0,62,16,Overcast clouds,804,c04d,170,5.2,2.6
2022-05-10T21:00:00,6,3.6,75,1.9,12,61,1,6,d,0,887,75,1018,0,16,16,Overcast clouds,804,c04n,200,3.2,3.1
2022-05-10T22:00:00,5,2.8,75,1.8,0,0,-6.8,0,n,0,888,80,1019,0,0,16,Overcast clouds,804,c04n,190,2.8,2.6
2022-05-10T23:00:00,4,2.1,45,0.9,0,0,-13.3,0,n,0,889,80,1019,0,0,16,Broken clouds,803,c03n,330,2.8,2.1
2022-05-11T00:00:00,4,2.8,45,1.9,0,0,-18,0,n,0,889,86,1019,0,0,16,Broken clouds,803,c03n,340,2.4,1.5
2022-05-11T01:00:00,3,2.5,45,2,0,0,-20.5,0,n,0,889,93,1020,0,0,16,Broken clouds,803,c03n,290,2.8,1
2022-05-11T02:00:00,4,2.8,45,1.9,0,0,-20.6,0,n,0,889,86,1020,0,0,16,Broken clouds,803,c03n,240,3.2,1.5
2022-05-11T03:00:00,2,1.4,45,1,0,0,-18.2,0,n,0,890,93,1020,0,0,16,Broken clouds,803,c03n,235,3.2,1
2022-05-11T04:00:00,1,-0.8,45,0,0,0,-13.7,0,n,0,889,93,1021,0,0,16,Broken clouds,803,c03n,230,2.8,1.6
2022-05-11T05:00:00,1,-0.8,45,0,0,0,-7.3,0,n,0,889,93,1021,0,0,16,Broken clouds,803,c03n,225,2.8,1.6
2022-05-11T06:00:00,2,0.5,75,1,8,23,0.4,2,d,0,889,93,1021,0,9,16,Overcast clouds,804,c04n,220,3.2,1.5
2022-05-11T07:00:00,3,0.4,75,0.9,48,454,9.1,111,d,0,889,86,1021,0,73,16,Overcast clouds,804,c04d,240,4,2.6
2022-05-11T08:00:00,4,2.8,75,0.9,71,648,18.3,267,d,0,890,80,1021,0,177,16,Overcast clouds,804,c04d,230,4,1.5
2022-05-11T09:00:00,6,4,75,1,87,758,27.7,433,d,0,890,70,1021,0,286,16,Overcast clouds,804,c04d,190,4,2.6
2022-05-11T10:00:00,9,9,75,1,98,827,36.9,588,d,0,892,57,1020,0,389,16,Overcast clouds,804,c04d,190,4.8,2.1
2022-05-11T11:00:00,11,11,75,-4.2,106,871,45.3,719,d,0,893,34,1020,0,476,16,Overcast clouds,804,c04d,190,5.2,2.1
2022-05-11T12:00:00,11,11,45,-4.2,112,897,52.3,814,d,0,893,34,1019,0,765,16,Broken clouds,803,c03d,190,6,4.6
2022-05-11T13:00:00,12,12,45,-5,114,910,56.4,865,d,0,893,30,1019,0,813,16,Broken clouds,803,c03d,160,6.8,2.6
2022-05-11T14:00:00,12,12,75,-6.4,114,911,56.6,867,d,0,893,27,1019,0,574,16,Overcast clouds,804,c04d,300,7.2,4.1
2022-05-11T15:00:00,12,12,75,-6.4,112,899,52.8,821,d,0,892,27,1018,0,543,16,Overcast clouds,804,c04d,320,7.2,2.1
2022-05-11T16:00:00,12,12,100,-4.2,107,874,46,729,d,0,892,32,1018,0,180,16,Overcast clouds,804,c04d,255,6.4,1
2022-05-11T17:00:00,12,12,75,-6.4,99,832,37.7,601,d,0,892,27,1018,0,398,16,Overcast clouds,804,c04d,190,6,2.1
2022-05-11T18:00:00,12,12,75,-6.4,88,765,28.5,447,d,0.5,891,27,1018,0,296,16,Overcast clouds,804,c04d,230,6,5.1
2022-05-11T19:00:00,13,13,75,-7.1,72,660,19.1,282,d,0,891,24,1018,0,187,16,Overcast clouds,804,c04d,340,5.2,3.1
2022-05-11T20:00:00,12,12,75,-7.4,51,478,9.9,125,d,0,892,25,1018,0,83,16,Overcast clouds,804,c04d,190,3.6,2.1
2022-05-11T21:00:00,11,11,75,-7.3,14,75,1.2,8,d,0,891,27,1018,0,19,16,Overcast clouds,804,c04n,210,2.8,2.1
2022-05-11T22:00:00,10,10,45,-9.1,0,0,-6.6,0,n,0,891,25,1018,0,0,16,Broken clouds,803,c03n,290,3.2,3.1
2022-05-11T23:00:00,8,8,25,-8.1,0,0,-13,0,n,0,892,31,1018,0,0,16,Scattered clouds,802,c02n,240,4,1.5
2022-05-12T00:00:00,7,5.3,25,-8.1,0,0,-17.7,0,n,0,891,33,1018,0,0,16,Scattered clouds,802,c02n,225,4.8,2.4
2022-05-12T01:00:00,5,3.3,5,-6.2,0,0,-20.3,0,n,0,890,44,1019,0,0,16,Few clouds,801,c02n,210,4,2.1
2022-05-12T02:00:00,4,2.1,4,-7.1,0,0,-20.4,0,n,0,890,44,1019,0,0,16,Few clouds,801,c02n,220,3.6,2.1
2022-05-12T03:00:00,3,2.5,0,-7.2,0,0,-18,0,n,0,889,47,1018,0,0,16,Clear Sky,800,c01n,210,3.6,1
2022-05-12T04:00:00,1,-0.6,1,-7,0,0,-13.4,0,n,0,888,55,1019,0,0,16,Clear Sky,800,c01n,200,3.6,1.5
2022-05-12T05:00:00,1,-1.4,0,-6.1,0,0,-7.1,0,n,0,887,59,1019,0,0,16,Clear Sky,800,c01n,230,3.6,2.1
2022-05-12T06:00:00,0,-1.8,25,-7,9,35,0.6,4,d,0,887,59,1019,0,13,16,Scattered clouds,802,c02n,220,3.6,1.5
2022-05-12T07:00:00,1,0.3,25,-5,49,460,9.2,114,d,0,888,64,1019,0,113,16,Scattered clouds,802,c02d,110,4.4,1
2022-05-12T08:00:00,5,4.7,25,-4,71,651,18.4,271,d,0,888,52,1019,0,269,16,Scattered clouds,802,c02d,180,4.4,1
2022-05-12T09:00:00,8,8,25,-3.2,87,759,27.9,436,d,0,890,45,1019,0,432,16,Scattered clouds,802,c02d,190,4,1
2022-05-12T10:00:00,11,11,25,-6.3,98,828,37.1,591,d,0,891,29,1018,0,586,16,Scattered clouds,802,c02d,190,4.8,2.6
2022-05-12T11:00:00,12,12,25,-7.4,106,871,45.6,722,d,0,892,25,1018,0,716,16,Scattered clouds,802,c02d,150,5.6,1.5
2022-05-12T12:00:00,14,14,25,-7.4,112,898,52.5,817,d,0,892,22,1018,0,810,16,Scattered clouds,802,c02d,170,8,3.6
2022-05-12T13:00:00,14,14,25,-10.6,114,911,56.6,868,d,0,893,17,1018,0,861,16,Scattered clouds,802,c02d,190,8,1.5
2022-05-12T14:00:00,14,14,45,-7.4,114,911,56.8,870,d,0,893,22,1017,0,818,16,Broken clouds,803,c03d,190,9,6.2
2022-05-12T15:00:00,15,15,75,-6.5,112,899,53,823,d,0,892,22,1016,0,544,16,Overcast clouds,804,c04d,180,10,7.7
2022-05-12T16:00:00,16,16,75,-5.1,107,874,46.2,732,d,0,892,23,1016,0,484,16,Overcast clouds,804,c04d,200,12,7.7
2022-05-12T17:00:00,16,16,75,-4,99,832,37.8,604,d,0,892,25,1015,0,400,16,Overcast clouds,804,c04d,200,9,6.2
2022-05-12T18:00:00,13,13,75,-5.1,88,766,28.7,450,d,0,891,28,1015,0,298,16,Overcast clouds,804,c04d,160,14,10.3
2022-05-12T19:00:00,14,14,75,-4.2,73,663,19.3,285,d,0,889,28,1014,0,189,16,Overcast clouds,804,c04d,170,10,6.2
2022-05-12T20:00:00,13,13,75,-4.1,51,483,10.1,128,d,0,890,30,1013,0,85,16,Overcast clouds,804,c04d,190,7.2,4.1
2022-05-12T21:00:00,11,11,75,-5,15,89,1.4,9,d,0,889,32,1013,0,21,16,Overcast clouds,804,c04n,190,9,4.1
2022-05-12T22:00:00,10,10,45,-3.3,0,0,-6.4,0,n,0,888,39,1013,0,0,16,Broken clouds,803,c03n,160,9,5.7
2022-05-12T23:00:00,8,8,25,-3.2,0,0,-12.8,0,n,0,888,45,1014,0,0,16,Scattered clouds,802,c02n,140,5.6,5.1
2022-05-13T00:00:00,6,3.6,25,-3.1,0,0,-17.5,0,n,0,887,52,1013,0,0,16,Scattered clouds,802,c02n,170,4.4,3.1
2022-05-13T01:00:00,6,4,64,-5,0,0,-20,0,n,0,886,45,1013,0,0,16,Broken clouds,803,c03n,200,3.6,2.6
2022-05-13T02:00:00,4,1.2,73,-4.2,0,0,-20.1,0,n,0,885,55,1012,0,0,16,Overcast clouds,804,c04n,200,3.6,3.1
2022-05-13T03:00:00,5,3.9,45,-6.2,0,0,-17.8,0,n,0,884,44,1011,0,0,16,Broken clouds,803,c03n,190,3.6,1.5
2022-05-13T04:00:00,2,1.4,25,-6.1,0,0,-13.2,0,n,0,884,55,1011,0,0,16,Scattered clouds,802,c02n,170,3.6,1
2022-05-13T05:00:00,0,-0.8,45,-7.9,0,0,-6.9,0,n,0,882,55,1011,0,0,16,Broken clouds,803,c03n,195,3.2,1
2022-05-13T06:00:00,1,-0.8,45,-6.1,11,48,0.8,5,d,0,881,59,1012,0,16,16,Broken clouds,803,c03n,225,3.2,1.6
2022-05-13T07:00:00,2,-0.2,75,-5.2,49,465,9.4,117,d,0,881,59,1011,0,77,16,Overcast clouds,804,c04d,250,4.4,2.1
2022-05-13T08:00:00,7,6.2,75,-6,71,653,18.6,274,d,0,882,39,1011,0,181,16,Overcast clouds,804,c04d,260,5.2,1.5
2022-05-13T09:00:00,9,9,100,-5.2,87,761,28,439,d,0,884,36,1010,0,131,16,Overcast clouds,804,c04d,230,5.6,3.1
2022-05-13T10:00:00,10,10,75,-5.1,98,828,37.3,594,d,0,885,34,1010,0,393,16,Overcast clouds,804,c04d,240,6,4.1
2022-05-13T11:00:00,10,10,75,-5.1,107,872,45.8,725,d,0,885,34,1011,0,480,16,Overcast clouds,804,c04d,290,5.2,3.6
2022-05-13T12:00:00,12,12,75,-4.2,112,898,52.7,820,d,0,885,32,1011,0,542,16,Overcast clouds,804,c04d,290,6,3.1
2022-05-13T13:00:00,12,12,75,-3,114,911,56.9,870,d,0,886,35,1011,0,576,16,Overcast clouds,804,c04d,320,7.7,7.7
2022-05-13T14:00:00,13,13,100,-4.1,114,911,57.1,872,d,0,886,30,1010,0,201,16,Overcast clouds,804,c04d,310,8,5.7
2022-05-13T15:00:00,13,13,100,-4.1,112,900,53.2,826,d,0,886,30,1010,0,195,16,Overcast clouds,804,c04d,280,8,4.6
2022-05-13T16:00:00,13,13,100,-3.3,107,875,46.4,735,d,0,886,32,1010,0,181,16,Overcast clouds,804,c04d,290,7.6,2.4
2022-05-13T17:00:00,13,13,100,-6,99,833,38,607,d,0,886,26,1011,0,160,16,Overcast clouds,804,c04d,300,8.4,3.6
2022-05-13T18:00:00,11,11,75,1,88,768,28.9,453,d,1,886,50,1012,0,300,16,Light rain,500,r01d,70,7.6,7.2
2022-05-13T19:00:00,10,10,100,2.8,73,665,19.5,288,d,1,886,61,1013,0,102,16,Light rain,500,r01d,100,7.2,7.2
2022-05-13T20:00:00,9,9,75,3,52,488,10.3,131,d,0.5,886,66,1013,0,87,16,Overcast clouds,804,c04d,130,4,2.6
2022-05-13T21:00:00,7,5.6,75,1.9,16,103,1.6,11,d,0,886,70,1013,0,23,16,Overcast clouds,804,c04n,200,2.1,2.1
2022-05-13T22:00:00,6,3.6,75,1,0,0,-6.2,0,n,0,886,70,1014,0,0,16,Overcast clouds,804,c04n,200,3.1,3.1
2022-05-13T23:00:00,6,4.4,25,1.9,0,0,-12.6,0,n,0,886,75,1014,0,0,16,Scattered clouds,802,c02n,170,4,2.1
2022-05-14T00:00:00,8,8,75,-5.1,0,0,-17.3,0,n,0,886,39,1013,0,0,16,Overcast clouds,804,c04n,290,9,4.6
2022-05-14T01:00:00,8,8,75,-6.1,0,0,-19.8,0,n,0,887,36,1014,0,0,16,Overcast clouds,804,c04n,310,9,6.2
2022-05-14T02:00:00,7.5,7.5,75,-5.5,0,0,-19.9,0,n,0.5,887,39,1014,0,0,14,Overcast clouds,804,c04n,330,8.4,6
2022-05-14T03:00:00,7,3.5,100,-5,0,0,-17.5,0,n,0.5,887,42,1015,0,0,11,Overcast clouds,804,c04n,350,8,5.7
2022-05-14T04:00:00,7,4.3,75,-5,0,0,-13,0,n,0,887,42,1015,0,0,10,Overcast clouds,804,c04n,350,7,4.1
2022-05-14T05:00:00,6,4.4,75,-4.2,0,0,-6.7,0,n,0,888,48,1015,0,0,11,Overcast clouds,804,c04n,310,7.2,2.1
2022-05-14T06:00:00,5,2.4,75,-5.1,12,61,1,6,d,0,887,48,1016,0,16,16,Overcast clouds,804,c04n,360,6.8,3.1
2022-05-14T07:00:00,4,2.1,75,-6,50,470,9.6,120,d,0,887,48,1016,0,79,16,Overcast clouds,804,c04d,340,6.4,2.1
2022-05-14T08:00:00,6,4.4,45,-5,72,656,18.8,277,d,0,887,45,1017,0,260,16,Broken clouds,803,c03d,360,7,2.1
2022-05-14T09:00:00,9,9,45,-2,87,762,28.2,442,d,0,888,46,1017,0,416,16,Broken clouds,803,c03d,340,7,5.1
2022-05-14T10:00:00,10,10,45,-3.3,99,829,37.4,597,d,0,890,39,1017,0,561,16,Broken clouds,803,c03d,20,8,3.6
2022-05-14T11:00:00,10,10,75,-1.1,107,872,46,727,d,0,890,46,1017,0,481,16,Overcast clouds,804,c04d,30,6.8,2.1
2022-05-14T12:00:00,11,11,75,-1.1,112,898,52.9,822,d,0,890,43,1016,0,544,16,Overcast clouds,804,c04d,60,6.8,2.1
2022-05-14T13:00:00,12,12,75,-2.2,114,911,57.1,872,d,0,890,37,1015,0,577,16,Overcast clouds,804,c04d,90,6,2.1
2022-05-14T14:00:00,11,11,75,-5,115,912,57.3,874,d,0,890,32,1015,0,578,16,Overcast clouds,804,c04d,120,6.8,3.1
2022-05-14T15:00:00,14,14,75,-4.2,112,900,53.4,828,d,0,889,28,1014,0,548,16,Overcast clouds,804,c04d,150,6.4,4.1
2022-05-14T16:00:00,14,14,75,-7.4,107,875,46.6,737,d,0,890,22,1014,0,488,16,Overcast clouds,804,c04d,180,7.6,2.6
2022-05-14T17:00:00,15,15,45,-6.5,99,834,38.2,609,d,0,890,22,1014,0,573,16,Broken clouds,803,c03d,215,8.8,1
2022-05-14T18:00:00,16,16,45,-7.6,88,769,29,456,d,0,890,19,1014,0,429,16,Broken clouds,803,c03d,245,9,1.5
2022-05-14T19:00:00,16,16,45,-8.3,73,667,19.6,291,d,0,890,18,1014,0,274,16,Broken clouds,803,c03d,280,9,5.7
2022-05-14T20:00:00,15,15,45,-7.1,52,492,10.4,134,d,0,891,21,1015,0,126,16,Broken clouds,803,c03d,300,9,8.2
2022-05-14T21:00:00,13,13,25,-7.1,17,116,1.8,13,d,0,891,24,1015,0,30,16,Scattered clouds,802,c02n,280,10,7.2
2022-05-14T22:00:00,12,12,25,-6.4,0,0,-5.9,0,n,0,890,27,1016,0,0,16,Scattered clouds,802,c02n,290,10,7.7
2022-05-14T23:00:00,11,11,25,-6.3,0,0,-12.4,0,n,0,891,29,1017,0,0,16,Scattered clouds,802,c02n,290,10,7.2
2022-05-15T00:00:00,10,10,25,-6.3,0,0,-17,0,n,0,891,31,1018,0,0,16,Scattered clouds,802,c02n,300,10,7.7
2022-05-15T01:00:00,9,9,0,-6,0,0,-19.5,0,n,0,891,34,1018,0,0,16,Clear Sky,800,c01n,310,6.4,5.7
2022-05-15T02:00:00,8,8,25,-6.1,0,0,-19.6,0,n,0,891,36,1018,0,0,16,Scattered clouds,802,c02n,320,6,2.6
2022-05-15T03:00:00,4,2.8,25,-5.2,0,0,-17.3,0,n,0,891,51,1019,0,0,16,Scattered clouds,802,c02n,20,5.6,1.5
2022-05-15T04:00:00,5,4.7,25,-5.1,0,0,-12.8,0,n,0,890,48,1019,0,0,16,Scattered clouds,802,c02n,40,5.2,1
2022-05-15T05:00:00,3,0.4,25,-5.1,0,0,-6.5,0,n,0,890,55,1020,0,0,16,Scattered clouds,802,c02n,10,4.8,2.6
2022-05-15T06:00:00,5,2.4,25,-4,14,75,1.2,8,d,0,890,52,1019,0,22,16,Scattered clouds,802,c02n,320,4.4,3.1
2022-05-15T07:00:00,8,8,45,-3.2,50,475,9.8,123,d,0,891,45,1019,0,116,16,Broken clouds,803,c03d,275,4.8,2.8
2022-05-15T08:00:00,10,10,75,-4,72,658,19,280,d,0,892,37,1019,0,185,16,Overcast clouds,804,c04d,235,4.4,2
2022-05-15T09:00:00,12,12,100,-3,87,763,28.4,444,d,0,893,35,1019,0,131,16,Overcast clouds,804,c04d,190,4.4,2.6
2022-05-15T10:00:00,13,13,100,-5.1,99,830,37.6,599,d,0,894,28,1019,0,159,16,Overcast clouds,804,c04d,270,4,3.1
2022-05-15T11:00:00,14,14,100,-3.3,107,873,46.2,730,d,0,894,30,1018,0,180,16,Overcast clouds,804,c04d,210,4,2.6
2022-05-15T12:00:00,15,15,75,-4.3,112,899,53.2,824,d,0,894,26,1018,0,545,16,Overcast clouds,804,c04d,180,7,4.1
2022-05-15T13:00:00,16,16,75,-4,115,911,57.3,875,d,0,894,25,1017,0,579,16,Overcast clouds,804,c04d,195,7,5.1
2022-05-15T14:00:00,16,16,75,-3,115,912,57.5,877,d,0,894,27,1016,0,580,16,Overcast clouds,804,c04d,210,7.2,3.1
2022-05-15T15:00:00,16,16,75,-5.1,112,900,53.6,830,d,0,893,23,1017,0,549,16,Overcast clouds,804,c04d,240,7.2,2.6
2022-05-15T16:00:00,17,17,75,-4.3,107,876,46.8,740,d,0,893,23,1015,0,490,16,Overcast clouds,804,c04d,175,6.8,4.1
2022-05-15T17:00:00,17,17,75,-4.3,100,834,38.4,612,d,0,893,23,1015,0,405,16,Overcast clouds,804,c04d,115,6.8,1
2022-05-15T18:00:00,18,18,75,-3.4,89,770,29.2,459,d,0,892,23,1014,0,304,16,Overcast clouds,804,c04d,50,6.4,1
2022-05-15T19:00:00,17,17,75,-3.1,74,669,19.8,294,d,0,891,25,1013,0,195,16,Overcast clouds,804,c04d,200,6.4,2.6
2022-05-15T20:00:00,17,17,75,-4.3,53,497,10.6,137,d,0,890,23,1012,0,91,16,Overcast clouds,804,c04d,170,5.6,2.6
2022-05-15T21:00:00,17,17,75,-2.1,19,129,2,15,d,0,890,27,1011,0,29,16,Overcast clouds,804,c04n,150,6,3.6
2022-05-15T22:00:00,17,17,100,-1.1,0,0,-5.8,0,n,0,890,29,1011,0,0,16,Overcast clouds,804,c04n,230,5.6,3.6
2022-05-15T23:00:00,16,16,100,5.3,0,0,-12.2,0,n,0,888,49,1011,0,0,16,Overcast clouds,804,c04n,220,5.2,4.1
2022-05-16T00:00:00,14,14,75,-2,0,0,-16.8,0,n,0,889,33,1010,0,0,16,Overcast clouds,804,c04n,310,5.2,2.1
2022-05-16T01:00:00,12,12,75,-1.9,0,0,-19.3,0,n,0,888,38,1010,0,0,16,Overcast clouds,804,c04n,320,4.8,2.6
2022-05-16T02:00:00,12,12,75,0.8,0,0,-19.4,0,n,0,887,46,1010,0,0,16,Overcast clouds,804,c04n,260,4.4,1
2022-05-16T03:00:00,11,11,75,1.8,0,0,-17.1,0,n,0,887,53,1010,0,0,16,Overcast clouds,804,c04n,250,4.4,1.5
2022-05-16T04:00:00,10,10,25,1.9,0,0,-12.6,0,n,0,886,57,1010,0,0,16,Scattered clouds,802,c02n,230,4.4,2.6
2022-05-16T05:00:00,9,9,25,1,0,0,-6.3,0,n,0,886,57,1010,0,0,16,Scattered clouds,802,c02n,225,5.2,1
2022-05-16T06:00:00,7,4.5,25,1.9,15,87,1.4,9,d,0,885,70,1010,0,24,16,Scattered clouds,802,c02n,220,5.6,3.6
2022-05-16T07:00:00,9,9,25,1.9,51,480,10,126,d,0,884,61,1010,0,125,16,Scattered clouds,802,c02d,230,6.4,4.1
2022-05-16T08:00:00,12,12,45,1.9,72,660,19.1,282,d,0,885,50,1010,0,265,16,Broken clouds,803,c03d,260,6.4,2.6
2022-05-16T09:00:00,15,15,75,1.9,88,764,28.5,447,d,0,887,41,1010,0,296,16,Overcast clouds,804,c04d,300,9,6.2
2022-05-16T10:00:00,17,17,75,3.7,99,831,37.8,602,d,0,888,41,1009,0,398,16,Overcast clouds,804,c04d,300,9,6.2
2022-05-16T11:00:00,18,18,75,-2.3,107,873,46.3,732,d,0,888,25,1009,0,484,16,Overcast clouds,804,c04d,290,9,8.2
2022-05-16T12:00:00,18,18,45,-2.3,112,899,53.4,826,d,0,889,25,1009,0,777,16,Broken clouds,803,c03d,270,8,5.7
2022-05-16T13:00:00,18,18,75,-2.3,115,912,57.6,877,d,0,889,25,1009,0,580,16,Overcast clouds,804,c04d,290,7,4.6
2022-05-16T14:00:00,19,17.5,75,-3.2,115,912,57.8,879,d,0,888,22,1009,0,582,16,Overcast clouds,804,c04d,270,9,6.2
2022-05-16T15:00:00,20,18.6,75,-3,112,901,53.8,833,d,0,889,21,1008,0,551,16,Overcast clouds,804,c04d,270,9,5.7
2022-05-16T16:00:00,20,18.6,75,-3,107,876,47,742,d,0,888,21,1008,0,491,16,Overcast clouds,804,c04d,290,9,6.2
2022-05-16T17:00:00,20,18.6,75,-4.3,100,835,38.6,615,d,0,888,19,1008,0,407,16,Overcast clouds,804,c04d,270,8,3.1
2022-05-16T18:00:00,20,18.6,75,-3,89,771,29.4,461,d,0,888,21,1008,0,305,16,Overcast clouds,804,c04d,280,7,4.6
2022-05-16T19:00:00,20,18.6,75,-2.3,74,671,20,297,d,0,888,22,1007,0,196,16,Overcast clouds,804,c04d,280,9,6.7
2022-05-16T20:00:00,19,17.6,75,-2,53,501,10.8,139,d,0,887,24,1007,0,92,16,Overcast clouds,804,c04d,300,10,7.2
2022-05-16T21:00:00,17,17,75,-1.1,20,141,2.2,17,d,0,887,29,1008,0,31,16,Overcast clouds,804,c04n,280,10,7.2
2022-05-16T22:00:00,15,15,75,-2.9,0,0,-5.6,0,n,0,887,29,1008,0,0,16,Overcast clouds,804,c04n,280,10,5.7
2022-05-16T23:00:00,13,13,45,0.7,0,0,-11.9,0,n,0,887,43,1009,0,0,16,Broken clouds,803,c03n,290,10,7.7
2022-05-17T00:00:00,12,12,25,0.8,0,0,-16.6,0,n,0,886,46,1009,0,0,16,Scattered clouds,802,c02n,280,9,5.7
2022-05-17T01:00:00,11,11,100,1,0,0,-19.1,0,n,0,886,50,1010,0,0,16,Overcast clouds,804,c04n,300,9,3.6
2022-05-17T02:00:00,12,12,75,1.9,0,0,-19.2,0,n,0,886,50,1010,0,0,16,Overcast clouds,804,c04n,300,8,5.1
2022-05-17T03:00:00,12,12,75,-1.2,0,0,-16.9,0,n,0,887,40,1010,0,0,16,Overcast clouds,804,c04n,330,8,5.1
2022-05-17T04:00:00,11,11,75,-2.1,0,0,-12.4,0,n,0,887,40,1012,0,0,16,Overcast clouds,804,c04n,340,9,8.8
2022-05-17T05:00:00,8,8,75,1.8,0,0,-6.1,0,n,0,888,65,1013,0,0,16,Overcast clouds,804,c04n,340,10,8.2
2022-05-17T06:00:00,7,3.2,45,0.9,16,100,1.6,11,d,0,888,65,1014,0,26,16,Broken clouds,803,c03n,340,9,6.7
2022-05-17T07:00:00,8,8,45,1,51,484,10.1,129,d,0,888,61,1015,0,121,16,Broken clouds,803,c03d,350,10,7.2
2022-05-17T08:00:00,9,9,45,1,73,662,19.3,285,d,0,889,57,1016,0,268,16,Broken clouds,803,c03d,360,13,9.8
2022-05-17T09:00:00,10,10,75,0.9,88,765,28.7,450,d,0,890,53,1016,0,298,16,Overcast clouds,804,c04d,10,12,9.3
2022-05-17T10:00:00,11,11,75,1,99,831,38,604,d,0,891,50,1016,0,400,16,Overcast clouds,804,c04d,350,11,8.2
2022-05-17T11:00:00,12,12,75,0.8,107,874,46.5,734,d,0,891,46,1016,0,486,16,Overcast clouds,804,c04d,360,9,6.2
2022-05-17T12:00:00,11,11,100,-0.2,112,899,53.5,829,d,0,891,46,1016,0,195,16,Overcast clouds,804,c04d,50,8.4,4.1
2022-05-17T13:00:00,11,11,100,-0.2,115,912,57.8,879,d,0,891,46,1016,0,203,16,Overcast clouds,804,c04d,360,4.4,3.6
2022-05-17T14:00:00,10,10,100,1.9,115,912,58,881,d,0,891,57,1017,0,203,10,Overcast clouds,804,c04d,345,4.4,0.8
2022-05-17T15:00:00,8,8,100,3.8,112,901,54.1,835,d,1,896,75,1018,0,196,10,Light rain,500,r01d,330,5.2,5.1
2022-05-17T16:00:00,9,9,100,5,108,876,47.2,744,d,0.5,889,76,1018,0,182,16,Overcast clouds,804,c04d,20,6.4,5.7
2022-05-17T17:00:00,8,8,75,3.8,100,836,38.8,617,d,1,890,75,1018,0,408,16,Light rain,500,r01d,30,8.8,2.6
2022-05-17T18:00:00,9,9,100,3.8,89,772,29.6,464,d,0.5,890,70,1018,0,135,16,Overcast clouds,804,c04d,100,5.6,2.1
2022-05-17T19:00:00,9,9,75,3.8,74,673,20.2,300,d,0,890,70,1017,0,198,16,Overcast clouds,804,c04d,120,4.8,3.6
2022-05-17T20:00:00,9,9,75,3,54,506,11,142,d,0,890,66,1018,0,94,16,Overcast clouds,804,c04d,120,3.1,3.1
2022-05-17T21:00:00,8,8,75,1.8,21,153,2.3,18,d,0.5,890,65,1018,0,33,16,Overcast clouds,804,c04n,100,4.8,1
2022-05-17T22:00:00,5,1,75,1.8,0,0,-5.3,0,n,0.5,891,80,1019,0,0,16,Overcast clouds,804,c04n,30,9,5.7
2022-05-17T23:00:00,6,2.5,75,3,0,0,-11.7,0,n,0,889,81,1020,0,0,16,Overcast clouds,804,c04n,350,9,5.1
2022-05-18T00:00:00,5,2.4,75,2.9,0,0,-16.4,0,n,0,897,86,1020,0,0,16,Overcast clouds,804,c04n,340,3.1,3.1
2022-05-18T01:00:00,5,3.3,45,1.8,0,0,-18.9,0,n,0,891,80,1021,0,0,16,Broken clouds,803,c03n,330,2.8,2.1
2022-05-18T02:00:00,4,2.1,25,1.9,0,0,-19,0,n,0,891,86,1020,0,0,16,Scattered clouds,802,c02n,270,2.8,2.1
2022-05-18T03:00:00,4,2.8,8,0.9,0,0,-16.6,0,n,0,895,80,1020,0,0,16,Few clouds,801,c02n,240,2.8,1.5
2022-05-18T04:00:00,2,-0.7,75,-1.1,0,0,-12.2,0,n,0,890,80,1020,0,0,16,Overcast clouds,804,c04n,210,2.6,2.6
2022-05-18T05:00:00,3,-1,25,-0.1,0,0,-5.9,0,n,0,889,80,1020,0,0,16,Scattered clouds,802,c02n,230,4.6,4.6
2022-05-18T06:00:00,3,0.9,75,-0.1,17,112,1.7,12,d,0.25,889,80,1020,0,25,16,Overcast clouds,804,c04n,230,3.2,2.1
2022-05-18T07:00:00,3,0.4,75,-0.1,52,488,10.3,131,d,0.5,889,80,1018,0,87,16,Overcast clouds,804,c04d,240,4.4,2.6
2022-05-18T08:00:00,5,2.1,75,1.8,73,664,19.5,288,d,0.5,888,80,1017,0,191,16,Overcast clouds,804,c04d,200,4.8,3.6
2022-05-18T09:00:00,6,3,100,1.9,88,767,28.9,452,d,0.5,888,75,1016,0,133,16,Overcast clouds,804,c04d,160,10,4.1
2022-05-18T10:00:00,9,9,75,3,99,832,38.1,607,d,0,887,66,1014,0,402,16,Overcast clouds,804,c04d,170,10,6.2
2022-05-18T11:00:00,11,11,45,4.9,107,874,46.7,737,d,0,887,66,1010,0,693,16,Broken clouds,803,c03d,160,16,11.3
2022-05-18T12:00:00,13,13,45,1.7,112,900,53.8,831,d,0,885,46,1008,0,781,16,Broken clouds,803,c03d,170,16,9.8
2022-05-18T13:00:00,14,14,75,-1.2,115,912,58,881,d,0,884,35,1005,0,583,16,Overcast clouds,804,c04d,180,14,10.8
2022-05-18T14:00:00,15,15,45,-1.1,115,912,58.2,883,d,0,882,33,1004,0,830,16,Broken clouds,803,c03d,210,16,9.8
2022-05-18T15:00:00,16,16,75,-2,112,901,54.3,837,d,0,881,29,1002,0,554,16,Overcast clouds,804,c04d,220,11,6.2
2022-05-18T16:00:00,12,12,75,-1.2,108,877,47.4,747,d,0,880,40,1002,0,494,16,Overcast clouds,804,c04d,280,12,7.2
2022-05-18T17:00:00,12,12,75,-2.6,100,836,38.9,620,d,0,878,36,1002,0,410,16,Overcast clouds,804,c04d,290,20,11.8
2022-05-18T18:00:00,12,12,75,-4.2,89,773,29.7,467,d,0.25,877,32,1001,0,309,16,Overcast clouds,804,c04d,280,14,9.3
2022-05-18T19:00:00,12,12,75,-5,75,675,20.3,303,d,0,877,30,1001,0,200,16,Overcast clouds,804,c04d,300,18,12.9
2022-05-18T20:00:00,11,11,45,-6.3,54,510,11.1,145,d,0,877,29,1000,0,136,16,Broken clouds,803,c03d,280,15,9.8
2022-05-18T21:00:00,11,11,45,-7.3,22,165,2.5,20,d,0,876,27,1001,0,41,16,Broken clouds,803,c03n,300,10,7.7
2022-05-18T22:00:00,9,9,75,-7.2,0,0,-5.2,0,n,0,877,31,1002,0,0,16,Overcast clouds,804,c04n,280,8,4.1
2022-05-18T23:00:00,5,2.4,75,-10.7,0,0,-11.5,0,n,0,877,31,1003,0,0,16,Overcast clouds,804,c04n,10,8.4,3.1
2022-05-19T00:00:00,5,3.9,75,0,0,0,-16.2,0,n,0,876,70,1002,0,0,16,Overcast clouds,804,c04n,190,8.8,1.5
2022-05-19T01:00:00,6,2.8,75,-2.1,0,0,-18.6,0,n,0,876,56,1002,0,0,16,Overcast clouds,804,c04n,340,10,4.6
2022-05-19T02:00:00,6,1.7,75,-1.2,0,0,-18.8,0,n,0,877,60,1002,0,0,16,Overcast clouds,804,c04n,330,10,7.2
2022-05-19T03:00:00,5,0.1,75,-2.1,0,0,-16.4,0,n,0,877,60,1002,0,0,16,Overcast clouds,804,c04n,340,11,8.2
2022-05-19T04:00:00,4,-1,75,-1,0,0,-12,0,n,0,876,70,1002,0,0,16,Overcast clouds,804,c04n,340,11,7.7
2022-05-19T05:00:00,4,-1.7,75,0,0,0,-5.7,0,n,0,875,75,1003,0,0,16,Overcast clouds,804,c04n,340,12,9.8
2022-05-19T06:00:00,3,-3,75,-1.2,18,123,1.9,14,d,0,876,74,1003,0,27,16,Overcast clouds,804,c04n,340,12,9.8
2022-05-19T07:00:00,4,-1.8,75,-2.2,52,492,10.5,134,d,0,875,64,1003,0,89,16,Overcast clouds,804,c04d,340,15,10.3
2022-05-19T08:00:00,6,0.7,75,-2.1,73,666,19.6,290,d,0,876,56,1003,0,192,16,Overcast clouds,804,c04d,340,17,10.8
2022-05-19T09:00:00,6,-0.2,100,-3.1,88,767,29,455,d,0,877,52,1003,0,134,16,Overcast clouds,804,c04d,340,21,15.4
2022-05-19T10:00:00,7,1.2,100,-3.2,99,832,38.3,609,d,0.5,877,48,1004,0,160,16,Overcast clouds,804,c04d,340,21,14.9
2022-05-19T11:00:00,5,-0.7,100,-5.1,107,874,46.9,739,d,0.5,878,48,1006,0,181,16,Overcast clouds,804,c04d,340,19,11.3
2022-05-19T12:00:00,4,-2.3,100,1.9,112,900,53.9,833,d,1,878,86,1007,0,195,13,Light rain,500,r01d,340,19,12.4
2022-05-19T13:00:00,5,-1.2,100,1.8,115,912,58.2,883,d,1,878,80,1008,0,203,13,Light rain,500,r01d,340,18,13.4
2022-05-19T14:00:00,5,-1,100,1.8,115,913,58.4,885,d,0.5,879,80,1008,0,204,14,Overcast clouds,804,c04d,340,17,12.4
2022-05-19T15:00:00,6,0.3,100,1.9,113,901,54.5,839,d,1,880,75,1010,0,197,16,Light rain,500,r01d,350,18,12.9
2022-05-19T16:00:00,5,-1,100,1.8,108,877,47.6,749,d,0.5,882,80,1012,0,183,11,Overcast clouds,804,c04d,360,15,12.4
2022-05-19T17:00:00,3,-2.9,100,2,100,837,39.1,622,d,0.5,890,93,1014,0,162,16,Overcast clouds,804,c04d,350,13,9.3
2022-05-19T18:00:00,4,-1.4,100,3,89,774,29.9,469,d,0.5,884,93,1014,0,136,16,Overcast clouds,804,c04d,340,12,8.8
2022-05-19T19:00:00,4,-1.2,100,1.9,75,677,20.5,306,d,0.5,892,86,1016,0,106,16,Overcast clouds,804,c04d,350,12,8.2
2022-05-19T20:00:00,3,-2.9,100,0.9,55,514,11.3,148,d,0.5,886,86,1017,0,70,16,Overcast clouds,804,c04d,350,12,9.3
2022-05-19T21:00:00,3,-2.9,100,0.9,23,176,2.7,22,d,0.5,887,86,1018,0,25,16,Overcast clouds,804,c04n,350,12,9.3
2022-05-19T22:00:00,3,-2.7,100,0.9,0,0,-5,0,n,0.5,887,86,1019,0,0,16,Overcast clouds,804,c04n,350,11,8.8
2022-05-19T23:00:00,2,-3.4,100,1,0,0,-11.3,0,n,0.5,889,93,1020,0,0,16,Overcast clouds,804,c04n,340,13.2,7.2
2022-05-20T00:00:00,2,-3,100,1,0,0,-16,0,n,0.5,889,93,1021,0,0,8,Overcast clouds,804,c04n,350,12.4,6.2
2022-05-20T01:00:00,3,-2.3,100,2,0,0,-18.5,0,n,0,889,93,1021,0,0,16,Overcast clouds,804,c04n,350,9,7.7
2022-05-20T02:00:00,3,-1.5,75,0.9,0,0,-18.5,0,n,0,889,86,1021,0,0,16,Overcast clouds,804,c04n,340,8,5.7
2022-05-20T03:00:00,3,-2.5,75,0.9,0,0,-16.3,0,n,0,890,86,1022,0,0,16,Overcast clouds,804,c04n,350,11,8.2
2022-05-20T04:00:00,2,-3.6,100,1,0,0,-11.8,0,n,0,890,93,1022,0,0,16,Overcast clouds,804,c04n,350,10,7.7
2022-05-20T05:00:00,2,-3.6,100,1,0,0,-5.5,0,n,0,890,93,1023,0,0,14,Overcast clouds,804,c04n,350,11,7.7
2022-05-20T06:00:00,2,-4,75,1,19,134,2.1,15,d,0,891,93,1024,0,29,16,Overcast clouds,804,c04n,350,10.4,8.8
2022-05-20T07:00:00,2,-3.8,75,-0.1,53,496,10.6,136,d,0,891,86,1024,0,90,16,Overcast clouds,804,c04d,350,11.6,8.2
2022-05-20T08:00:00,2,-2.8,75,-1.1,73,668,19.8,293,d,0,892,80,1025,0,194,16,Overcast clouds,804,c04d,320,10,5.7
2022-05-20T09:00:00,3,-1.9,75,-0.1,88,768,29.2,457,d,0,892,80,1026,0,302,16,Overcast clouds,804,c04d,340,10,6.7
2022-05-20T10:00:00,5,-0.4,75,1.8,99,833,38.4,611,d,0,893,80,1025,0,404,16,Overcast clouds,804,c04d,340,13,9.8
2022-05-20T11:00:00,3,-3.1,45,-2.1,107,875,47,741,d,0,894,69,1026,0,697,3,Broken clouds,803,c03d,20,14,10.3
2022-05-20T12:00:00,7,2.5,75,3.8,112,900,54.1,835,d,0,893,80,1025,0,552,16,Overcast clouds,804,c04d,350,11,8.8
2022-05-20T13:00:00,7,2.3,75,-3.2,115,912,58.4,885,d,0,895,48,1025,0,586,16,Overcast clouds,804,c04d,350,12,9.8
2022-05-20T14:00:00,7,2.2,75,-4.1,115,913,58.6,887,d,0,895,45,1025,0,587,16,Overcast clouds,804,c04d,20,12,10.3
2022-05-20T15:00:00,7,2.5,75,-5,113,902,54.7,841,d,0,895,42,1025,0,556,16,Overcast clouds,804,c04d,10,12,8.8
2022-05-20T16:00:00,8,8,75,-5.1,108,878,47.8,751,d,0,895,39,1025,0,497,16,Overcast clouds,804,c04d,350,11,7.7
2022-05-20T17:00:00,8,8,75,-3.2,100,838,39.3,624,d,0,895,45,1025,0,413,16,Overcast clouds,804,c04d,360,10,7.2
2022-05-20T18:00:00,8,8,75,-5.1,90,775,30,472,d,0,896,39,1025,0,312,16,Overcast clouds,804,c04d,10,11,7.2
2022-05-20T19:00:00,6,2.5,75,-2.1,75,679,20.7,308,d,0,896,56,1026,0,204,16,Overcast clouds,804,c04d,340,8,5.1
2022-05-20T20:00:00,6,1.1,75,-6.2,55,518,11.5,151,d,0,896,41,1027,0,100,11,Overcast clouds,804,c04d,360,12,9.3
2022-05-20T21:00:00,5,1.5,100,-3,24,187,2.9,24,d,0,901,56,1027,0,26,11,Overcast clouds,804,c04n,340,6.4,4.6
2022-05-20T22:00:00,4,0.6,100,-3,0,0,-4.8,0,n,0,902,60,1028,0,0,11,Overcast clouds,804,c04n,340,4.4,4.1
2022-05-20T23:00:00,4,0.9,75,-2.2,0,0,-11.1,0,n,0,896,64,1028,0,0,11,Overcast clouds,804,c04n,330,3.6,3.6
2022-05-21T00:00:00,3,-0.3,75,-2.1,0,0,-15.8,0,n,0,896,69,1028,0,0,11,Overcast clouds,804,c04n,350,3.6,3.6
2022-05-21T01:00:00,3,0,75,-3.1,0,0,-18.2,0,n,0,896,64,1028,0,0,16,Overcast clouds,804,c04n,340,3.2,3.1
2022-05-21T02:00:00,2.5,-0.4,75,-3,0,0,-18.3,0,n,0,896,67,1028,0,0,16,Overcast clouds,804,c04n,345,3.6,2.9
2022-05-21T03:00:00,2,-0.7,100,-3.1,0,0,-16,0,n,0,902,69,1028,0,0,16,Overcast clouds,804,c04n,350,3.6,2.6
2022-05-21T04:00:00,1,-1.9,75,-3.1,0,0,-11.6,0,n,0,896,74,1029,0,0,16,Overcast clouds,804,c04n,350,4,2.6
2022-05-21T05:00:00,1,-1.9,75,-3.1,0,0,-5.4,0,n,0,895,74,1029,0,0,16,Overcast clouds,804,c04n,340,4,2.6
2022-05-21T06:00:00,1,-2.4,75,-3.1,20,144,2.2,17,d,0,895,74,1029,0,31,16,Overcast clouds,804,c04n,360,4,3.1
2022-05-21T07:00:00,2,-1.2,100,-3.1,53,500,10.8,139,d,0,896,69,1029,0,67,16,Overcast clouds,804,c04d,350,4,3.1
2022-05-21T08:00:00,4,0.9,100,-3,74,669,19.9,295,d,0,896,60,1029,0,104,16,Overcast clouds,804,c04d,350,4,3.6
2022-05-21T09:00:00,5,2.4,100,-3,89,769,29.3,459,d,0,898,56,1030,0,135,16,Overcast clouds,804,c04d,350,4.4,3.1
2022-05-21T10:00:00,7,6.2,75,-7,99,833,38.6,613,d,0,898,36,1029,0,406,16,Overcast clouds,804,c04d,30,6.4,1.5
2022-05-21T11:00:00,8,8,45,-7.3,107,875,47.2,743,d,0,899,33,1029,0,699,16,Broken clouds,803,c03d,20,5.6,4.6
2022-05-21T12:00:00,7,4.3,75,-8.1,112,900,54.3,836,d,0,899,33,1029,0,553,16,Overcast clouds,804,c04d,360,6.4,4.1
2022-05-21T13:00:00,8,8,100,-9.4,115,912,58.6,886,d,0,902,28,1029,0,204,16,Overcast clouds,804,c04d,40,6,1.5
2022-05-21T14:00:00,9,9,75,-9,115,913,58.8,889,d,0,899,27,1028,0,588,16,Overcast clouds,804,c04d,75,6,2.6
2022-05-21T15:00:00,8,8,75,-9.4,113,902,54.8,843,d,0,899,28,1028,0,558,16,Overcast clouds,804,c04d,110,6,2.1
2022-05-21T16:00:00,9,9,75,-8.1,108,878,47.9,753,d,0,898,29,1028,0,498,16,Overcast clouds,804,c04d,180,5.6,3.1
2022-05-21T17:00:00,11,11,98,-7.3,100,838,39.4,627,d,0,900,27,1027,0,100,16,Overcast clouds,804,c04d,170,5.2,2.6
2022-05-21T18:00:00,9,9,45,-8.1,90,776,30.2,475,d,0,899,29,1027,0,447,16,Broken clouds,803,c03d,140,4.8,2.1
2022-05-21T19:00:00,9,9,75,-8.1,75,681,20.8,311,d,0,898,29,1027,0,206,16,Overcast clouds,804,c04d,135,4,1.5
2022-05-21T20:00:00,9,9,75,-7.2,55,521,11.6,153,d,0,898,31,1026,0,101,16,Overcast clouds,804,c04d,130,4.1,4.1
2022-05-21T21:00:00,8,8,45,-7.3,25,197,3.1,26,d,0,897,33,1026,0,49,16,Broken clouds,803,c03n,140,4.6,4.6
2022-05-21T22:00:00,6,2.8,25,-6.2,0,0,-4.6,0,n,0,897,41,1026,0,0,16,Scattered clouds,802,c02n,170,4.6,4.6
2022-05-21T23:00:00,4,0.6,25,-6,0,0,-11,0,n,0,896,48,1026,0,0,16,Scattered clouds,802,c02n,190,4.8,4.1
2022-05-22T00:00:00,3,-1,25,-5.1,0,0,-15.6,0,n,0,895,55,1026,0,0,16,Scattered clouds,802,c02n,190,4.8,4.6
2022-05-22T01:00:00,3,0.4,25,-4,0,0,-18,0,n,0,895,60,1026,0,0,16,Scattered clouds,802,c02n,200,4.4,2.6
2022-05-22T02:00:00,3,0.9,9,-4,0,0,-18.1,0,n,0,894,60,1026,0,0,16,Few clouds,801,c02n,200,4,2.1
2022-05-22T03:00:00,2,-0.7,5,-5.2,0,0,-15.9,0,n,0,894,59,1025,0,0,16,Few clouds,801,c02n,220,3.6,2.6
2022-05-22T04:00:00,2,0.5,4,-4.1,0,0,-11.4,0,n,0,893,64,1025,0,0,16,Few clouds,801,c02n,220,3.2,1.5
2022-05-22T05:00:00,0,-1.8,3,-5.2,0,0,-5.2,0,n,0,899,68,1025,0,0,16,Few clouds,801,c02n,310,3.2,1.5
2022-05-22T06:00:00,0,-1.8,2,-5,21,154,2.4,19,d,0,892,69,1025,0,40,16,Few clouds,801,c02n,210,3.2,1.5
2022-05-22T07:00:00,2,1.4,25,-4.1,53,503,10.9,141,d,0,891,64,1024,0,140,16,Scattered clouds,802,c02d,220,4.4,1
2022-05-22T08:00:00,5,2.1,25,-4,74,671,20,297,d,0,892,52,1023,0,295,16,Scattered clouds,802,c02d,240,4.4,3.6
2022-05-22T09:00:00,8,8,0,-4.1,89,770,29.4,461,d,0,893,42,1023,0,461,16,Clear Sky,800,c01d,125,4.4,1
2022-05-22T10:00:00,12,12,25,-5,100,834,38.7,615,d,0,895,30,1022,0,610,16,Scattered clouds,802,c02d,10,10,4.6
2022-05-22T11:00:00,12,12,25,-6.4,107,875,47.3,744,d,0,896,27,1022,0,738,16,Scattered clouds,802,c02d,350,10,6.2
2022-05-22T12:00:00,13,13,25,-7.1,112,900,54.5,838,d,0,896,24,1022,0,831,16,Scattered clouds,802,c02d,330,8,4.1
2022-05-22T13:00:00,14,14,100,-7.9,115,913,58.8,888,d,0,896,21,1022,0,204,16,Overcast clouds,804,c04d,30,10,5.7
2022-05-22T14:00:00,15,15,45,-7.1,115,913,59,891,d,0,896,21,1021,0,838,16,Broken clouds,803,c03d,320,9,5.1
2022-05-22T15:00:00,15,15,45,-7.1,113,902,55,845,d,0,896,21,1021,0,795,16,Broken clouds,803,c03d,360,10,5.1
2022-05-22T16:00:00,16,16,45,-7.6,108,878,48.1,755,d,0,896,19,1020,0,710,16,Broken clouds,803,c03d,50,6.4,2.6
2022-05-22T17:00:00,15,15,45,-8.4,100,839,39.6,629,d,0,895,19,1020,0,592,16,Broken clouds,803,c03d,320,5.6,1.5
2022-05-22T18:00:00,17,17,45,-6.1,90,777,30.4,477,d,0,895,20,1020,0,449,16,Broken clouds,803,c03d,320,4.4,3.1
2022-05-22T19:00:00,15,15,45,-7.1,76,683,21,314,d,0,896,21,1019,0,295,16,Broken clouds,803,c03d,280,2.8,1.5
2022-05-22T20:00:00,15,15,98,-8.4,56,525,11.8,156,d,0,895,19,1019,0,81,16,Overcast clouds,804,c04d,250,1.5,1.5
2022-05-22T21:00:00,14,14,45,-7.9,25,207,3.2,28,d,0,894,21,1019,0,26,16,Broken clouds,803,c03n,220,2.4,1.6
2022-05-22T22:00:00,12,12,45,-7.4,0,0,-4.4,0,n,0,894,25,1019,0,0,16,Broken clouds,803,c03n,190,3.6,2.1
2022-05-22T23:00:00,10,10,25,-5.1,0,0,-10.8,0,n,0,894,34,1019,0,0,16,Scattered clouds,802,c02n,200,4.8,3.1
2022-05-23T00:00:00,10,10,25,-5.1,0,0,-15.4,0,n,0,893,34,1019,0,0,16,Scattered clouds,802,c02n,220,5.6,2.6
2022-05-23T01:00:00,10,10,75,-5.1,0,0,-17.9,0,n,0,893,34,1019,0,0,16,Overcast clouds,804,c04n,240,6,2.6
2022-05-23T02:00:00,8,8,25,-5.1,0,0,-18,0,n,0,893,39,1019,0,0,16,Scattered clouds,802,c02n,210,5.6,2.1
2022-05-23T03:00:00,6,5.1,25,-5,0,0,-15.7,0,n,0,892,45,1019,0,0,16,Scattered clouds,802,c02n,220,5.6,1.5
2022-05-23T04:00:00,2,-0.7,45,-6.1,0,0,-11.3,0,n,0,891,55,1019,0,0,16,Broken clouds,803,c03n,230,5.6,2.6
2022-05-23T05:00:00,4,1.6,11,-5.2,0,0,-5.1,0,n,0,894,51,1019,0,0,16,Few clouds,801,c02n,170,6,2.6
2022-05-23T06:00:00,4,2.1,25,-5.2,22,163,2.5,20,d,0,889,51,1018,0,42,16,Scattered clouds,802,c02n,200,6,2.1
2022-05-23T07:00:00,5,2.8,25,-3,54,506,11,143,d,0,889,56,1018,0,142,16,Scattered clouds,802,c02d,180,6,2.6
2022-05-23T08:00:00,10,10,45,-4,74,672,20.2,300,d,0,890,37,1018,0,282,16,Broken clouds,803,c03d,250,6,2.6
2022-05-23T09:00:00,13,13,100,-5.1,89,771,29.6,463,d,0,892,28,1017,0,135,16,Overcast clouds,804,c04d,320,6.4,2.1
2022-05-23T10:00:00,15,15,100,-6.5,100,834,38.8,617,d,0,892,22,1016,0,162,16,Overcast clouds,804,c04d,280,6.8,1
2022-05-23T11:00:00,15,15,25,-8.4,107,875,47.5,746,d,0,893,19,1016,0,740,16,Scattered clouds,802,c02d,240,6.4,3.1
2022-05-23T12:00:00,16,16,45,-6.3,113,901,54.6,840,d,0,893,21,1016,0,790,16,Broken clouds,803,c03d,255,8,2.1
2022-05-23T13:00:00,18,18,45,-7.4,115,913,59,890,d,0,893,17,1015,0,837,16,Broken clouds,803,c03d,265,8,4.6
2022-05-23T14:00:00,17,17,45,-6.1,115,913,59.2,892,d,0,893,20,1015,0,839,16,Broken clouds,803,c03d,280,6,1.6
2022-05-23T15:00:00,18,18,45,-6.6,113,902,55.2,847,d,0,892,18,1014,0,797,16,Broken clouds,803,c03d,290,6,2.6
2022-05-23T16:00:00,17,17,75,-4.3,108,879,48.3,757,d,0,892,23,1015,0,501,16,Overcast clouds,804,c04d,10,6.8,2.6
2022-05-23T17:00:00,18,18,75,-4,101,839,39.8,631,d,0,891,22,1014,0,417,16,Overcast clouds,804,c04d,90,6,2.1
2022-05-23T18:00:00,18,18,75,-5.3,90,778,30.5,480,d,0,891,20,1013,0,318,16,Overcast clouds,804,c04d,200,5.6,2.1
2022-05-23T19:00:00,17,17,75,-6.1,76,684,21.1,316,d,0,891,20,1013,0,209,16,Overcast clouds,804,c04d,240,5.2,3.1
2022-05-23T20:00:00,17,17,75,-5.5,56,528,12,158,d,0,890,21,1013,0,105,16,Overcast clouds,804,c04d,250,14,3.6
2022-05-23T21:00:00,15,15,75,-2,26,216,3.4,30,d,0,891,31,1013,0,46,16,Overcast clouds,804,c04n,30,14,8.8
2022-05-23T22:00:00,14,14,75,-4.2,0,0,-4.3,0,n,0,890,28,1013,0,0,16,Overcast clouds,804,c04n,40,5.2,3.1
2022-05-23T23:00:00,14,14,100,-3.3,0,0,-10.6,0,n,0,890,30,1013,0,0,16,Overcast clouds,804,c04n,310,4.8,2.6
2022-05-24T00:00:00,14,14,75,-4.2,0,0,-15.2,0,n,0,890,28,1013,0,0,16,Overcast clouds,804,c04n,280,4.4,2.1
2022-05-24T01:00:00,12,12,75,-4.2,0,0,-17.7,0,n,0,890,32,1012,0,0,16,Overcast clouds,804,c04n,310,6.4,3.1
2022-05-24T02:00:00,8,8,75,-3.2,0,0,-17.8,0,n,0,889,45,1013,0,0,16,Overcast clouds,804,c04n,340,6.4,2.1
2022-05-24T03:00:00,8,8,45,-3.2,0,0,-15.5,0,n,0,887,45,1013,0,0,16,Broken clouds,803,c03n,350,6.8,2.1
2022-05-24T04:00:00,10,10,45,-4,0,0,-11.1,0,n,0,887,37,1013,0,0,16,Broken clouds,803,c03n,340,8,3.6
2022-05-24T05:00:00,11,11,45,-4.2,0,0,-4.9,0,n,0,888,34,1013,0,0,16,Broken clouds,803,c03n,330,7,4.1
2022-05-24T06:00:00,10,10,75,-4,22,172,2.7,22,d,0,889,37,1014,0,37,16,Overcast clouds,804,c04n,340,8,6.2
2022-05-24T07:00:00,10,10,100,-3.3,54,509,11.2,145,d,0,889,39,1015,0,69,16,Overcast clouds,804,c04d,340,8.4,5.7
2022-05-24T08:00:00,11,11,75,-2.4,74,674,20.3,302,d,0,889,39,1015,0,200,16,Overcast clouds,804,c04d,360,8,5.7
2022-05-24T09:00:00,14,14,75,2.6,89,772,29.7,465,d,0,890,46,1015,0,308,16,Overcast clouds,804,c04d,10,9,6.2
2022-05-24T10:00:00,15,15,75,0.8,100,835,39,619,d,0,891,38,1015,0,410,16,Overcast clouds,804,c04d,360,9.2,5.7
2022-05-24T11:00:00,15,15,45,0.8,108,876,47.6,748,d,0,892,38,1014,0,703,16,Broken clouds,803,c03d,360,7.6,5.1
2022-05-24T12:00:00,15,15,45,-1.1,113,901,54.8,841,d,0,892,33,1014,0,791,16,Broken clouds,803,c03d,320,6,2.6
2022-05-24T13:00:00,16,16,25,-0.2,115,913,59.2,891,d,0,892,33,1014,0,884,16,Scattered clouds,802,c02d,280,4.8,0.4
2022-05-24T14:00:00,16,16,75,-2,115,913,59.4,894,d,0,892,29,1014,0,591,16,Overcast clouds,804,c04d,240,11,2.1
2022-05-24T15:00:00,13,13,75,0.7,113,902,55.4,849,d,0,891,43,1015,0,562,16,Overcast clouds,804,c04d,200,12,7.2
2022-05-24T16:00:00,14,14,100,1,108,879,48.4,759,d,0,890,41,1014,0,184,16,Overcast clouds,804,c04d,20,6.8,2.1
2022-05-24T17:00:00,16,16,100,2.8,101,840,39.9,633,d,0.5,890,41,1013,0,164,16,Overcast clouds,804,c04d,170,6.8,2.1
2022-05-24T18:00:00,16,16,100,1,90,779,30.7,482,d,0.5,890,36,1012,0,138,16,Overcast clouds,804,c04d,155,9,1
2022-05-24T19:00:00,15,15,100,0.8,76,686,21.3,319,d,0,890,38,1012,0,108,16,Overcast clouds,804,c04d,140,8,5.1
2022-05-24T20:00:00,14,14,75,2,57,532,12.1,161,d,0,889,44,1012,0,107,16,Overcast clouds,804,c04d,200,3.1,3.1
2022-05-24T21:00:00,13,13,75,0.7,27,225,3.5,32,d,0,888,43,1011,0,48,16,Overcast clouds,804,c04n,210,2.8,2.1
2022-05-24T22:00:00,13,13,75,0.7,0,0,-4.1,0,n,0,888,43,1011,0,0,16,Overcast clouds,804,c04n,210,3.6,2.1
2022-05-24T23:00:00,13,13,75,0.7,0,0,-10.4,0,n,0,888,43,1011,0,0,16,Overcast clouds,804,c04n,260,4.8,2.1
2022-05-25T00:00:00,12,12,75,-2.2,0,0,-15,0,n,0,888,37,1011,0,0,16,Overcast clouds,804,c04n,280,5.2,3.6
2022-05-25T01:00:00,11,11,45,-2.1,0,0,-17.5,0,n,0,887,40,1011,0,0,16,Broken clouds,803,c03n,250,5.2,1.5
2022-05-25T02:00:00,11,11,45,-2.1,0,0,-17.6,0,n,0,887,40,1011,0,0,16,Broken clouds,803,c03n,290,5.2,1
2022-05-25T03:00:00,10,10,75,-2,0,0,-15.4,0,n,0.25,887,43,1010,0,0,16,Overcast clouds,804,c04n,275,4.8,2.8
2022-05-25T04:00:00,9,9,45,-2,0,0,-10.9,0,n,0,886,46,1011,0,0,16,Broken clouds,803,c03n,260,4.8,2.8
2022-05-25T05:00:00,8,8,75,-1,0,0,-4.8,0,n,0,885,53,1010,0,0,16,Overcast clouds,804,c04n,245,4.8,2.4
2022-05-25T06:00:00,9,9,75,-0.3,23,180,2.8,23,d,0,883,52,1010,0,38,16,Overcast clouds,804,c04n,230,4.8,2.6
2022-05-25T07:00:00,11,11,75,1.8,54,512,11.3,147,d,0,883,53,1010,0,97,16,Overcast clouds,804,c04d,300,5.6,1.5
2022-05-25T08:00:00,12,12,75,0.8,74,675,20.4,304,d,0,883,46,1010,0,201,16,Overcast clouds,804,c04d,290,5.6,2.4
2022-05-25T09:00:00,14,14,75,-1.2,89,772,29.8,467,d,0,883,35,1010,0,309,16,Overcast clouds,804,c04d,280,7,4.6
2022-05-25T10:00:00,15,15,75,-1.1,100,835,39.1,620,d,0,883,33,1010,0,410,16,Overcast clouds,804,c04d,270,7,4.6
2022-05-25T11:00:00,17,17,75,-2.1,108,876,47.7,749,d,0,883,27,1009,0,496,16,Overcast clouds,804,c04d,290,8,6.7
2022-05-25T12:00:00,17,17,62,-1.1,113,901,54.9,843,d,0,883,29,1009,0,694,16,Broken clouds,803,c03d,290,7.6,3.6
2022-05-25T13:00:00,17,17,62,-3.1,115,913,59.3,893,d,0,883,25,1008,0,735,16,Broken clouds,803,c03d,290,7.6,5.7
2022-05-25T14:00:00,17,17,62,-3.1,115,913,59.6,895,d,0,883,25,1008,0,736,16,Broken clouds,803,c03d,360,8.4,3.1
2022-05-25T15:00:00,18,18,62,-3.4,113,903,55.5,850,d,0,883,23,1008,0,699,16,Broken clouds,803,c03d,320,8.8,5.1
2022-05-25T16:00:00,19,17.5,62,-3.2,108,879,48.6,761,d,0,883,22,1008,0,626,16,Broken clouds,803,c03d,250,8,3.1
2022-05-25T17:00:00,19,17.5,62,-4.4,101,840,40,636,d,0,883,20,1008,0,523,16,Broken clouds,803,c03d,300,8,5.1
2022-05-25T18:00:00,19.3,17.8,62,-4.9,90,780,30.8,484,d,0,883,19,1008,0,398,16,Broken clouds,803,c03d,290,11,7.7
2022-05-25T19:00:00,18,18,62,-3.4,76,688,21.4,321,d,0,883,23,1008,0,264,16,Broken clouds,803,c03d,280,13,8.8
2022-05-25T20:00:00,16.8,16.8,62,-3.3,57,535,12.3,163,d,0,883,25,1008,0,134,16,Broken clouds,803,c03d,285,8.3,8.3
2022-05-25T21:00:00,15.5,15.5,62,-3.4,28,234,3.7,34,d,0,882,27,1009,0,56,16,Broken clouds,803,c03n,290,7.8,7.8
2022-05-25T22:00:00,14.3,14.3,62,-3,0,0,-3.9,0,n,0,882,30,1009,0,0,16,Broken clouds,803,c03n,295,7.2,7.2
2022-05-25T23:00:00,13,13,62,-3.3,0,0,-10.3,0,n,0,882,32,1010,0,0,16,Broken clouds,803,c03n,300,6.7,6.7
2022-05-26T00:00:00,12,12,62,-3,0,0,-14.8,0,n,0,882,35,1010,0,0,16,Broken clouds,803,c03n,300,5.7,5.7
2022-05-26T01:00:00,11,11,62,-4.2,0,0,-17.3,0,n,0,882,34,1011,0,0,16,Broken clouds,803,c03n,300,6.8,4.1
2022-05-26T02:00:00,10,10,62,-4,0,0,-17.4,0,n,0,882,37,1011,0,0,16,Broken clouds,803,c03n,330,6.4,3.1
2022-05-26T03:00:00,9,9,62,-4.2,0,0,-15.2,0,n,0,882,39,1012,0,0,16,Broken clouds,803,c03n,330,6.4,3.6
2022-05-26T04:00:00,9,9,62,-4.2,0,0,-10.8,0,n,0,882,39,1012,0,0,16,Broken clouds,803,c03n,330,6.4,2.1
2022-05-26T05:00:00,7,5.6,62,-4.1,0,0,-4.6,0,n,0,882,45,1013,0,0,16,Broken clouds,803,c03n,350,5.6,2.1
2022-05-26T06:00:00,7,6.2,62,-4.1,24,188,2.9,24,d,0,882,45,1013,0,44,16,Broken clouds,803,c03n,310,5.2,1.5
2022-05-26T07:00:00,7,6.2,75,-3.2,55,515,11.4,149,d,0,882,48,1014,0,99,16,Overcast clouds,804,c04d,350,5.6,1.5
2022-05-26T08:00:00,11,11,75,-1.1,75,676,20.5,305,d,0,882,43,1014,0,202,16,Overcast clouds,804,c04d,310,5.6,1
2022-05-26T09:00:00,13,13,75,-2.1,89,773,29.9,469,d,0,882,35,1013,0,310,16,Overcast clouds,804,c04d,265,5.6,1
2022-05-26T10:00:00,16,16,75,-2,100,835,39.2,622,d,0,882,29,1013,0,412,16,Overcast clouds,804,c04d,225,6,0.8
2022-05-26T11:00:00,17,17,75,-1.1,108,876,47.9,751,d,0,882,29,1013,0,497,16,Overcast clouds,804,c04d,180,5.2,2.6
2022-05-26T12:00:00,18,18,75,-2.3,113,901,55.1,844,d,0,882,25,1013,0,558,16,Overcast clouds,804,c04d,170,8,2.6
2022-05-26T13:00:00,18,18,75,-3.4,115,913,59.5,894,d,0,882,23,1012,0,591,16,Overcast clouds,804,c04d,200,7,4.1
2022-05-26T14:00:00,18,18,75,-3.4,115,914,59.7,897,d,0,882,23,1012,0,593,16,Overcast clouds,804,c04d,210,9,3.1
2022-05-26T15:00:00,20,18.5,75,-5,113,903,55.7,852,d,0,882,18,1011,0,564,16,Overcast clouds,804,c04d,310,7,4.1
2022-05-26T16:00:00,20,18.5,75,-5,108,879,48.8,763,d,0,882,18,1011,0,505,16,Overcast clouds,804,c04d,310,7,4.6
2022-05-26T17:00:00,19,17.5,75,-5.1,101,841,40.2,638,d,0,882,19,1011,0,422,16,Overcast clouds,804,c04d,240,6.4,2.4
2022-05-26T18:00:00,20,18.6,100,-4.3,91,781,31,486,d,0,882,19,1010,0,140,16,Overcast clouds,804,c04d,170,5.6,3.6
2022-05-26T19:00:00,20,18.6,100,-3,76,689,21.6,324,d,0,882,21,1009,0,108,16,Overcast clouds,804,c04d,220,4.4,2.1
2022-05-26T20:00:00,19,17.5,100,-3.2,57,538,12.4,166,d,0,882,22,1009,0,74,16,Overcast clouds,804,c04d,170,3.6,3.6
2022-05-26T21:00:00,18,18,75,-2.3,28,242,3.8,36,d,0,882,25,1008,0,52,16,Overcast clouds,804,c04n,310,4.6,4.6
2022-05-26T22:00:00,18,18,75,-2.3,0,0,-3.8,0,n,0,882,25,1008,0,0,16,Overcast clouds,804,c04n,290,4,2.6
2022-05-26T23:00:00,15,15,75,-1.1,0,0,-10.1,0,n,0,882,33,1008,0,0,16,Overcast clouds,804,c04n,285,4.4,1
2022-05-27T00:00:00,16,16,25,-1.1,0,0,-14.7,0,n,0,882,31,1008,0,0,16,Scattered clouds,802,c02n,280,4.8,2.6
2022-05-27T01:00:00,11,11,25,-5.5,0,0,-17.1,0,n,0,882,31,1008,0,0,16,Scattered clouds,802,c02n,360,3.6,1.5
2022-05-27T02:00:00,11,11,100,-1.1,0,0,-17.3,0,n,0,882,43,1008,0,0,16,Overcast clouds,804,c04n,245,4,2.4
2022-05-27T03:00:00,11,11,25,-1.1,0,0,-15,0,n,0,882,43,1007,0,0,16,Scattered clouds,802,c02n,135,4,1
2022-05-27T04:00:00,11,11,45,-0.2,0,0,-10.6,0,n,0,882,46,1007,0,0,16,Broken clouds,803,c03n,20,4.4,2.1
2022-05-27T05:00:00,12,12,75,0.8,0,0,-4.5,0,n,0,882,46,1006,0,0,16,Overcast clouds,804,c04n,125,4.8,2.4
2022-05-27T06:00:00,11,11,75,-1.1,24,195,3,26,d,0,882,43,1006,0,41,16,Overcast clouds,804,c04n,230,4.8,3.6
2022-05-27T07:00:00,12,12,100,-0.2,55,517,11.5,151,d,0,882,43,1006,0,70,16,Overcast clouds,804,c04d,215,5.2,2.4
2022-05-27T08:00:00,12,12,100,3,75,677,20.6,307,d,0,882,54,1005,0,106,16,Overcast clouds,804,c04d,200,4.8,1.5
2022-05-27T09:00:00,14,14,75,2,89,773,30,470,d,0,882,44,1005,0,311,16,Overcast clouds,804,c04d,200,4.8,1
2022-05-27T10:00:00,16,16,75,2.8,100,836,39.3,623,d,0,882,41,1004,0,412,16,Overcast clouds,804,c04d,210,6.8,3.1
2022-05-27T11:00:00,18,18,45,3.9,108,876,48,752,d,0,882,39,1003,0,707,16,Broken clouds,803,c03d,200,8.4,2.6
2022-05-27T12:00:00,20,18.9,45,3.7,113,901,55.2,846,d,0,882,34,1002,0,796,16,Broken clouds,803,c03d,200,9.6,4.1
2022-05-27T13:00:00,22,21,75,3.6,115,913,59.6,896,d,0,882,30,1002,0,593,16,Overcast clouds,804,c04d,230,10,3.1
2022-05-27T14:00:00,21,19.8,75,0.8,115,914,59.9,898,d,0,882,26,1002,0,594,16,Overcast clouds,804,c04d,290,10,3.6
2022-05-27T15:00:00,21,19.8,100,0.8,113,903,55.9,854,d,0,882,26,1001,0,198,16,Overcast clouds,804,c04d,270,8,5.1
2022-05-27T16:00:00,21,19.8,100,0.8,108,880,48.9,765,d,0,882,26,1001,0,185,16,Overcast clouds,804,c04d,250,8,4.1
2022-05-27T17:00:00,20,18.7,100,-1.2,101,841,40.3,640,d,0,882,24,1001,0,165,16,Overcast clouds,804,c04d,280,14,10.8
2022-05-27T18:00:00,19,17.7,100,0.6,91,782,31.1,489,d,0,882,29,1001,0,140,16,Overcast clouds,804,c04d,270,9,6.7
2022-05-27T19:00:00,19,17.7,75,0.6,77,691,21.7,326,d,0,882,29,1001,0,216,16,Overcast clouds,804,c04d,290,10,7.7
2022-05-27T20:00:00,18,18,75,0.6,58,541,12.6,168,d,0,882,31,1001,0,111,16,Overcast clouds,804,c04d,300,11,8.8
2022-05-27T21:00:00,16,16,75,1,29,250,4,38,d,0,881,36,1002,0,54,16,Overcast clouds,804,c04n,290,13,10.3
2022-05-27T22:00:00,14,14,75,-0.8,0,0,-3.6,0,n,0,881,36,1002,0,0,16,Overcast clouds,804,c04n,290,13,9.8
2022-05-27T23:00:00,14,14,75,-1.2,0,0,-9.9,0,n,0,881,35,1003,0,0,16,Overcast clouds,804,c04n,300,12,7.7
2022-05-28T00:00:00,14,14,75,-3.3,0,0,-14.5,0,n,0,882,30,1003,0,0,16,Overcast clouds,804,c04n,290,10,7.7
2022-05-28T01:00:00,13,13,75,-3.3,0,0,-17,0,n,0,882,32,1002,0,0,16,Overcast clouds,804,c04n,300,10,7.2
2022-05-28T02:00:00,12,12,75,-3,0,0,-17.1,0,n,0,881,35,1003,0,0,16,Overcast clouds,804,c04n,350,7.6,3.1
2022-05-28T03:00:00,11,11,75,-3.1,0,0,-14.9,0,n,0,881,37,1003,0,0,16,Overcast clouds,804,c04n,330,7.2,2.6
2022-05-28T04:00:00,11,11,75,-2.1,0,0,-10.5,0,n,0,881,40,1004,0,0,16,Overcast clouds,804,c04n,300,6.8,1.5
2022-05-28T05:00:00,11,11,100,-3.1,0,0,-4.4,0,n,0,881,37,1004,0,0,16,Overcast clouds,804,c04n,280,6.8,2.6
2022-05-28T06:00:00,9,9,75,-3.2,25,202,3.1,27,d,0,881,42,1004,0,43,16,Overcast clouds,804,c04n,150,6,1
2022-05-28T07:00:00,9,9,75,-2,55,519,11.6,152,d,0,880,46,1005,0,101,16,Overcast clouds,804,c04d,20,6.8,1.5
2022-05-28T08:00:00,11,11,75,-4.2,75,678,20.7,309,d,0,885,34,1005,0,204,16,Overcast clouds,804,c04d,330,8,4.6
2022-05-28T09:00:00,13,13,25,-5.1,89,774,30.1,472,d,0,882,28,1004,0,468,16,Scattered clouds,802,c02d,340,8,5.1
2022-05-28T10:00:00,14,14,45,-6.2,100,836,39.4,625,d,0,882,24,1004,0,588,16,Broken clouds,803,c03d,40,7.6,2.6
2022-05-28T11:00:00,15,15,45,-4.3,108,876,48.1,753,d,0,882,26,1004,0,708,16,Broken clouds,803,c03d,30,6,3.1
2022-05-28T12:00:00,16,16,75,-3,113,901,55.3,847,d,0,883,27,1003,0,560,16,Overcast clouds,804,c04d,115,5.6,1.5
2022-05-28T13:00:00,16,16,75,-5.1,115,913,59.8,897,d,0,882,23,1003,0,593,16,Overcast clouds,804,c04d,200,5.2,2.6
2022-05-28T14:00:00,17,17,75,-4.3,115,914,60,900,d,0,882,23,1002,0,595,16,Overcast clouds,804,c04d,240,5.6,1.5
2022-05-28T15:00:00,18,18,75,-5.3,113,903,56,855,d,0,882,20,1002,0,566,16,Overcast clouds,804,c04d,150,6.7,6.7
2022-05-28T16:00:00,17,17,75,-5.5,108,880,49,766,d,0,882,21,1002,0,507,16,Overcast clouds,804,c04d,230,8,2.6
2022-05-28T17:00:00,19,17.5,75,-5.1,101,842,40.5,642,d,0,881,19,1001,0,425,16,Overcast clouds,804,c04d,310,8,3.1
2022-05-28T18:00:00,19,17.5,75,-5.1,91,783,31.2,491,d,0,882,19,1001,0,325,16,Overcast clouds,804,c04d,40,5.2,1.5
2022-05-28T19:00:00,17,17,75,-6.1,77,692,21.8,328,d,0,882,20,1001,0,217,16,Overcast clouds,804,c04d,290,5.2,1.5
2022-05-28T20:00:00,18,18,75,-5.3,58,544,12.7,170,d,0,881,20,1001,0,112,16,Overcast clouds,804,c04d,170,4.1,4.1
2022-05-28T21:00:00,17,17,75,-7.5,30,258,4.2,39,d,0,881,18,1001,0,56,16,Overcast clouds,804,c04n,280,3.6,2.6
2022-05-28T22:00:00,14,14,75,-6.2,0,0,-3.5,0,n,0,881,24,1002,0,0,16,Overcast clouds,804,c04n,330,3.6,3.6
2022-05-28T23:00:00,13,13,75,-6,0,0,-9.8,0,n,0,880,26,1002,0,0,16,Overcast clouds,804,c04n,320,4,1.5
2022-05-29T00:00:00,12,12,45,-5,0,0,-14.4,0,n,0,880,30,1002,0,0,16,Broken clouds,803,c03n,70,4.4,1.5
2022-05-29T01:00:00,11,11,100,-5,0,0,-16.8,0,n,0,881,32,1003,0,0,16,Overcast clouds,804,c04n,310,5.2,2.1
2022-05-29T02:00:00,11,11,100,-5,0,0,-17,0,n,0,881,32,1003,0,0,16,Overcast clouds,804,c04n,310,5.6,2.1
2022-05-29T03:00:00,12,12,75,-5,0,0,-14.7,0,n,0,880,30,1002,0,0,16,Overcast clouds,804,c04n,330,6.4,4.1
2022-05-29T04:00:00,11,11,75,-5,0,0,-10.4,0,n,0,880,32,1003,0,0,16,Overcast clouds,804,c04n,350,8,5.7
2022-05-29T05:00:00,10,10,75,-4,0,0,-4.3,0,n,0,880,37,1003,0,0,16,Overcast clouds,804,c04n,350,8,6.2
2022-05-29T06:00:00,10,10,100,-2,25,208,3.3,28,d,0,880,43,1004,0,28,16,Overcast clouds,804,c04n,350,9,6.2
2022-05-29T07:00:00,9,9,100,-2.9,55,522,11.7,154,d,0,881,43,1005,0,70,16,Overcast clouds,804,c04d,360,8.8,8.2
2022-05-29T08:00:00,9,9,100,-0.1,75,679,20.8,310,d,0,881,53,1006,0,106,16,Overcast clouds,804,c04d,10,11.6,9.8
2022-05-29T09:00:00,10,10,100,0.9,89,774,30.2,473,d,0,882,53,1007,0,136,16,Overcast clouds,804,c04d,360,12,9.8
2022-05-29T10:00:00,11,11,100,-1.1,100,836,39.5,626,d,0,883,43,1007,0,163,16,Overcast clouds,804,c04d,20,12,9.3
2022-05-29T11:00:00,13,13,75,0.7,108,876,48.2,755,d,0.5,884,43,1007,0,499,16,Overcast clouds,804,c04d,10,13,9.3
2022-05-29T12:00:00,13,13,100,-0.3,113,901,55.5,848,d,0,884,40,1008,0,198,16,Overcast clouds,804,c04d,20,11,7.7
2022-05-29T13:00:00,15,15,75,1.5,115,913,59.9,898,d,0,885,40,1008,0,594,16,Overcast clouds,804,c04d,10,9,4.6
2022-05-29T14:00:00,14,14,75,-1.2,115,914,60.2,901,d,0,886,35,1008,0,596,16,Overcast clouds,804,c04d,40,8,4.1
2022-05-29T15:00:00,14,14,100,-0.1,113,903,56.2,857,d,0,885,38,1008,0,199,16,Overcast clouds,804,c04d,10,9,6.2
2022-05-29T16:00:00,15,15,100,0.8,109,880,49.2,768,d,0,886,38,1009,0,186,16,Overcast clouds,804,c04d,20,8,4.1
2022-05-29T17:00:00,15,15,100,-0.3,101,842,40.6,643,d,0,886,35,1009,0,165,16,Overcast clouds,804,c04d,20,9,6.2
2022-05-29T18:00:00,15,15,100,-0.3,91,783,31.4,493,d,0,886,35,1010,0,140,16,Overcast clouds,804,c04d,30,8.4,6.2
2022-05-29T19:00:00,14,14,75,-1.2,77,693,22,330,d,0,887,35,1011,0,218,16,Overcast clouds,804,c04d,20,9.8,9.8
2022-05-29T20:00:00,14,14,75,-0.1,58,547,12.8,172,d,0,887,38,1012,0,114,11,Overcast clouds,804,c04d,10,10.4,8.2
2022-05-29T21:00:00,13,13,100,0.7,30,265,4.3,41,d,0,887,43,1013,0,34,11,Overcast clouds,804,c04n,20,11,9.8
2022-05-29T22:00:00,11,11,75,1,0,0,-3.3,0,n,0,887,50,1014,0,0,11,Overcast clouds,804,c04n,10,11,9.3
2022-05-29T23:00:00,9.5,9.5,100,1.4,0,0,-9.6,0,n,0,888,57,1015,0,0,11,Overcast clouds,804,c04n,10,10,7.2
2022-05-30T00:00:00,8,8,75,1.8,0,0,-14.2,0,n,0,888,65,1016,0,0,16,Overcast clouds,804,c04n,360,9.6,7.2
2022-05-30T01:00:00,8,8,75,1.8,0,0,-16.7,0,n,0,889,65,1017,0,0,16,Overcast clouds,804,c04n,350,12,7.2
2022-05-30T02:00:00,8,8,75,2.9,0,0,-16.8,0,n,0,890,70,1017,0,0,11,Overcast clouds,804,c04n,350,12,10.3
2022-05-30T03:00:00,7,2.5,100,1.9,0,0,-14.6,0,n,0,890,70,1018,0,0,11,Overcast clouds,804,c04n,340,12,8.8
2022-05-30T04:00:00,8,8,100,2.9,0,0,-10.3,0,n,0,890,70,1018,0,0,11,Overcast clouds,804,c04n,350,11,7.7
2022-05-30T05:00:00,7,2.5,100,2.9,0,0,-4.1,0,n,0,891,75,1018,0,0,11,Overcast clouds,804,c04n,350,11,8.8
2022-05-30T06:00:00,7,2.9,100,4,26,214,3.3,30,d,0,891,81,1019,0,29,11,Overcast clouds,804,c04n,350,10,7.7
2022-05-30T07:00:00,7,2.4,100,4,56,524,11.8,155,d,0,891,81,1020,0,72,11,Overcast clouds,804,c04d,350,11,9.3
2022-05-30T08:00:00,7,2.7,100,5,75,680,20.9,312,d,0,892,87,1020,0,106,16,Overcast clouds,804,c04d,350,11,8.2
2022-05-30T09:00:00,8,8,100,3.8,90,775,30.3,475,d,0.5,892,75,1021,0,138,16,Overcast clouds,804,c04d,350,12,8.2
2022-05-30T10:00:00,7,2.7,100,5,100,836,39.6,627,d,0.5,893,87,1022,0,163,8,Overcast clouds,804,c04d,360,11,8.2
2022-05-30T11:00:00,7,3.4,100,5,108,877,48.3,756,d,0,893,87,1023,0,184,16,Overcast clouds,804,c04d,10,10,6.2
2022-05-30T12:00:00,9,9,100,3.8,113,901,55.6,849,d,0,894,70,1023,0,198,16,Overcast clouds,804,c04d,10,10.4,9.3
2022-05-30T13:00:00,10,10,100,1.9,115,913,60.1,899,d,0,895,57,1023,0,205,16,Overcast clouds,804,c04d,360,10,8.8
2022-05-30T14:00:00,11,11,100,2.8,115,914,60.4,902,d,0,899,57,1023,0,205,16,Overcast clouds,804,c04d,350,11,6.7
2022-05-30T15:00:00,14,14,75,2,113,903,56.3,858,d,0,896,44,1022,0,568,16,Overcast clouds,804,c04d,360,13,10.3
2022-05-30T16:00:00,14,14,75,2,109,880,49.3,770,d,0,897,44,1022,0,509,16,Overcast clouds,804,c04d,10,11,9.3
2022-05-30T17:00:00,15,15,75,-3.3,101,843,40.8,645,d,0,897,28,1022,0,427,16,Overcast clouds,804,c04d,10,10,8.2
2022-05-30T18:00:00,15,15,75,-5.4,91,784,31.5,495,d,0,898,24,1023,0,327,16,Overcast clouds,804,c04d,40,11,6.2
2022-05-30T19:00:00,15,15,45,-4.3,77,695,22.1,333,d,0,898,26,1023,0,313,16,Broken clouds,803,c03d,30,10,7.7
2022-05-30T20:00:00,13,13,45,-5.1,59,549,13,175,d,0,898,28,1024,0,165,16,Broken clouds,803,c03d,20,8.8,7.7
2022-05-30T21:00:00,12,12,25,-5,31,271,4.4,43,d,0,898,30,1024,0,43,16,Scattered clouds,802,c02n,20,7.2,7.2
2022-05-30T22:00:00,9,9,25,-4.2,0,0,-3.2,0,n,0,898,39,1025,0,0,16,Scattered clouds,802,c02n,20,4.8,4.6
2022-05-30T23:00:00,9,9,25,-4.2,0,0,-9.5,0,n,0,897,39,1026,0,0,16,Scattered clouds,802,c02n,40,4.8,4.1
