Datetime,Temperature,Apparent Temperature,Cloud Cover,Dew Point,DHI,DNI,Solar Zenith Angle,GHI,Pod,Precipitation,Pressure,Relative Humidity,Sea Level Pressure,Snow Depth,Solar Radiation,Visibility,Weather Description,Weather Code,Weather Icon,Wind Direction,Wind Gust Speed,Wind Speed
2022-08-01T00:00:00,18,18,1,16.9,0,0,-17.4,0,n,0,897,93,1015,0,0,6,Clear Sky,800,c01n,20,4.6,4.6
2022-08-01T01:00:00,17,17,100,15.9,0,0,-20.4,0,n,0,895,93,1015,0,0,8,Overcast clouds,804,c04n,60,5.2,3.6
2022-08-01T02:00:00,16,16,99,14.9,0,0,-20.9,0,n,0,894,93,1014,0,0,8,Overcast clouds,804,c04n,60,4.4,2.1
2022-08-01T03:00:00,16,16,91,14.9,0,0,-19,0,n,0,894,93,1014,0,0,8,Overcast clouds,804,c04n,55,3.2,2
2022-08-01T04:00:00,16,16,82,14.9,0,0,-14.7,0,n,0,894,93,1014,0,0,11,Overcast clouds,804,c04n,50,4.6,4.6
2022-08-01T05:00:00,16,16,80,14.9,0,0,-8.6,0,n,0,893,93,1015,0,0,11,Overcast clouds,804,c04n,20,2.6,2.6
2022-08-01T06:00:00,16,16,35,13.8,0,0,-1.1,0,n,0,894,87,1015,0,0,6,Scattered clouds,802,c02n,20,5.7,5.7
2022-08-01T07:00:00,15,15,35,13.9,42,395,7.4,85,d,0,894,93,1014,0,80,8,Scattered clouds,802,c02d,180,4.8,3.1
2022-08-01T08:00:00,17,17,12,13.9,67,615,16.5,235,d,0,893,82,1013,0,226,8,Few clouds,801,c02d,200,6.2,6.2
2022-08-01T09:00:00,19,18.8,28,13.8,83,734,25.9,398,d,0,893,72,1012,0,378,10,Scattered clouds,802,c02d,210,7.2,4.6
2022-08-01T10:00:00,21.5,21.4,89,14.4,95,808,35.1,555,d,0,893,64,1011,0,197,10,Overcast clouds,804,c04d,190,8,5.9
2022-08-01T11:00:00,24,23.9,29,15,104,856,43.8,690,d,0,893,57,1011,0,653,10,Scattered clouds,802,c02d,170,11,7.2
2022-08-01T12:00:00,25,24.9,14,13.9,110,885,51,790,d,0,893,50,1010,0,759,16,Few clouds,801,c02d,180,11,7.7
2022-08-01T13:00:00,27,27.2,5,14.7,113,900,55.6,848,d,0,893,47,1009,0,814,16,Few clouds,801,c02d,170,10,7.7
2022-08-01T14:00:00,29,28.5,0,13.6,113,902,56.4,858,d,0,893,39,1007,0,826,16,Clear Sky,800,c01d,150,11,7.2
2022-08-01T15:00:00,29,28.5,1,13.6,111,892,53.2,819,d,0,893,39,1007,0,789,16,Clear Sky,800,c01d,130,10,6.7
2022-08-01T16:00:00,30,29.4,0,13.7,107,869,46.9,735,d,0,892,37,1005,0,708,16,Clear Sky,800,c01d,130,10,7.2
2022-08-01T17:00:00,30,29.4,0,13.7,99,830,38.7,613,d,0,891,37,1005,0,590,16,Clear Sky,800,c01d,120,10,7.7
2022-08-01T18:00:00,29,28.4,0,12.8,89,769,29.7,463,d,0,891,37,1004,0,447,16,Clear Sky,800,c01d,110,11,8.2
2022-08-01T19:00:00,28,28.3,1,16,74,671,20.3,300,d,0,890,48,1003,0,287,16,Clear Sky,800,c01d,120,7.7,7.7
2022-08-01T20:00:00,27,27.2,0,14.7,53,502,11,141,d,0,889,47,1003,0,135,16,Clear Sky,800,c01d,80,6.8,4.6
2022-08-01T21:00:00,24,23.9,43,15,19,138,2.1,16,d,0,888,57,1003,0,33,16,Broken clouds,803,c03n,100,16,3.6
2022-08-01T22:00:00,17,17,100,9.9,0,0,-5.9,0,n,0,887,63,1007,0,0,16,Overcast clouds,804,c04n,360,18,9.8
2022-08-01T23:00:00,14,14,100,11,0,0,-12.6,0,n,0,887,82,1007,0,0,16,Overcast clouds,804,c04n,360,9,6.2
2022-08-02T00:00:00,14,14,5,9.8,0,0,-17.7,0,n,0,886,76,1007,0,0,16,Few clouds,801,c02n,340,10,6.7
2022-08-02T01:00:00,15,15,25,10.8,0,0,-20.6,0,n,0.25,886,76,1007,0,0,16,Scattered clouds,802,c02n,350,10,7.2
2022-08-02T02:00:00,15,15,77,10,0,0,-21.2,0,n,0,887,72,1007,0,0,16,Overcast clouds,804,c04n,330,4.8,4.6
2022-08-02T03:00:00,16,16,39,9.9,0,0,-19.2,0,n,0,887,67,1007,0,0,16,Scattered clouds,802,c02n,250,4.4,2.1
2022-08-02T04:00:00,15,15,5,8.9,0,0,-15,0,n,0,888,67,1008,0,0,16,Few clouds,801,c02n,310,4,2.1
2022-08-02T05:00:00,15,15,6,10,0,0,-8.9,0,n,0,888,72,1008,0,0,16,Few clouds,801,c02n,300,3.6,1.5
2022-08-02T06:00:00,15,15,86,10.8,0,0,-1.3,0,n,0.25,887,76,1008,0,0,16,Overcast clouds,804,c04n,60,3.2,2.1
2022-08-02T07:00:00,15,15,43,10,42,389,7.2,82,d,0,888,72,1009,0,78,16,Broken clouds,803,c03d,320,10,2.6
2022-08-02T08:00:00,16,16,2,8,66,612,16.3,231,d,0,887,59,1010,0,231,16,Few clouds,801,c02d,340,10,7.2
2022-08-02T09:00:00,16,16,0,8,83,733,25.7,395,d,0,890,59,1012,0,395,16,Clear Sky,800,c01d,340,13,9.8
2022-08-02T10:00:00,18,18,1,8,95,807,35,552,d,0,890,52,1011,0,552,16,Clear Sky,800,c01d,340,8.4,4.6
2022-08-02T11:00:00,19.5,18.7,5,7.3,104,855,43.5,687,d,0,891,45,1011,0,687,16,Few clouds,801,c02d,340,10.4,3.6
2022-08-02T12:00:00,21,20.2,39,6.9,109,884,50.7,787,d,0,891,40,1011,0,758,16,Scattered clouds,802,c02d,340,10.4,2.6
2022-08-02T13:00:00,23,22.2,5,5.9,113,899,55.3,845,d,0,892,33,1011,0,845,16,Few clouds,801,c02d,40,7.6,2.6
2022-08-02T14:00:00,22,21.2,9,6.7,113,902,56.2,855,d,0,892,37,1011,0,855,16,Few clouds,801,c02d,10,8,6.2
2022-08-02T15:00:00,23,22.2,45,5.9,111,892,53,816,d,0,892,33,1011,0,767,16,Broken clouds,803,c03d,70,7,5.1
2022-08-02T16:00:00,22,21.2,10,6.7,106,869,46.7,732,d,0,893,37,1011,0,732,16,Few clouds,801,c02d,70,8,2.1
2022-08-02T17:00:00,23,22.3,46,7.9,99,829,38.5,609,d,0,892,38,1011,0,570,16,Broken clouds,803,c03d,40,8,4.6
2022-08-02T18:00:00,22,21.4,24,8.9,88,767,29.5,460,d,0,893,43,1012,0,457,16,Scattered clouds,802,c02d,50,7,5.1
2022-08-02T19:00:00,22,21.4,5,8.9,74,668,20,296,d,0,893,43,1012,0,296,16,Few clouds,801,c02d,30,10.8,6.2
2022-08-02T20:00:00,20,19.3,5,9,53,497,10.8,138,d,0,893,49,1013,0,138,16,Few clouds,801,c02d,50,6.8,6.2
2022-08-02T21:00:00,18,18,19,8.8,18,124,1.9,14,d,0,893,55,1013,0,32,16,Few clouds,801,c02n,60,4.1,4.1
2022-08-02T22:00:00,17,17,54,8.9,0,0,-6.1,0,n,0,892,59,1014,0,0,16,Broken clouds,803,c03n,100,3.2,2.1
2022-08-02T23:00:00,16,16,5,9,0,0,-12.9,0,n,0,896,63,1014,0,0,16,Few clouds,801,c02n,120,2.6,2.6
2022-08-03T00:00:00,16,16,5,9,0,0,-17.9,0,n,0,892,63,1013,0,0,16,Few clouds,801,c02n,140,3.6,3.6
2022-08-03T01:00:00,15,15,18,8.9,0,0,-20.9,0,n,0,892,67,1013,0,0,16,Few clouds,801,c02n,170,4.4,3.1
2022-08-03T02:00:00,14,14,89,8.8,0,0,-21.4,0,n,0,892,71,1013,0,0,16,Overcast clouds,804,c04n,180,5.2,4.1
2022-08-03T03:00:00,15,15,90,8.9,0,0,-19.5,0,n,0,891,67,1013,0,0,16,Overcast clouds,804,c04n,190,6,3.6
2022-08-03T04:00:00,15,15,88,8.9,0,0,-15.2,0,n,0,891,67,1012,0,0,16,Overcast clouds,804,c04n,180,6.4,3.6
2022-08-03T05:00:00,15,15,93,8.9,0,0,-9.1,0,n,0,891,67,1011,0,0,16,Overcast clouds,804,c04n,180,6.4,4.1
2022-08-03T06:00:00,14,14,95,8,0,0,-1.5,0,n,1,890,67,1011,0,0,16,Light rain,500,r01n,180,6,3.6
2022-08-03T07:00:00,15,15,94,7.8,41,382,7,79,d,0,889,62,1010,0,62,16,Overcast clouds,804,c04d,180,5.2,3.6
2022-08-03T08:00:00,16,16,91,9,66,609,16.1,228,d,0,889,63,1010,0,79,16,Overcast clouds,804,c04d,190,5.2,4.1
2022-08-03T09:00:00,17,17,92,8.9,83,731,25.5,392,d,0,889,59,1010,0,126,16,Overcast clouds,804,c04d,190,5.2,3.6
2022-08-03T10:00:00,20,19.3,93,9,95,806,34.8,549,d,0,889,49,1009,0,163,16,Overcast clouds,804,c04d,230,5.2,3.6
2022-08-03T11:00:00,20,19.2,94,7.7,104,854,43.3,684,d,0,890,45,1008,0,185,16,Overcast clouds,804,c04d,230,5.6,4.6
2022-08-03T12:00:00,21,20.3,95,8,109,884,50.5,785,d,0,889,43,1008,0,192,16,Overcast clouds,804,c04d,180,5.2,3.6
2022-08-03T13:00:00,23,22.3,95,7.9,112,899,55.1,842,d,0,889,38,1007,0,205,16,Overcast clouds,804,c04d,210,8,2.6
2022-08-03T14:00:00,25,24.4,93,6.7,113,901,55.9,852,d,0,890,31,1007,0,253,16,Overcast clouds,804,c04d,200,7.2,3.1
2022-08-03T15:00:00,26,25.5,95,7.6,111,891,52.7,813,d,0,890,31,1007,0,198,16,Overcast clouds,804,c04d,190,6.4,3.1
2022-08-03T16:00:00,28,26.7,82,3,106,868,46.4,729,d,0,891,20,1006,0,395,16,Overcast clouds,804,c04d,160,6.4,4.6
2022-08-03T17:00:00,26,25.3,60,3.9,99,828,38.3,606,d,0,891,24,1006,0,510,16,Broken clouds,803,c03d,200,5.6,2.1
2022-08-03T18:00:00,26,25.4,95,6.6,88,766,29.2,456,d,0,890,29,1006,0,111,16,Overcast clouds,804,c04d,110,5.2,1.5
2022-08-03T19:00:00,23,22.9,31,14.8,73,665,19.8,293,d,0,890,60,1007,0,276,16,Scattered clouds,802,c02d,20,6.2,6.2
2022-08-03T20:00:00,21,20.9,79,14.9,52,492,10.5,134,d,0,889,68,1007,0,74,16,Overcast clouds,804,c04d,10,6,5.7
2022-08-03T21:00:00,19,18.8,45,13.8,17,108,1.7,12,d,0,888,72,1007,0,28,16,Broken clouds,803,c03n,10,7.2,5.1
2022-08-03T22:00:00,18,18,5,13.9,0,0,-6.3,0,n,0,887,77,1006,0,0,16,Few clouds,801,c02n,350,7.2,5.1
2022-08-03T23:00:00,17,17,24,13.9,0,0,-13.1,0,n,0,887,82,1006,0,0,16,Scattered clouds,802,c02n,340,5.6,4.1
2022-08-04T00:00:00,17,17,42,13.9,0,0,-18.2,0,n,0,886,82,1006,0,0,16,Broken clouds,803,c03n,300,3.1,3.1
2022-08-04T01:00:00,17,17,79,13.9,0,0,-21.2,0,n,0,886,82,1005,0,0,16,Overcast clouds,804,c04n,270,2.4,2.1
2022-08-04T02:00:00,15,15,90,12.9,0,0,-21.7,0,n,0,886,87,1005,0,0,16,Overcast clouds,804,c04n,310,2.8,2.6
2022-08-04T03:00:00,15,15,75,12.9,0,0,-19.7,0,n,0,885,87,1004,0,0,16,Overcast clouds,804,c04n,255,2.4,1
2022-08-04T04:00:00,13,13,89,11.9,0,0,-15.4,0,n,0,884,93,1004,0,0,16,Overcast clouds,804,c04n,200,2.4,2.1
2022-08-04T05:00:00,13,13,83,11.9,0,0,-9.3,0,n,0,883,93,1003,0,0,16,Overcast clouds,804,c04n,230,2.8,2.1
2022-08-04T06:00:00,11,11,0,9.9,0,0,-1.8,0,n,0,882,93,1003,0,0,13,Clear Sky,800,c01n,360,3.6,1.5
2022-08-04T07:00:00,11,11,1,9.9,40,374,6.8,76,d,0,880,93,1004,0,74,13,Clear Sky,800,c01d,10,6,1.5
2022-08-04T08:00:00,13,13,1,13,65,606,15.9,225,d,0,882,100,1004,0,217,6,Fog,741,a05d,330,10,3.1
2022-08-04T09:00:00,15,15,1,13.9,82,730,25.3,389,d,0,883,93,1005,0,374,14,Clear Sky,800,c01d,340,10,6.2
2022-08-04T10:00:00,15,15,15,12.9,95,805,34.6,546,d,0,884,87,1006,0,526,14,Few clouds,801,c02d,350,11,8.2
2022-08-04T11:00:00,17,17,80,11.9,103,854,43.1,681,d,0,884,72,1006,0,371,14,Overcast clouds,804,c04d,350,8.2,8.2
2022-08-04T12:00:00,18,18,78,10.9,109,883,50.3,782,d,0,885,63,1006,0,455,14,Overcast clouds,804,c04d,10,7.2,7.2
2022-08-04T13:00:00,18,18,92,10.9,112,898,54.8,839,d,0.25,886,63,1006,0,244,16,Overcast clouds,804,c04d,10,8,4.1
2022-08-04T14:00:00,19,18.5,94,10.8,113,901,55.7,849,d,0.25,887,59,1006,0,203,16,Overcast clouds,804,c04d,50,7,4.1
2022-08-04T15:00:00,19,18.4,84,9.8,111,891,52.5,810,d,2.5,887,55,1007,0,393,16,Light rain,500,r01d,40,11,8.2
2022-08-04T16:00:00,17,17,6,11.9,106,867,46.2,726,d,1.5,887,72,1008,0,694,16,Light rain,500,r01d,30,6.7,6.7
2022-08-04T17:00:00,19,18.3,86,8.9,99,827,38.1,603,d,1,888,52,1009,0,278,16,Light rain,500,r01d,30,10,8.2
2022-08-04T18:00:00,17,17,86,8.9,88,764,29,453,d,1,887,59,1009,0,209,16,Light rain,500,r01d,360,10,6.7
2022-08-04T19:00:00,15,15,91,8.9,73,663,19.6,289,d,0,892,67,1011,0,100,16,Overcast clouds,804,c04d,10,9,7.7
2022-08-04T20:00:00,13,13,91,7.9,52,486,10.3,131,d,0,893,71,1012,0,97,16,Overcast clouds,804,c04d,360,9,4.6
2022-08-04T21:00:00,13,13,91,5.9,15,92,1.5,10,d,0,892,62,1012,0,18,16,Overcast clouds,804,c04n,220,2.8,2.6
2022-08-04T22:00:00,14,14,93,5.9,0,0,-6.6,0,n,0,892,58,1012,0,0,16,Overcast clouds,804,c04n,230,2.8,2.6
2022-08-04T23:00:00,13,13,28,4.9,0,0,-13.4,0,n,0,892,58,1012,0,0,16,Scattered clouds,802,c02n,240,8,2.6
2022-08-05T00:00:00,11,11,100,4.9,0,0,-18.5,0,n,0,892,66,1013,0,0,16,Overcast clouds,804,c04n,330,8,5.1
2022-08-05T01:00:00,11,11,32,4.9,0,0,-21.4,0,n,0,892,66,1013,0,0,16,Scattered clouds,802,c02n,320,4.6,4.6
2022-08-05T02:00:00,11,11,12,4.9,0,0,-22,0,n,0,892,66,1013,0,0,16,Few clouds,801,c02n,320,6.2,6.2
2022-08-05T03:00:00,11,11,5,4.9,0,0,-20,0,n,0,892,66,1013,0,0,16,Few clouds,801,c02n,310,4.1,4.1
2022-08-05T04:00:00,9,9,5,5,0,0,-15.7,0,n,0,892,76,1014,0,0,16,Few clouds,801,c02n,325,3.6,1
2022-08-05T05:00:00,10,10,5,5,0,0,-9.5,0,n,0,892,71,1015,0,0,16,Few clouds,801,c02n,340,10,2.6
2022-08-05T06:00:00,10,10,36,5,0,0,-2,0,n,0,892,71,1016,0,0,16,Scattered clouds,802,c02n,330,10,7.2
2022-08-05T07:00:00,9,9,5,5,40,367,6.6,73,d,0,892,76,1018,0,73,16,Few clouds,801,c02d,350,5.7,5.7
2022-08-05T08:00:00,10,10,83,6,65,603,15.8,222,d,0,892,76,1019,0,116,16,Overcast clouds,804,c04d,350,7.2,7.2
2022-08-05T09:00:00,11.6,11.6,84,5,82,728,25.1,385,d,0,892,64,1019,0,193,16,Overcast clouds,804,c04d,350,13,8.2
2022-08-05T10:00:00,13,13,79,4.9,95,804,34.4,543,d,0,892,58,1020,0,324,16,Overcast clouds,804,c04d,340,13,9.3
2022-08-05T11:00:00,14,14,94,4.8,103,853,42.9,678,d,0,892,54,1020,0,184,16,Overcast clouds,804,c04d,340,11,8.8
2022-08-05T12:00:00,15,15,100,3.8,109,882,50,779,d,0,892,47,1021,0,187,16,Overcast clouds,804,c04d,330,13,10.3
2022-08-05T13:00:00,16,16,65,3.8,112,898,54.6,837,d,0,892,44,1022,0,663,16,Broken clouds,803,c03d,360,11,8.2
2022-08-05T14:00:00,17,17,84,3,113,900,55.4,846,d,0,892,39,1022,0,425,16,Overcast clouds,804,c04d,350,11,8.8
2022-08-05T15:00:00,17,17,37,3,111,890,52.2,807,d,0,892,39,1022,0,782,16,Scattered clouds,802,c02d,350,11,8.2
2022-08-05T16:00:00,18,18,19,3.9,106,866,46,722,d,0,892,39,1022,0,720,16,Few clouds,801,c02d,360,10,8.2
2022-08-05T17:00:00,18,18,16,3.9,98,826,37.8,599,d,0,892,39,1022,0,598,16,Few clouds,801,c02d,10,9,6.2
2022-08-05T18:00:00,18,18,8,3.9,88,762,28.8,449,d,0,892,39,1022,0,449,16,Few clouds,801,c02d,10,10,4.6
2022-08-05T19:00:00,17,17,11,3,72,660,19.4,285,d,0,892,39,1022,0,285,16,Few clouds,801,c02d,10,10,6.2
2022-08-05T20:00:00,16,16,6,3.8,51,480,10.1,127,d,0,892,44,1023,0,127,16,Few clouds,801,c02d,10,5.2,3.1
2022-08-05T21:00:00,14,14,5,4.8,14,76,1.2,8,d,0,892,54,1023,0,22,16,Few clouds,801,c02n,70,3.6,3.6
2022-08-05T22:00:00,13,13,5,4.9,0,0,-6.8,0,n,0,892,58,1024,0,0,16,Few clouds,801,c02n,100,3.2,2.6
2022-08-05T23:00:00,13,13,78,4.9,0,0,-13.6,0,n,0,892,58,1024,0,0,16,Overcast clouds,804,c04n,110,3.2,2.1
2022-08-06T00:00:00,12,12,0,4,0,0,-18.7,0,n,0,892,58,1024,0,0,16,Clear Sky,800,c01n,180,3.2,3.1
2022-08-06T01:00:00,12,12,5,5,0,0,-21.7,0,n,0,892,62,1024,0,0,16,Few clouds,801,c02n,190,3.2,2.6
2022-08-06T02:00:00,11,11,6,4.9,0,0,-22.2,0,n,0,892,66,1023,0,0,16,Few clouds,801,c02n,190,3.2,1.5
2022-08-06T03:00:00,10,10,6,5,0,0,-20.2,0,n,0,892,71,1023,0,0,16,Few clouds,801,c02n,170,3.2,2.6
2022-08-06T04:00:00,10,10,4,4,0,0,-15.9,0,n,0,892,66,1023,0,0,16,Few clouds,801,c02n,190,3.6,2.1
2022-08-06T05:00:00,8,8,1,2.9,0,0,-9.8,0,n,0,892,70,1022,0,0,16,Clear Sky,800,c01n,180,4.4,3.6
2022-08-06T06:00:00,8,8,0,3.8,0,0,-2.2,0,n,0,892,75,1022,0,0,16,Clear Sky,800,c01n,170,4.8,3.1
2022-08-06T07:00:00,9,9,0,3.8,39,359,6.4,70,d,0,893,70,1022,0,70,16,Clear Sky,800,c01d,190,5.2,2.1
2022-08-06T08:00:00,11,11,0,4.9,65,600,15.6,219,d,0,893,66,1021,0,219,16,Clear Sky,800,c01d,190,5.6,3.6
2022-08-06T09:00:00,13,13,0,3.9,82,726,25,382,d,0,893,54,1021,0,382,16,Clear Sky,800,c01d,200,7.2,4.6
2022-08-06T10:00:00,16,16,0,5,94,803,34.2,540,d,0,893,48,1020,0,540,16,Clear Sky,800,c01d,180,9.2,5.1
2022-08-06T11:00:00,19,18,0,4.7,103,852,42.7,675,d,0,893,39,1019,0,675,16,Clear Sky,800,c01d,180,10.8,7.7
2022-08-06T12:00:00,21,20.1,0,5,109,882,49.8,776,d,0,893,35,1018,0,776,16,Clear Sky,800,c01d,180,10,6.7
2022-08-06T13:00:00,22,21,0,3.6,112,897,54.3,834,d,0,893,30,1017,0,834,16,Clear Sky,800,c01d,170,10,5.1
2022-08-06T14:00:00,23,22.1,0,3,112,899,55.1,843,d,0,893,27,1016,0,843,16,Clear Sky,800,c01d,150,9,5.7
2022-08-06T15:00:00,24,23.1,0,1.6,110,889,51.9,804,d,0,893,23,1016,0,804,16,Clear Sky,800,c01d,150,9,4.1
2022-08-06T16:00:00,25,24.2,0,2.4,106,866,45.7,719,d,0,893,23,1015,0,719,16,Clear Sky,800,c01d,170,8,5.7
2022-08-06T17:00:00,25,24.2,0,3.6,98,825,37.6,596,d,0,893,25,1015,0,596,16,Clear Sky,800,c01d,150,8,5.1
2022-08-06T18:00:00,26,25.2,4,2.7,87,760,28.6,445,d,0,893,22,1014,0,445,16,Few clouds,801,c02d,180,5.7,5.7
2022-08-06T19:00:00,25,24.2,3,3.6,72,657,19.2,281,d,0,893,25,1014,0,281,16,Few clouds,801,c02d,160,9,3.6
2022-08-06T20:00:00,24,23.2,5,3.9,50,474,9.9,123,d,0,893,27,1014,0,123,16,Few clouds,801,c02d,160,9,6.2
2022-08-06T21:00:00,22,21,9,3.6,12,59,1,6,d,0,893,30,1014,0,18,16,Few clouds,801,c02n,160,6.2,6.2
2022-08-06T22:00:00,19,18,62,4.7,0,0,-7.1,0,n,0,893,39,1015,0,0,16,Broken clouds,803,c03n,180,4.4,3.1
2022-08-06T23:00:00,18,18,5,4.9,0,0,-13.9,0,n,0,893,42,1015,0,0,16,Few clouds,801,c02n,190,3.6,3.6
2022-08-07T00:00:00,18,18,5,5.9,0,0,-19,0,n,0,893,45,1014,0,0,16,Few clouds,801,c02n,190,4,3.1
2022-08-07T01:00:00,17,17,35,5,0,0,-22,0,n,0,893,45,1015,0,0,16,Scattered clouds,802,c02n,180,6.4,1
2022-08-07T02:00:00,15,15,5,3.8,0,0,-22.5,0,n,0,893,47,1015,0,0,16,Few clouds,801,c02n,100,6.8,1
2022-08-07T03:00:00,14,14,5,5.9,0,0,-20.5,0,n,0,893,58,1016,0,0,16,Few clouds,801,c02n,20,6.8,4.6
2022-08-07T04:00:00,14,14,5,4.8,0,0,-16.2,0,n,0,893,54,1016,0,0,16,Few clouds,801,c02n,350,6.4,3.1
2022-08-07T05:00:00,15,15,5,5,0,0,-10,0,n,0,893,51,1016,0,0,16,Few clouds,801,c02n,360,6.4,4.1
2022-08-07T06:00:00,16,16,5,5.9,0,0,-2.4,0,n,0,893,51,1017,0,0,16,Few clouds,801,c02n,340,6,4.1
2022-08-07T07:00:00,15,15,5,5.8,38,351,6.2,67,d,0,893,54,1017,0,67,16,Few clouds,801,c02d,330,5.6,3.6
2022-08-07T08:00:00,17,17,7,6.8,64,596,15.4,215,d,0,893,51,1018,0,215,16,Few clouds,801,c02d,200,5.2,2.1
2022-08-07T09:00:00,21,20.3,5,8,82,724,24.8,379,d,0,893,43,1018,0,379,16,Few clouds,801,c02d,330,4.8,1.5
2022-08-07T10:00:00,23,22.2,5,5.9,94,802,34,536,d,0,898,33,1018,0,536,16,Few clouds,801,c02d,330,4,2.1
2022-08-07T11:00:00,24,23.3,1,5.8,103,851,42.5,672,d,0,899,31,1018,0,672,16,Clear Sky,800,c01d,260,4.1,4.1
2022-08-07T12:00:00,25,24.4,0,6.7,109,881,49.5,773,d,0,899,31,1017,0,773,16,Clear Sky,800,c01d,280,6,2.1
2022-08-07T13:00:00,26,25.4,0,5.6,112,896,54,830,d,0,899,27,1017,0,830,16,Clear Sky,800,c01d,200,6.4,4.6
2022-08-07T14:00:00,27,26.3,0,6.9,112,899,54.8,840,d,0,899,28,1016,0,840,16,Clear Sky,800,c01d,180,6.8,3.6
2022-08-07T15:00:00,28,26.9,0,5.6,110,889,51.7,800,d,0,899,24,1015,0,800,16,Clear Sky,800,c01d,210,7,3.6
2022-08-07T16:00:00,29,27.6,0,7,106,865,45.4,715,d,0,899,25,1015,0,715,16,Clear Sky,800,c01d,160,7,3.1
2022-08-07T17:00:00,29,27.6,0,7,98,824,37.4,592,d,0,899,25,1014,0,592,16,Clear Sky,800,c01d,190,8,5.1
2022-08-07T18:00:00,30,28.3,1,6.6,87,759,28.3,441,d,0,898,23,1014,0,441,16,Clear Sky,800,c01d,160,6,5.1
2022-08-07T19:00:00,29,27.7,1,7.6,72,654,18.9,277,d,0,898,26,1014,0,277,16,Clear Sky,800,c01d,180,5.2,3.6
2022-08-07T20:00:00,28,26.9,0,6.7,50,467,9.6,120,d,0,897,26,1013,0,120,16,Clear Sky,800,c01d,180,4.6,4.6
2022-08-07T21:00:00,25,24.4,0,6.7,10,43,0.7,4,d,0,897,31,1013,0,14,16,Clear Sky,800,c01n,190,3.6,3.6
2022-08-07T22:00:00,25,24.3,0,5.7,0,0,-7.3,0,n,0,896,29,1013,0,0,16,Clear Sky,800,c01n,180,2.4,1.5
2022-08-07T23:00:00,24,23.2,0,4.9,0,0,-14.2,0,n,0,896,29,1013,0,0,16,Clear Sky,800,c01n,230,3.2,1.5
2022-08-08T00:00:00,24,23.2,0,3.9,0,0,-19.3,0,n,0,896,27,1012,0,0,16,Clear Sky,800,c01n,280,8,4.6
2022-08-08T01:00:00,24,23.1,0,2.8,0,0,-22.3,0,n,0,897,25,1012,0,0,16,Clear Sky,800,c01n,290,8,5.7
2022-08-08T02:00:00,23,22.1,0,3.5,0,0,-22.8,0,n,0,896,28,1013,0,0,16,Clear Sky,800,c01n,290,6.4,6.2
2022-08-08T03:00:00,22,21,0,3.6,0,0,-20.8,0,n,0,892,30,1013,0,0,16,Clear Sky,800,c01n,280,6,3.1
2022-08-08T04:00:00,17,17,0,4,0,0,-16.4,0,n,0,892,42,1013,0,0,16,Clear Sky,800,c01n,230,5.6,1
2022-08-08T05:00:00,16,16,0,3.8,0,0,-10.2,0,n,0,893,44,1013,0,0,16,Clear Sky,800,c01n,180,5.2,1.5
2022-08-08T06:00:00,17,17,0,4,0,0,-2.6,0,n,0,893,42,1013,0,0,16,Clear Sky,800,c01n,220,4.8,1
2022-08-08T07:00:00,17,17,0,5,37,343,6,64,d,0,893,45,1013,0,64,16,Clear Sky,800,c01d,220,4.8,3.1
2022-08-08T08:00:00,19,18.1,0,5.8,64,593,15.2,212,d,0,893,42,1013,0,212,16,Clear Sky,800,c01d,220,5.6,2.1
2022-08-08T09:00:00,22,21.3,0,7.8,81,723,24.6,376,d,0,894,40,1013,0,376,16,Clear Sky,800,c01d,200,5.2,3.1
2022-08-08T10:00:00,26,25.3,0,4.5,94,801,33.8,533,d,0,895,25,1013,0,533,16,Clear Sky,800,c01d,260,4.4,4.1
2022-08-08T11:00:00,28,26.8,0,5,103,850,42.3,669,d,0,897,23,1012,0,669,16,Clear Sky,800,c01d,290,5.1,5.1
2022-08-08T12:00:00,28,26.8,0,3.7,109,881,49.3,770,d,0,897,21,1013,0,770,16,Clear Sky,800,c01d,280,13,6.7
2022-08-08T13:00:00,26,25.6,1,9.8,112,896,53.8,827,d,0,898,36,1013,0,827,16,Clear Sky,800,c01d,20,13,10.3
2022-08-08T14:00:00,25,24.6,1,10.8,112,898,54.5,837,d,0,897,41,1014,0,811,16,Clear Sky,800,c01d,10,12,10.3
2022-08-08T15:00:00,25,24.7,0,11.9,110,888,51.4,797,d,0,899,44,1015,0,771,16,Clear Sky,800,c01d,10,11,8.2
2022-08-08T16:00:00,25,24.7,0,11.9,105,864,45.2,712,d,0,897,44,1015,0,688,16,Clear Sky,800,c01d,10,12,9.3
2022-08-08T17:00:00,25,24.7,1,11.9,98,822,37.1,588,d,0,897,44,1016,0,569,16,Clear Sky,800,c01d,30,12.8,9.3
2022-08-08T18:00:00,23,22.6,4,10.8,87,757,28.1,437,d,0,900,46,1016,0,424,16,Few clouds,801,c02d,40,10.8,8.8
2022-08-08T19:00:00,22,21.5,5,9.9,71,650,18.7,273,d,0,901,46,1017,0,273,16,Few clouds,801,c02d,30,9.6,6.7
2022-08-08T20:00:00,21,20.4,0,8.9,49,460,9.4,116,d,0,898,46,1018,0,116,16,Clear Sky,800,c01d,30,8,6.2
2022-08-08T21:00:00,19,18.3,0,8.9,8,28,0.5,3,d,0,901,52,1019,0,11,16,Clear Sky,800,c01n,50,6,5.7
2022-08-08T22:00:00,17,17,0,7.9,0,0,-7.6,0,n,0,901,55,1019,0,0,16,Clear Sky,800,c01n,50,4.6,4.6
2022-08-08T23:00:00,16,16,21,7,0,0,-14.4,0,n,0,901,55,1020,0,0,16,Scattered clouds,802,c02n,50,4,2.6
2022-08-09T00:00:00,17,17,69,5.9,0,0,-19.6,0,n,0,901,48,1020,0,0,16,Broken clouds,803,c03n,60,2.8,2.6
2022-08-09T01:00:00,17,17,100,5.9,0,0,-22.6,0,n,0,899,48,1021,0,0,16,Overcast clouds,804,c04n,80,2.8,2.1
2022-08-09T02:00:00,16,16,100,7,0,0,-23.1,0,n,0,899,55,1022,0,0,16,Overcast clouds,804,c04n,110,3.1,3.1
2022-08-09T03:00:00,16,16,100,7,0,0,-21,0,n,0,899,55,1022,0,0,16,Overcast clouds,804,c04n,140,3.6,3.6
2022-08-09T04:00:00,16,16,89,7,0,0,-16.7,0,n,0,899,55,1022,0,0,16,Overcast clouds,804,c04n,170,4.1,4.1
2022-08-09T05:00:00,16,16,52,7,0,0,-10.5,0,n,0,899,55,1023,0,0,16,Broken clouds,803,c03n,160,5.7,5.7
2022-08-09T06:00:00,15,15,17,6.8,0,0,-2.8,0,n,0,899,58,1023,0,0,16,Few clouds,801,c02n,150,4.6,4.6
2022-08-09T07:00:00,14,14,0,6.8,37,335,5.8,62,d,0,898,62,1023,0,62,16,Clear Sky,800,c01d,160,5.2,4.6
2022-08-09T08:00:00,16,16,0,7,63,590,15,209,d,0,897,55,1023,0,209,16,Clear Sky,800,c01d,160,9,5.1
2022-08-09T09:00:00,17,17,0,6.8,81,721,24.4,372,d,0,899,51,1023,0,372,16,Clear Sky,800,c01d,170,9,6.7
2022-08-09T10:00:00,19,18.1,0,6.8,94,800,33.6,530,d,0,900,45,1023,0,530,16,Clear Sky,800,c01d,170,10,7.7
2022-08-09T11:00:00,21,20.1,0,5.8,103,850,42,666,d,0,901,37,1022,0,666,16,Clear Sky,800,c01d,180,11,8.2
2022-08-09T12:00:00,22,21.1,0,5,108,880,49,767,d,0,902,33,1022,0,767,16,Clear Sky,800,c01d,180,11,8.8
2022-08-09T13:00:00,24,23.2,0,4.9,112,895,53.5,824,d,0,901,29,1021,0,824,16,Clear Sky,800,c01d,160,10,7.2
2022-08-09T14:00:00,25,24.3,0,5.7,112,898,54.2,833,d,0,901,29,1020,0,833,16,Clear Sky,800,c01d,160,11,7.2
2022-08-09T15:00:00,26,25.3,10,4.5,110,887,51.1,794,d,0,901,25,1019,0,794,16,Few clouds,801,c02d,170,9,7.2
2022-08-09T16:00:00,27,26.2,22,4.7,105,863,44.9,708,d,0,902,24,1019,0,704,16,Scattered clouds,802,c02d,140,10,6.2
2022-08-09T17:00:00,26,25.4,21,5.6,97,821,36.9,584,d,0,902,27,1019,0,581,16,Scattered clouds,802,c02d,140,8,5.7
2022-08-09T18:00:00,26,25.4,79,6.6,86,755,27.8,433,d,0,901,29,1019,0,258,16,Overcast clouds,804,c04d,120,9,6.2
2022-08-09T19:00:00,24,23.3,86,6.7,71,647,18.5,269,d,0,901,33,1020,0,124,16,Overcast clouds,804,c04d,130,7.7,7.7
2022-08-09T20:00:00,23,22.3,88,7.9,48,453,9.1,112,d,0,901,38,1019,0,95,16,Overcast clouds,804,c04d,110,6.2,6.2
2022-08-09T21:00:00,23,22.3,87,6.7,6,14,0.2,2,d,0,900,35,1019,0,7,16,Overcast clouds,804,c04n,120,5.6,4.1
2022-08-09T22:00:00,22,21.2,84,6.7,0,0,-7.9,0,n,0.25,903,37,1020,0,0,16,Overcast clouds,804,c04n,130,5.2,4.1
2022-08-09T23:00:00,22,21.2,84,6.7,0,0,-14.7,0,n,0,905,37,1020,0,0,16,Overcast clouds,804,c04n,150,7,5.7
2022-08-10T00:00:00,21,20.2,86,6.9,0,0,-19.9,0,n,0,894,40,1020,0,0,16,Overcast clouds,804,c04n,170,7,2.6
2022-08-10T01:00:00,20,19.2,93,6.7,0,0,-22.9,0,n,0,894,42,1020,0,0,16,Overcast clouds,804,c04n,160,6,5.7
2022-08-10T02:00:00,20,19.2,90,7.7,0,0,-23.4,0,n,0,894,45,1019,0,0,16,Overcast clouds,804,c04n,150,4.8,3.6
2022-08-10T03:00:00,19,18.2,91,7.8,0,0,-21.3,0,n,0,894,48,1019,0,0,16,Overcast clouds,804,c04n,160,3.6,3.6
2022-08-10T04:00:00,17,17,89,7.9,0,0,-17,0,n,0,894,55,1019,0,0,16,Overcast clouds,804,c04n,160,2.8,2.6
2022-08-10T05:00:00,17,17,86,8.9,0,0,-10.7,0,n,0,894,59,1019,0,0,16,Overcast clouds,804,c04n,160,3.6,3.6
2022-08-10T06:00:00,17,17,62,8.9,0,0,-3,0,n,0,894,59,1019,0,0,16,Broken clouds,803,c03n,350,2,1.5
2022-08-10T07:00:00,17,17,62,8.9,36,326,5.6,59,d,0,894,59,1019,0,49,16,Broken clouds,803,c03d,130,2.1,2.1
2022-08-10T08:00:00,18,18,62,9.9,63,586,14.8,205,d,0,894,59,1020,0,169,16,Broken clouds,803,c03d,340,2.6,2.6
2022-08-10T09:00:00,19.1,18.5,62,9.9,81,719,24.2,369,d,0,894,55,1020,0,304,14,Broken clouds,803,c03d,305,2.8,2.3
2022-08-10T10:00:00,20.3,19.7,62,10.1,93,799,33.3,527,d,0,894,52,1019,0,434,12,Broken clouds,803,c03d,265,3.6,2
2022-08-10T11:00:00,21.4,20.9,62,10.3,102,849,41.8,662,d,0,894,49,1019,0,545,10,Broken clouds,803,c03d,230,4,1.8
2022-08-10T12:00:00,22.5,22,62,10.3,108,879,48.8,763,d,0,894,46,1019,0,628,8,Broken clouds,803,c03d,190,4.8,1.5
2022-08-10T13:00:00,23.3,22.8,62,10.4,111,895,53.2,821,d,0,894,44,1019,0,676,12,Broken clouds,803,c03d,185,4,1.8
2022-08-10T14:00:00,24,23.6,62,11,112,897,53.9,830,d,0.5,894,44,1019,0,657,16,Broken clouds,803,c03d,180,6,2.1
2022-08-10T15:00:00,24,23.6,62,11,110,887,50.8,790,d,0,894,44,1018,0,625,13,Broken clouds,803,c03d,140,6.4,5.1
2022-08-10T16:00:00,26,25.7,62,11,105,862,44.6,704,d,0,894,39,1018,0,557,13,Broken clouds,803,c03d,160,7.6,4.1
2022-08-10T17:00:00,27,26.7,62,10.7,97,820,36.6,580,d,0,894,36,1018,0,460,16,Broken clouds,803,c03d,180,8,3.1
2022-08-10T18:00:00,26,25.8,62,12.8,86,753,27.6,429,d,0,894,44,1018,0,338,16,Broken clouds,803,c03d,190,5.2,1.5
2022-08-10T19:00:00,27,26.8,62,11.9,70,644,18.2,265,d,0,894,39,1017,0,209,11,Broken clouds,803,c03d,160,4.1,4.1
2022-08-10T20:00:00,25,24.8,62,12.9,47,446,8.9,108,d,0,894,47,1018,0,85,16,Broken clouds,803,c03d,160,5.7,5.7
2022-08-10T21:00:00,25,24.6,62,10.8,4,4,0,1,d,0,894,41,1017,0,5,16,Broken clouds,803,c03n,180,5.7,5.7
2022-08-10T22:00:00,23,22.6,62,11.7,0,0,-8.1,0,n,0,894,49,1017,0,0,16,Broken clouds,803,c03n,170,4.4,3.6
2022-08-10T23:00:00,22,21.6,62,12,0,0,-15,0,n,0,894,53,1017,0,0,16,Broken clouds,803,c03n,180,4.4,2.1
2022-08-11T00:00:00,21,20.6,62,11.9,0,0,-20.2,0,n,0.5,894,56,1017,0,0,16,Broken clouds,803,c03n,190,4,3.1
2022-08-11T01:00:00,21,20.6,91,11.9,0,0,-23.2,0,n,0.25,894,56,1016,0,0,16,Overcast clouds,804,c04n,180,2.8,2.6
2022-08-11T02:00:00,19,18.7,86,13,0,0,-23.7,0,n,0,894,68,1016,0,0,16,Overcast clouds,804,c04n,180,3.1,3.1
2022-08-11T03:00:00,20,19.6,89,12,0,0,-21.6,0,n,0,894,60,1016,0,0,16,Overcast clouds,804,c04n,230,3.1,3.1
2022-08-11T04:00:00,17,17,1,12.9,0,0,-17.2,0,n,0,894,77,1016,0,0,16,Clear Sky,800,c01n,210,3.2,1
2022-08-11T05:00:00,16,16,0,12,0,0,-10.9,0,n,0,894,77,1015,0,0,16,Clear Sky,800,c01n,190,4,2.1
2022-08-11T06:00:00,21,20.4,2,9.9,0,0,-3.3,0,n,0,894,49,1015,0,0,16,Few clouds,801,c02n,190,4.4,1
2022-08-11T07:00:00,19,18.4,5,9.8,35,317,5.4,56,d,0,894,55,1015,0,56,16,Few clouds,801,c02d,190,5.6,2.6
2022-08-11T08:00:00,22,21.5,1,10.8,63,582,14.6,202,d,0,894,49,1016,0,196,16,Clear Sky,800,c01d,240,6,1
2022-08-11T09:00:00,26,25.6,3,9.8,81,717,24,366,d,0,894,36,1015,0,366,16,Few clouds,801,c02d,290,6.4,6.2
2022-08-11T10:00:00,26,25.7,1,11,93,797,33.1,523,d,0,894,39,1015,0,507,16,Clear Sky,800,c01d,280,8,3.1
2022-08-11T11:00:00,29,27.7,0,7.6,102,848,41.6,659,d,0,894,26,1015,0,659,16,Clear Sky,800,c01d,300,8,6.2
2022-08-11T12:00:00,30,28.6,0,9,108,879,48.5,760,d,0,894,27,1015,0,760,16,Clear Sky,800,c01d,310,8,5.1
2022-08-11T13:00:00,31,29.3,0,8.7,111,894,52.9,818,d,0,894,25,1015,0,818,16,Clear Sky,800,c01d,10,10.4,6.7
2022-08-11T14:00:00,29,28,2,10.6,112,896,53.6,827,d,0,894,32,1016,0,802,16,Few clouds,801,c02d,340,12,10.8
2022-08-11T15:00:00,30,28.6,2,9,110,886,50.5,786,d,0,894,27,1016,0,786,16,Few clouds,801,c02d,10,14,10.8
2022-08-11T16:00:00,29,27.6,39,7,105,861,44.3,700,d,0,894,25,1017,0,674,16,Scattered clouds,802,c02d,360,11.8,11.8
2022-08-11T17:00:00,29,27.6,80,7,97,819,36.3,576,d,0,894,25,1017,0,333,16,Overcast clouds,804,c04d,20,9.3,9.3
2022-08-11T18:00:00,28,27.1,89,8.8,86,751,27.3,425,d,0,894,30,1017,0,168,16,Overcast clouds,804,c04d,10,10,7.7
2022-08-11T19:00:00,27,26.7,8,10.7,70,640,18,261,d,0,894,36,1017,0,253,16,Few clouds,801,c02d,20,9,6.7
2022-08-11T20:00:00,25,24.5,6,8.9,47,438,8.6,104,d,0,894,36,1018,0,104,16,Few clouds,801,c02d,360,8.8,8.8
2022-08-11T21:00:00,22,21.4,4,8.9,2,0,-0.3,0,n,0,894,43,1018,0,0,16,Few clouds,801,c02n,360,4.4,1.5
2022-08-11T22:00:00,21,20.5,25,10.8,0,0,-8.4,0,n,0,894,52,1019,0,0,16,Scattered clouds,802,c02n,340,3.6,2.6
2022-08-11T23:00:00,20,19.5,35,11,0,0,-15.3,0,n,0,894,56,1019,0,0,16,Scattered clouds,802,c02n,340,3.6,3.1
2022-08-12T00:00:00,20,19.4,87,9.9,0,0,-20.5,0,n,0,894,52,1019,0,0,16,Overcast clouds,804,c04n,310,4,1.5
2022-08-12T01:00:00,18,18,86,9.9,0,0,-23.5,0,n,0,894,59,1019,0,0,16,Overcast clouds,804,c04n,325,4,1
2022-08-12T02:00:00,16,16,89,9.9,0,0,-24,0,n,0,894,67,1019,0,0,16,Overcast clouds,804,c04n,345,3.6,1
2022-08-12T03:00:00,15,15,0,10,0,0,-21.9,0,n,0,894,72,1019,0,0,16,Clear Sky,800,c01n,360,3.2,2.1
2022-08-12T04:00:00,17,17,0,10.8,0,0,-17.5,0,n,0,894,67,1020,0,0,16,Clear Sky,800,c01n,345,2.8,1
2022-08-12T05:00:00,15,15,0,10,0,0,-11.2,0,n,0,894,72,1020,0,0,16,Clear Sky,800,c01n,330,2.4,2.1
2022-08-12T06:00:00,16,16,79,11,0,0,-3.5,0,n,0,894,72,1019,0,0,16,Overcast clouds,804,c04n,275,2.4,1
2022-08-12T07:00:00,16,16,82,9.9,34,307,5.2,53,d,0,894,67,1020,0,63,16,Overcast clouds,804,c04d,225,2,1
2022-08-12T08:00:00,18,18,0,11.8,62,579,14.4,199,d,0,894,67,1020,0,192,16,Clear Sky,800,c01d,170,2.4,1
2022-08-12T09:00:00,21,20.5,0,10.8,80,715,23.8,362,d,0,894,52,1020,0,351,16,Clear Sky,800,c01d,170,3.2,1
2022-08-12T10:00:00,23,22.4,0,8.7,93,796,32.9,520,d,0,894,40,1019,0,520,16,Clear Sky,800,c01d,200,5.6,3.1
2022-08-12T11:00:00,25,24.4,0,7.6,102,847,41.4,656,d,0,894,33,1019,0,656,16,Clear Sky,800,c01d,120,7.2,4.1
2022-08-12T12:00:00,27,26.5,0,8.9,108,878,48.3,757,d,0,894,32,1019,0,757,16,Clear Sky,800,c01d,180,7,5.1
2022-08-12T13:00:00,27,26.7,1,10.7,111,893,52.6,814,d,0,902,36,1018,0,789,16,Clear Sky,800,c01d,160,7,4.6
2022-08-12T14:00:00,29,27.9,0,9.7,112,896,53.3,823,d,0,901,30,1017,0,823,16,Clear Sky,800,c01d,160,8.4,3.6
2022-08-12T15:00:00,30,28.6,4,9.5,109,885,50.2,783,d,0,901,28,1017,0,783,16,Few clouds,801,c02d,145,7,3.2
2022-08-12T16:00:00,31,29.2,24,6.8,105,860,44.1,696,d,0,901,22,1015,0,691,16,Scattered clouds,802,c02d,130,7,4.1
2022-08-12T17:00:00,31,29.2,10,7.4,97,817,36.1,572,d,0.5,900,23,1015,0,572,16,Few clouds,801,c02d,100,8,3.6
2022-08-12T18:00:00,31,29.2,93,6.8,85,749,27.1,420,d,0.5,900,22,1015,0,125,16,Overcast clouds,804,c04d,120,8.4,6.2
2022-08-12T19:00:00,30,28.8,47,10.5,69,636,17.7,256,d,0,900,30,1015,0,231,16,Broken clouds,803,c03d,130,8.2,8.2
2022-08-12T20:00:00,27,26.8,15,11.9,46,430,8.4,100,d,0,900,39,1015,0,97,16,Few clouds,801,c02d,120,8,5.7
2022-08-12T21:00:00,23,22.6,92,11.7,0,0,-0.6,0,n,1.5,898,49,1015,0,0,16,Light rain,500,r01n,90,8,3.1
2022-08-12T22:00:00,20,19.7,49,13,0,0,-8.7,0,n,2,897,64,1016,0,0,16,Light rain,500,r01n,60,8,5.1
2022-08-12T23:00:00,20,19.5,82,11,0,0,-15.6,0,n,0.25,897,56,1015,0,0,16,Overcast clouds,804,c04n,80,8,4.6
2022-08-13T00:00:00,21,20.4,3,8.9,0,0,-20.8,0,n,0,896,46,1015,0,0,16,Few clouds,801,c02n,130,4.1,4.1
2022-08-13T01:00:00,20,19.4,5,9.9,0,0,-23.8,0,n,0,896,52,1014,0,0,16,Few clouds,801,c02n,170,4.8,3.6
2022-08-13T02:00:00,17,17,48,11.9,0,0,-24.3,0,n,0,895,72,1014,0,0,16,Broken clouds,803,c03n,320,4,1.5
2022-08-13T03:00:00,16,16,87,11,0,0,-22.2,0,n,0,894,72,1014,0,0,16,Overcast clouds,804,c04n,170,4,3.1
2022-08-13T04:00:00,15,15,83,12,0,0,-17.8,0,n,0,894,82,1014,0,0,16,Overcast clouds,804,c04n,10,8,2.6
2022-08-13T05:00:00,16,16,1,9.9,0,0,-11.4,0,n,0,894,67,1014,0,0,16,Clear Sky,800,c01n,300,8,4.1
2022-08-13T06:00:00,15,15,1,10,0,0,-3.7,0,n,0,894,72,1014,0,0,16,Clear Sky,800,c01n,260,3.6,1
2022-08-13T07:00:00,15,15,0,10,33,298,4.9,50,d,0,893,72,1014,0,50,16,Clear Sky,800,c01n,220,4.4,1.5
2022-08-13T08:00:00,18,18,0,8,62,575,14.2,195,d,0,894,52,1014,0,195,16,Clear Sky,800,c01d,220,5.2,2.1
2022-08-13T09:00:00,21,20.4,0,8.9,80,713,23.5,359,d,0,895,46,1014,0,359,16,Clear Sky,800,c01d,220,5.2,3.1
2022-08-13T10:00:00,23,22.4,0,8.7,93,795,32.7,517,d,0,896,40,1014,0,517,16,Clear Sky,800,c01d,230,5.2,3.6
2022-08-13T11:00:00,26,25.5,0,8.9,102,846,41.1,652,d,0,896,34,1014,0,652,16,Clear Sky,800,c01d,220,7.2,2.1
2022-08-13T12:00:00,28,26.7,0,3,108,877,48,753,d,0,897,20,1013,0,753,16,Clear Sky,800,c01d,270,8,2.1
2022-08-13T13:00:00,29,27.5,0,3.8,111,893,52.3,811,d,0,898,20,1013,0,811,16,Clear Sky,800,c01d,210,8,2.8
2022-08-13T14:00:00,30,28.2,45,3.9,111,895,53,820,d,0,898,19,1012,0,771,16,Broken clouds,803,c03d,150,8,3.6
2022-08-13T15:00:00,30,28.2,79,4.6,109,884,49.9,779,d,0.25,897,20,1012,0,464,16,Overcast clouds,804,c04d,230,8,5.1
2022-08-13T16:00:00,28,26.8,78,5,104,859,43.8,692,d,0,897,23,1013,0,424,16,Overcast clouds,804,c04d,310,8.2,8.2
2022-08-13T17:00:00,30,28.2,71,3.9,96,816,35.8,568,d,0,889,19,1012,0,408,16,Overcast clouds,804,c04d,290,8,5.7
2022-08-13T18:00:00,29,27.5,4,3.8,85,746,26.8,416,d,0,889,20,1012,0,416,16,Few clouds,801,c02d,300,8,4.6
2022-08-13T19:00:00,29,27.5,0,3.8,69,632,17.4,252,d,0,896,20,1011,0,252,16,Clear Sky,800,c01d,300,5.2,5.1
2022-08-13T20:00:00,26,25.3,0,4.5,45,421,8.1,96,d,0,896,25,1011,0,96,16,Clear Sky,800,c01d,340,4.1,4.1
2022-08-13T21:00:00,23,22.3,0,6.7,0,0,-0.8,0,n,0,895,35,1012,0,0,16,Clear Sky,800,c01n,340,4.4,3.6
2022-08-13T22:00:00,20,19.2,0,7.7,0,0,-9,0,n,0,895,45,1013,0,0,16,Clear Sky,800,c01n,340,4.4,3.6
2022-08-13T23:00:00,19,18.1,0,6.8,0,0,-15.9,0,n,0,894,45,1013,0,0,16,Clear Sky,800,c01n,350,4.4,2.1
2022-08-14T00:00:00,19,18.1,0,6.8,0,0,-21.1,0,n,0,894,45,1013,0,0,16,Clear Sky,800,c01n,345,5.2,1
2022-08-14T01:00:00,16,16,0,8,0,0,-24.1,0,n,0,894,59,1014,0,0,16,Clear Sky,800,c01n,340,6.4,2.6
2022-08-14T02:00:00,15,15,0,6.8,0,0,-24.6,0,n,0,894,58,1015,0,0,16,Clear Sky,800,c01n,340,7.2,3.1
2022-08-14T03:00:00,13,13,0,6.8,0,0,-22.5,0,n,0,894,66,1016,0,0,16,Clear Sky,800,c01n,20,7.2,3.6
2022-08-14T04:00:00,14,14,0,8,0,0,-18,0,n,0,894,67,1017,0,0,16,Clear Sky,800,c01n,360,6.7,6.7
2022-08-14T05:00:00,13,13,0,7.9,0,0,-11.7,0,n,0,895,71,1017,0,0,16,Clear Sky,800,c01n,340,5.2,4.1
2022-08-14T06:00:00,14,14,0,8,0,0,-4,0,n,0,895,67,1018,0,0,16,Clear Sky,800,c01n,260,4,1
2022-08-14T07:00:00,14,14,49,8,32,287,4.7,47,d,0,896,67,1018,0,43,16,Broken clouds,803,c03n,250,3.2,1.5
2022-08-14T08:00:00,16,16,40,8,61,571,13.9,192,d,0,896,59,1018,0,184,16,Scattered clouds,802,c02d,290,3.6,2.1
2022-08-14T09:00:00,18,18,0,8,80,711,23.3,355,d,0,896,52,1018,0,355,16,Clear Sky,800,c01d,230,2.8,1.5
2022-08-14T10:00:00,20,19.2,0,7.7,93,794,32.5,513,d,0,898,45,1019,0,513,16,Clear Sky,800,c01d,180,3.6,1.5
2022-08-14T11:00:00,22,21.2,0,6.7,102,845,40.9,649,d,0,898,37,1018,0,649,16,Clear Sky,800,c01d,130,5.2,3.1
2022-08-14T12:00:00,23,22.2,0,5.9,108,876,47.8,750,d,0,899,33,1018,0,750,16,Clear Sky,800,c01d,140,6.4,5.1
2022-08-14T13:00:00,25,24.4,0,6.7,111,892,52,807,d,0,899,31,1018,0,807,16,Clear Sky,800,c01d,150,8,5.1
2022-08-14T14:00:00,26,25.4,0,5.6,111,894,52.7,816,d,0,900,27,1017,0,816,16,Clear Sky,800,c01d,150,8,3.6
2022-08-14T15:00:00,27,26.3,0,5.9,109,884,49.6,775,d,0,899,26,1017,0,775,16,Clear Sky,800,c01d,170,7.2,2.6
2022-08-14T16:00:00,27,26.2,0,4.7,104,858,43.5,688,d,0,899,24,1016,0,688,16,Clear Sky,800,c01d,160,9,3.6
2022-08-14T17:00:00,28,26.9,4,5.6,96,814,35.5,563,d,0,899,24,1016,0,563,16,Few clouds,801,c02d,150,9,5.7
2022-08-14T18:00:00,28,26.8,5,5,85,744,26.5,411,d,0,899,23,1015,0,411,16,Few clouds,801,c02d,140,8,4.1
2022-08-14T19:00:00,27,26.2,5,4.7,68,628,17.2,247,d,0,899,24,1015,0,247,16,Few clouds,801,c02d,130,8,4.6
2022-08-14T20:00:00,26,25.3,5,4.5,44,412,7.8,92,d,0,898,25,1015,0,92,16,Few clouds,801,c02d,140,7,4.1
2022-08-14T21:00:00,24,23.3,80,5.8,0,0,-1.1,0,n,0,898,31,1015,0,0,16,Overcast clouds,804,c04n,130,6,3.6
2022-08-14T22:00:00,23,22.2,35,5.9,0,0,-9.3,0,n,0,897,33,1016,0,0,16,Scattered clouds,802,c02n,130,6,4.1
2022-08-14T23:00:00,22,21.1,53,5,0,0,-16.2,0,n,0,897,33,1016,0,0,16,Broken clouds,803,c03n,130,5.6,3.6
2022-08-15T00:00:00,16,16,27,11,0,0,-21.4,0,n,0,897,72,1017,0,0,16,Scattered clouds,802,c02n,360,6.2,6.2
2022-08-15T01:00:00,15,15,1,10,0,0,-24.4,0,n,0,896,72,1018,0,0,16,Clear Sky,800,c01n,360,3.6,3.6
2022-08-15T02:00:00,15,15,1,8.9,0,0,-24.9,0,n,0,896,67,1018,0,0,16,Clear Sky,800,c01n,340,3.6,3.6
2022-08-15T03:00:00,14,14,2,8.8,0,0,-22.8,0,n,0,896,71,1018,0,0,16,Few clouds,801,c02n,350,4,3.1
2022-08-15T04:00:00,14,14,8,8.8,0,0,-18.3,0,n,0,896,71,1018,0,0,16,Few clouds,801,c02n,320,4.4,3.1
2022-08-15T05:00:00,14,14,14,8,0,0,-11.9,0,n,0,896,67,1018,0,0,16,Few clouds,801,c02n,330,4.8,2.6
2022-08-15T06:00:00,13,13,5,7.9,0,0,-4.2,0,n,0,896,71,1018,0,0,16,Few clouds,801,c02n,330,4.8,3.1
2022-08-15T07:00:00,12,12,5,7.9,31,277,4.5,44,d,0,895,76,1018,0,44,16,Few clouds,801,c02n,340,4.4,2.6
2022-08-15T08:00:00,14,14,5,8,61,567,13.7,188,d,0,896,67,1018,0,188,16,Few clouds,801,c02d,320,4.8,2.6
2022-08-15T09:00:00,17,17,10,8.9,79,709,23.1,352,d,0,896,59,1018,0,352,16,Few clouds,801,c02d,340,5.2,3.6
2022-08-15T10:00:00,19,18.4,25,9.8,92,792,32.3,510,d,0,897,55,1018,0,506,16,Scattered clouds,802,c02d,360,5.2,3.6
2022-08-15T11:00:00,22,21.5,25,9.9,102,844,40.7,645,d,0,898,46,1018,0,640,16,Scattered clouds,802,c02d,10,5.6,3.6
2022-08-15T12:00:00,24,23.4,25,8.8,107,876,47.5,747,d,0,899,38,1018,0,741,16,Scattered clouds,802,c02d,330,5.6,4.1
2022-08-15T13:00:00,25,24.4,25,7.6,111,891,51.7,804,d,0,899,33,1018,0,798,16,Scattered clouds,802,c02d,360,5.6,4.1
2022-08-15T14:00:00,25,24.5,93,8.9,111,894,52.4,812,d,0,900,36,1017,0,241,16,Overcast clouds,804,c04d,10,5.2,4.6
2022-08-15T15:00:00,26,25.5,91,7.6,109,883,49.3,771,d,0,899,31,1017,0,267,16,Overcast clouds,804,c04d,40,4.8,4.1
2022-08-15T16:00:00,26,25.4,92,6.6,104,857,43.2,684,d,0,900,29,1017,0,220,16,Overcast clouds,804,c04d,20,5.2,2.1
2022-08-15T17:00:00,27,26.3,45,6.9,96,813,35.2,559,d,0,899,28,1017,0,526,16,Broken clouds,803,c03d,20,6,2.6
2022-08-15T18:00:00,26,25.5,5,7.6,84,742,26.3,407,d,0,899,31,1017,0,407,16,Few clouds,801,c02d,20,4.8,3.1
2022-08-15T19:00:00,25,24.4,12,7.6,68,624,16.9,242,d,1,899,33,1017,0,242,16,Light rain,500,r01d,30,4.6,4.6
2022-08-15T20:00:00,24,23.4,25,7.6,43,403,7.5,88,d,0,899,35,1017,0,87,16,Scattered clouds,802,c02d,30,4.6,4.6
2022-08-15T21:00:00,21,20.4,22,8.9,0,0,-1.4,0,n,0,893,46,1018,0,0,16,Scattered clouds,802,c02n,20,3.2,2.1
2022-08-15T22:00:00,20,19.4,11,9.9,0,0,-9.6,0,n,0,893,52,1018,0,0,16,Few clouds,801,c02n,340,3.2,2.6
2022-08-15T23:00:00,18,18,5,10.9,0,0,-16.5,0,n,0,893,63,1018,0,0,16,Few clouds,801,c02n,350,3.2,1.5
2022-08-16T00:00:00,16,16,7,9.9,0,0,-21.7,0,n,0,893,67,1018,0,0,16,Few clouds,801,c02n,360,3.2,2.1
2022-08-16T01:00:00,16,16,21,9.9,0,0,-24.7,0,n,0,893,67,1018,0,0,16,Scattered clouds,802,c02n,285,1.2,0.8
2022-08-16T02:00:00,15,15,25,10,0,0,-25.2,0,n,0,893,72,1018,0,0,16,Scattered clouds,802,c02n,205,1.6,0.8
2022-08-16T03:00:00,14,14,20,9.8,0,0,-23,0,n,0,893,76,1018,0,0,16,Few clouds,801,c02n,130,2,0.8
2022-08-16T04:00:00,12,12,3,8.8,0,0,-18.6,0,n,0,893,81,1018,0,0,16,Few clouds,801,c02n,50,2,1
2022-08-16T05:00:00,12,12,1,8.8,0,0,-12.2,0,n,0,893,81,1018,0,0,16,Clear Sky,800,c01n,360,2,1.5
2022-08-16T06:00:00,13,13,7,8.9,0,0,-4.4,0,n,0,893,76,1018,0,0,16,Few clouds,801,c02n,220,2.4,1
2022-08-16T07:00:00,12,12,1,8.8,30,266,4.3,41,d,0,893,81,1018,0,41,16,Clear Sky,800,c01n,200,2.4,1
2022-08-16T08:00:00,15,15,5,8.9,60,563,13.5,185,d,0,893,67,1018,0,185,16,Few clouds,801,c02d,160,3.6,1.5
2022-08-16T09:00:00,18.4,17.7,15,8.7,79,707,22.9,348,d,0,893,53,1018,0,348,16,Few clouds,801,c02d,210,3.6,1.5
2022-08-16T10:00:00,21,20.4,1,9.9,92,791,32.1,506,d,0,893,49,1017,0,506,16,Clear Sky,800,c01d,220,4.8,1.5
2022-08-16T11:00:00,24,23.4,1,8.8,101,843,40.4,642,d,0,893,38,1017,0,642,16,Clear Sky,800,c01d,230,6,2.6
2022-08-16T12:00:00,26,25.5,14,7.6,107,875,47.2,743,d,0,893,31,1017,0,742,16,Few clouds,801,c02d,240,5.6,1.5
2022-08-16T13:00:00,28,26.9,8,6.7,110,891,51.4,800,d,0,893,26,1016,0,800,16,Few clouds,801,c02d,260,4.4,1.5
2022-08-16T14:00:00,29,27.6,25,5.8,111,893,52.1,808,d,0,893,23,1016,0,801,16,Scattered clouds,802,c02d,275,4.4,1.3
2022-08-16T15:00:00,30,28.2,98,4.6,109,882,49,767,d,0,893,20,1016,0,123,16,Overcast clouds,804,c04d,295,4,1
2022-08-16T16:00:00,30,28.2,100,2.3,104,856,42.9,680,d,0,893,17,1016,0,172,16,Overcast clouds,804,c04d,310,4,2.6
2022-08-16T17:00:00,29,27.5,33,3.8,96,811,34.9,554,d,0,893,20,1016,0,543,16,Scattered clouds,802,c02d,350,8,2.6
2022-08-16T18:00:00,27,26.3,80,6.9,84,739,26,402,d,0,893,28,1016,0,233,16,Overcast clouds,804,c04d,50,8,5.1
2022-08-16T19:00:00,27,26.5,52,8.9,67,620,16.6,238,d,0,893,32,1016,0,215,16,Broken clouds,803,c03d,40,9.2,4.1
2022-08-16T20:00:00,26,25.5,94,7.6,42,393,7.3,83,d,0,893,31,1017,0,64,16,Overcast clouds,804,c04d,30,9.2,5.1
2022-08-16T21:00:00,22,21.8,92,13.9,0,0,-1.7,0,n,0,893,60,1018,0,0,16,Overcast clouds,804,c04n,350,11,6.2
2022-08-16T22:00:00,19,18.8,100,13.8,0,0,-9.9,0,n,0,893,72,1019,0,0,16,Overcast clouds,804,c04n,340,12,8.2
2022-08-16T23:00:00,19,18.6,52,11.8,0,0,-16.8,0,n,0,893,63,1020,0,0,16,Broken clouds,803,c03n,10,11,7.2
2022-08-17T00:00:00,16,16,80,12.9,0,0,-22,0,n,0,893,82,1021,0,0,16,Overcast clouds,804,c04n,330,5.6,3.1
2022-08-17T01:00:00,16,16,82,12,0,0,-25,0,n,0,893,77,1022,0,0,16,Overcast clouds,804,c04n,310,6.8,2.1
2022-08-17T02:00:00,17,17,44,10.8,0,0,-25.5,0,n,0,893,67,1022,0,0,16,Broken clouds,803,c03n,270,6,1.5
2022-08-17T03:00:00,14,14,64,11,0,0,-23.4,0,n,0,893,82,1022,0,0,16,Broken clouds,803,c03n,330,5.2,2.6
2022-08-17T04:00:00,14,14,5,11,0,0,-18.8,0,n,0,893,82,1023,0,0,16,Few clouds,801,c02n,10,4.8,1.5
2022-08-17T05:00:00,14,14,3,11,0,0,-12.4,0,n,0,893,82,1023,0,0,16,Few clouds,801,c02n,330,4.8,2.6
2022-08-17T06:00:00,14,14,1,11,0,0,-4.6,0,n,0,893,82,1024,0,0,16,Clear Sky,800,c01n,350,4,2.1
2022-08-17T07:00:00,15,15,14,10.8,29,255,4.1,39,d,0,893,76,1024,0,38,16,Few clouds,801,c02n,340,4,3.6
2022-08-17T08:00:00,16,16,25,12,60,559,13.3,181,d,0,893,77,1025,0,173,16,Scattered clouds,802,c02d,340,4.8,3.6
2022-08-17T09:00:00,18,18,25,11.8,79,704,22.7,345,d,0,892,67,1025,0,331,16,Scattered clouds,802,c02d,340,5.2,2.6
2022-08-17T10:00:00,20,19.6,5,12,92,790,31.8,503,d,0,892,60,1025,0,486,16,Few clouds,801,c02d,20,4.8,3.1
2022-08-17T11:00:00,22,21.5,5,10.8,101,842,40.2,638,d,0,892,49,1025,0,618,16,Few clouds,801,c02d,30,4.4,3.6
2022-08-17T12:00:00,23,22.6,4,10.8,107,874,46.9,739,d,0,892,46,1025,0,716,16,Few clouds,801,c02d,90,4.8,2.6
2022-08-17T13:00:00,24,23.4,8,8.8,110,890,51.1,796,d,0,892,38,1025,0,796,16,Few clouds,801,c02d,150,6.4,2.1
2022-08-17T14:00:00,25,24.5,12,9.7,111,892,51.8,805,d,0,892,38,1024,0,804,16,Few clouds,801,c02d,90,6,1.6
2022-08-17T15:00:00,26,25.6,3,9.8,108,881,48.6,763,d,0,892,36,1024,0,763,16,Few clouds,801,c02d,30,4.8,2.6
2022-08-17T16:00:00,27,26.6,6,9.8,103,855,42.6,676,d,0,892,34,1024,0,676,16,Few clouds,801,c02d,40,4.8,2.1
2022-08-17T17:00:00,27,26.6,22,9.8,95,810,34.7,550,d,0,892,34,1023,0,547,16,Scattered clouds,802,c02d,90,7,3.1
2022-08-17T18:00:00,27,26.6,0,9.8,83,737,25.7,397,d,0,892,34,1023,0,397,16,Clear Sky,800,c01d,110,7,2.1
2022-08-17T19:00:00,26,25.6,0,9.8,67,616,16.3,233,d,0,892,36,1023,0,233,16,Clear Sky,800,c01d,90,4.8,4.1
2022-08-17T20:00:00,24,23.5,0,9.9,41,383,7,79,d,0,892,41,1023,0,79,16,Clear Sky,800,c01d,90,4.6,4.6
2022-08-17T21:00:00,22,21.5,0,9.9,0,0,-2,0,n,0,892,46,1023,0,0,16,Clear Sky,800,c01n,80,4.1,4.1
2022-08-17T22:00:00,21,20.4,0,9.9,0,0,-10.2,0,n,0,892,49,1023,0,0,16,Clear Sky,800,c01n,90,4.6,4.6
2022-08-17T23:00:00,19,18.4,0,9.8,0,0,-17.1,0,n,0,892,55,1024,0,0,16,Clear Sky,800,c01n,90,3.6,3.6
2022-08-18T00:00:00,18,18,0,8.8,0,0,-22.4,0,n,0,892,55,1024,0,0,16,Clear Sky,800,c01n,80,3.6,1
2022-08-18T01:00:00,18,18,0,8.8,0,0,-25.4,0,n,0,892,55,1024,0,0,16,Clear Sky,800,c01n,65,3.6,1
2022-08-18T02:00:00,17,17,0,8.9,0,0,-25.8,0,n,0,892,59,1024,0,0,16,Clear Sky,800,c01n,55,3.6,2
2022-08-18T03:00:00,16,16,0,9,0,0,-23.6,0,n,0,892,63,1024,0,0,16,Clear Sky,800,c01n,45,3.2,1.6
2022-08-18T04:00:00,15,15,0,8.9,0,0,-19.1,0,n,0,892,67,1024,0,0,16,Clear Sky,800,c01n,35,3.2,1.6
2022-08-18T05:00:00,14,14,0,8.8,0,0,-12.7,0,n,0,892,71,1023,0,0,16,Clear Sky,800,c01n,20,3.2,1
2022-08-18T06:00:00,14,14,0,8,0,0,-4.9,0,n,0,892,67,1023,0,0,16,Clear Sky,800,c01n,10,3.2,1
2022-08-18T07:00:00,12,12,0,7.9,28,243,3.9,36,d,0,892,76,1023,0,36,16,Clear Sky,800,c01n,340,3.6,1.5
2022-08-18T08:00:00,14,14,0,8.8,59,555,13.1,178,d,0,892,71,1023,0,178,16,Clear Sky,800,c01d,340,5.2,1.5
2022-08-18T09:00:00,18,18,0,8.8,78,702,22.5,341,d,0,892,55,1023,0,341,16,Clear Sky,800,c01d,275,6,1.6
2022-08-18T10:00:00,20,19.3,0,9,92,788,31.6,499,d,0,901,49,1022,0,499,16,Clear Sky,800,c01d,210,7.6,1.5
2022-08-18T11:00:00,22,21.4,0,8.9,101,841,39.9,635,d,0,901,43,1022,0,635,16,Clear Sky,800,c01d,150,8,3.6
2022-08-18T12:00:00,25,24.5,0,9.7,107,873,46.7,736,d,0,902,38,1021,0,736,16,Clear Sky,800,c01d,160,8,4.6
2022-08-18T13:00:00,28,27.2,0,9.8,110,889,50.8,793,d,0,903,32,1020,0,793,16,Clear Sky,800,c01d,190,8,4.1
2022-08-18T14:00:00,29,27.8,0,8.7,111,891,51.4,801,d,0,903,28,1019,0,801,16,Clear Sky,800,c01d,160,8,6.2
2022-08-18T15:00:00,30,28.6,0,9,108,880,48.3,759,d,0,903,27,1019,0,759,16,Clear Sky,800,c01d,140,8,4.6
2022-08-18T16:00:00,30,28.6,0,9,103,854,42.3,671,d,0,903,27,1019,0,671,16,Clear Sky,800,c01d,150,7,4.6
2022-08-18T17:00:00,30,28.4,0,7.8,95,808,34.3,545,d,0,903,25,1018,0,545,16,Clear Sky,800,c01d,140,7,4.6
2022-08-18T18:00:00,30,28.6,0,9,83,734,25.4,392,d,0,902,27,1018,0,392,16,Clear Sky,800,c01d,160,8,5.7
2022-08-18T19:00:00,29,27.8,1,8.7,66,611,16,228,d,0,902,28,1018,0,228,16,Clear Sky,800,c01d,120,9,8.8
2022-08-18T20:00:00,27,26.6,1,9.8,40,372,6.7,75,d,0,902,34,1018,0,75,16,Clear Sky,800,c01d,120,10,6.7
2022-08-18T21:00:00,25,24.5,22,9.7,0,0,-2.3,0,n,0,901,38,1018,0,0,16,Scattered clouds,802,c02n,110,6.7,6.7
2022-08-18T22:00:00,23,22.5,25,9.8,0,0,-10.5,0,n,0,900,43,1019,0,0,16,Scattered clouds,802,c02n,120,5.7,5.7
2022-08-18T23:00:00,22,21.5,25,9.9,0,0,-17.4,0,n,0,900,46,1019,0,0,16,Scattered clouds,802,c02n,150,5.1,5.1
2022-08-19T00:00:00,20,19.5,25,11,0,0,-22.7,0,n,0,900,56,1019,0,0,16,Scattered clouds,802,c02n,180,4.8,2.6
2022-08-19T01:00:00,20,19.4,25,9.9,0,0,-25.7,0,n,0,899,52,1019,0,0,16,Scattered clouds,802,c02n,170,4.8,2.6
2022-08-19T02:00:00,20,19.4,87,9.9,0,0,-26.1,0,n,0,899,52,1018,0,0,16,Overcast clouds,804,c04n,160,4.4,4.1
2022-08-19T03:00:00,19,18.3,12,8.9,0,0,-24,0,n,0,899,52,1018,0,0,16,Few clouds,801,c02n,160,4.1,4.1
2022-08-19T04:00:00,18,18,11,8.8,0,0,-19.4,0,n,0,896,55,1017,0,0,16,Few clouds,801,c02n,160,4.4,3.6
2022-08-19T05:00:00,17,17,3,8.9,0,0,-12.9,0,n,0,898,59,1017,0,0,16,Few clouds,801,c02n,160,4.4,2.1
2022-08-19T06:00:00,17,17,14,8.9,0,0,-5.1,0,n,0,897,59,1017,0,0,16,Few clouds,801,c02n,160,4,2.6
2022-08-19T07:00:00,16,16,4,9,27,231,3.6,33,d,0,897,63,1017,0,33,16,Few clouds,801,c02n,190,4,2.1
2022-08-19T08:00:00,17,17,2,9.9,59,550,12.9,174,d,0,896,63,1017,0,174,16,Few clouds,801,c02d,180,5.2,2.6
2022-08-19T09:00:00,20,19.4,15,9.9,78,700,22.3,337,d,0,897,52,1017,0,337,16,Few clouds,801,c02d,190,6.4,4.1
2022-08-19T10:00:00,22,21.4,14,8.9,91,787,31.4,495,d,0,898,43,1017,0,494,16,Few clouds,801,c02d,190,8,5.7
2022-08-19T11:00:00,24,23.4,81,8.8,101,840,39.7,631,d,0,898,38,1016,0,354,16,Overcast clouds,804,c04d,150,9.6,6.2
2022-08-19T12:00:00,28,27.1,47,8.8,107,873,46.4,732,d,0,899,30,1015,0,681,16,Broken clouds,803,c03d,150,11,6.2
2022-08-19T13:00:00,30,28.3,93,6.6,110,889,50.5,789,d,0,900,23,1014,0,234,16,Overcast clouds,804,c04d,170,11,7.7
2022-08-19T14:00:00,30,28.4,94,7.8,110,891,51.1,797,d,0,900,25,1014,0,216,16,Overcast clouds,804,c04d,150,11,8.2
2022-08-19T15:00:00,31,29.1,89,5.4,108,879,48,755,d,0,900,20,1013,0,298,16,Overcast clouds,804,c04d,160,10,7.2
2022-08-19T16:00:00,31,29.1,88,5.4,103,852,42,667,d,0,899,20,1013,0,278,16,Overcast clouds,804,c04d,170,10,7.2
2022-08-19T17:00:00,31,29.1,25,5.4,95,806,34,540,d,0,899,20,1013,0,536,16,Scattered clouds,802,c02d,160,12,7.2
2022-08-19T18:00:00,31,29.1,25,5.4,83,732,25.1,387,d,0,898,20,1013,0,384,16,Scattered clouds,802,c02d,150,11.2,8.2
2022-08-19T19:00:00,30,28.3,25,6,65,606,15.8,223,d,0,898,22,1012,0,221,16,Scattered clouds,802,c02d,160,9.2,8.8
2022-08-19T20:00:00,27,26.3,6,5.9,39,361,6.4,71,d,0,897,26,1012,0,71,16,Few clouds,801,c02d,160,7.2,5.1
2022-08-19T21:00:00,26,25.4,5,5.6,0,0,-2.6,0,n,0,896,27,1013,0,0,16,Few clouds,801,c02n,150,5.6,5.1
2022-08-19T22:00:00,23,22.2,20,5.9,0,0,-10.8,0,n,0,896,33,1013,0,0,16,Few clouds,801,c02n,160,5.2,4.1
2022-08-19T23:00:00,21,20.1,95,5.8,0,0,-17.8,0,n,0,895,37,1013,0,0,16,Overcast clouds,804,c04n,170,4.8,3.1
2022-08-20T00:00:00,19,18.1,87,6.8,0,0,-23,0,n,0,895,45,1012,0,0,16,Overcast clouds,804,c04n,180,4.4,3.6
2022-08-20T01:00:00,20,19.1,62,6,0,0,-26,0,n,0,894,40,1012,0,0,16,Broken clouds,803,c03n,160,4.8,1.5
2022-08-20T02:00:00,19,18.1,25,5.8,0,0,-26.5,0,n,0,894,42,1011,0,0,16,Scattered clouds,802,c02n,160,4.4,4.1
2022-08-20T03:00:00,17,17,30,5.9,0,0,-24.3,0,n,0,905,48,1011,0,0,16,Scattered clouds,802,c02n,180,4,3.6
2022-08-20T04:00:00,17,17,58,5.9,0,0,-19.7,0,n,0,892,48,1011,0,0,16,Broken clouds,803,c03n,180,4,2.6
2022-08-20T05:00:00,16,16,83,7,0,0,-13.2,0,n,0,892,55,1012,0,0,16,Overcast clouds,804,c04n,170,2.8,2.6
2022-08-20T06:00:00,15,15,100,6.8,0,0,-5.3,0,n,0,892,58,1012,0,0,16,Overcast clouds,804,c04n,260,2.8,1
2022-08-20T07:00:00,17,17,89,8.9,26,219,3.4,30,d,0,892,59,1013,0,38,16,Overcast clouds,804,c04n,350,4.1,4.1
2022-08-20T08:00:00,19,18.5,85,10.8,58,546,12.7,171,d,0,893,59,1013,0,77,16,Overcast clouds,804,c04d,10,3.6,2.6
2022-08-20T09:00:00,21,20.6,100,11.9,78,698,22.1,334,d,0,894,56,1013,0,99,16,Overcast clouds,804,c04d,340,4.4,3.6
2022-08-20T10:00:00,23,22.6,90,11.7,91,785,31.2,492,d,0,895,49,1014,0,166,16,Overcast clouds,804,c04d,350,4.6,4.6
2022-08-20T11:00:00,24,23.7,90,12,100,839,39.4,627,d,0,896,47,1014,0,212,16,Overcast clouds,804,c04d,340,5.1,5.1
2022-08-20T12:00:00,24,23.7,94,12,107,872,46.1,728,d,0.25,896,47,1014,0,173,16,Overcast clouds,804,c04d,350,4.4,4.1
2022-08-20T13:00:00,24,23.6,91,11,110,888,50.2,785,d,0.5,896,44,1014,0,248,16,Overcast clouds,804,c04d,330,4,3.1
2022-08-20T14:00:00,24,23.6,91,11,110,890,50.8,793,d,0,896,44,1014,0,250,16,Overcast clouds,804,c04d,280,4.4,1.5
2022-08-20T15:00:00,25,24.6,93,10.8,108,878,47.7,750,d,1,896,41,1014,0,199,16,Light rain,500,r01d,250,4.4,1
2022-08-20T16:00:00,23,22.7,96,12.9,103,851,41.6,662,d,1,897,53,1015,0,120,16,Light rain,500,r01d,220,4,3.1
2022-08-20T17:00:00,25,24.7,96,11.9,94,804,33.8,535,d,0.5,897,44,1013,0,98,16,Overcast clouds,804,c04d,260,3.2,1.5
2022-08-20T18:00:00,26,25.6,25,9.8,82,729,24.8,382,d,0.25,896,36,1013,0,379,16,Scattered clouds,802,c02d,160,3.2,3.1
2022-08-20T19:00:00,27,26.6,55,9.8,65,601,15.5,218,d,0,897,34,1013,0,192,16,Broken clouds,803,c03d,150,3.6,3.6
2022-08-20T20:00:00,24,23.6,100,11,38,349,6.1,66,d,0,897,44,1013,0,42,16,Overcast clouds,804,c04d,90,2.6,2.6
2022-08-20T21:00:00,21,20.6,53,11.9,0,0,-2.9,0,n,0,896,56,1014,0,0,16,Broken clouds,803,c03n,30,3.1,3.1
2022-08-20T22:00:00,19,18.7,90,13,0,0,-11.1,0,n,0,895,68,1015,0,0,16,Overcast clouds,804,c04n,350,4.1,4.1
2022-08-20T23:00:00,19,18.7,77,13,0,0,-18.1,0,n,0,895,68,1015,0,0,16,Overcast clouds,804,c04n,360,2.4,2.1
2022-08-21T00:00:00,19,18.8,47,13.8,0,0,-23.4,0,n,0,895,72,1015,0,0,16,Broken clouds,803,c03n,340,3.6,3.1
2022-08-21T01:00:00,19,18.6,88,11.8,0,0,-26.4,0,n,0,895,63,1017,0,0,16,Overcast clouds,804,c04n,350,8.2,8.2
2022-08-21T02:00:00,17,17,42,10.8,0,0,-26.8,0,n,0,896,67,1017,0,0,16,Broken clouds,803,c03n,360,6.8,6.2
2022-08-21T03:00:00,16,16,5,11,0,0,-24.6,0,n,0,896,72,1017,0,0,16,Few clouds,801,c02n,340,6.2,6.2
2022-08-21T04:00:00,16,16,17,11,0,0,-20,0,n,0,896,72,1018,0,0,16,Few clouds,801,c02n,350,5.6,4.6
2022-08-21T05:00:00,16,16,25,9.9,0,0,-13.5,0,n,0,896,67,1018,0,0,16,Scattered clouds,802,c02n,320,5.6,4.6
2022-08-21T06:00:00,16,16,84,9.9,0,0,-5.6,0,n,0,905,67,1018,0,0,16,Overcast clouds,804,c04n,320,5.6,3.1
2022-08-21T07:00:00,16,16,40,9.9,25,206,3.2,28,d,0,897,67,1018,0,27,16,Scattered clouds,802,c02n,340,6,2.1
2022-08-21T08:00:00,18,18,25,10.9,58,541,12.5,167,d,0,897,63,1019,0,160,16,Scattered clouds,802,c02d,330,6.4,3.6
2022-08-21T09:00:00,19,18.5,25,10.8,77,695,21.8,330,d,0,898,59,1019,0,317,16,Scattered clouds,802,c02d,350,7.2,5.1
2022-08-21T10:00:00,20,19.6,99,12,91,784,30.9,488,d,0,897,60,1020,0,137,16,Overcast clouds,804,c04d,330,6.8,5.1
2022-08-21T11:00:00,21,20.7,37,12.9,100,838,39.2,624,d,0,899,60,1020,0,583,16,Scattered clouds,802,c02d,10,6.8,4.1
2022-08-21T12:00:00,22,21.6,97,12,106,871,45.8,724,d,0,900,53,1020,0,112,16,Overcast clouds,804,c04d,330,6,3.1
2022-08-21T13:00:00,24,23.7,5,12,110,887,49.9,781,d,0,901,47,1019,0,755,16,Few clouds,801,c02d,30,5.6,2.1
2022-08-21T14:00:00,25,24.6,23,10.8,110,889,50.4,788,d,0,901,41,1019,0,759,16,Scattered clouds,802,c02d,50,6,2.6
2022-08-21T15:00:00,24,23.6,24,11,108,877,47.3,746,d,0,901,44,1019,0,717,16,Scattered clouds,802,c02d,10,7.2,4.1
2022-08-21T16:00:00,25,24.6,34,10.8,102,850,41.3,657,d,0.75,900,41,1019,0,622,13,Light rain,500,r01d,40,8,2.1
2022-08-21T17:00:00,22,21.8,76,13.9,94,803,33.4,530,d,1.75,895,60,1020,0,314,13,Light rain,500,r01d,350,6,5.7
2022-08-21T18:00:00,20,19.9,97,14.8,82,726,24.5,377,d,0.25,900,72,1021,0,137,11,Overcast clouds,804,c04d,10,5.7,5.7
2022-08-21T19:00:00,19,19.1,97,15.9,64,596,15.2,213,d,1,900,82,1022,0,94,11,Light rain,500,r01d,300,4.4,3.6
2022-08-21T20:00:00,18,18,97,16.9,37,337,5.8,62,d,0,900,93,1021,0,45,16,Overcast clouds,804,c04d,100,3.6,2.1
2022-08-21T21:00:00,18,18,88,16,0,0,-3.2,0,n,0,899,88,1021,0,0,16,Overcast clouds,804,c04n,300,3.2,3.1
2022-08-21T22:00:00,17,17,85,15.9,0,0,-11.4,0,n,0,899,93,1021,0,0,16,Overcast clouds,804,c04n,10,3.6,2.1
2022-08-21T23:00:00,16,16,59,16,0,0,-18.4,0,n,0.5,897,100,1021,0,0,16,Fog,741,a05n,110,2.4,1
2022-08-22T00:00:00,17,17,9,15.9,0,0,-23.7,0,n,0,899,93,1021,0,0,16,Few clouds,801,c02n,310,1.6,1
2022-08-22T01:00:00,17,17,16,15.9,0,0,-26.7,0,n,0,899,93,1021,0,0,16,Few clouds,801,c02n,290,2,1
2022-08-22T02:00:00,16,16,24,16,0,0,-27.1,0,n,0,899,100,1021,0,0,16,Fog,741,a05n,320,1.6,1
2022-08-22T03:00:00,15,15,5,13.9,0,0,-24.9,0,n,0,899,93,1020,0,0,16,Few clouds,801,c02n,180,1.2,1.2
2022-08-22T04:00:00,14,14,5,12.9,0,0,-20.2,0,n,0,898,93,1020,0,0,11,Few clouds,801,c02n,40,1.5,1.5
2022-08-22T05:00:00,13,13,17,13,0,0,-13.7,0,n,0,898,100,1021,0,0,16,Fog,741,a05n,165,1.6,1
2022-08-22T06:00:00,14,14,28,12.9,0,0,-5.8,0,n,0,897,93,1021,0,0,11,Scattered clouds,802,c02n,290,1.5,1.5
2022-08-22T07:00:00,13,13,6,13,24,192,3,25,d,0,898,100,1022,0,24,11,Fog,741,a05n,50,1.5,1.5
2022-08-22T08:00:00,14,14,4,12.9,57,537,12.2,163,d,0,897,93,1022,0,157,13,Few clouds,801,c02d,60,2.8,1
2022-08-22T09:00:00,16,16,4,13.8,77,693,21.6,326,d,0,898,87,1022,0,314,11,Few clouds,801,c02d,75,4.4,1.2
2022-08-22T10:00:00,18,18,34,13.9,91,782,30.7,484,d,0,899,77,1021,0,454,11,Scattered clouds,802,c02d,85,5.6,1.2
2022-08-22T11:00:00,20,19.9,48,14.8,100,837,38.9,620,d,0,899,72,1021,0,549,11,Broken clouds,803,c03d,95,5.6,1
2022-08-22T12:00:00,23,22.8,41,13.8,106,870,45.5,721,d,0,898,56,1021,0,663,10,Broken clouds,803,c03d,110,5.6,2.1
2022-08-22T13:00:00,24,23.9,1,15,109,886,49.5,777,d,0,901,57,1020,0,746,10,Clear Sky,800,c01d,120,5.6,3.6
2022-08-22T14:00:00,25,24.9,3,14.8,110,888,50.1,784,d,0,902,53,1020,0,753,10,Few clouds,801,c02d,160,5.6,2.6
2022-08-22T15:00:00,26,26,16,14.8,107,876,47,741,d,0,902,50,1019,0,710,13,Few clouds,801,c02d,80,6.4,3.6
2022-08-22T16:00:00,27,27.2,10,14.7,102,848,41,652,d,0,901,47,1019,0,626,10,Few clouds,801,c02d,70,6,2.6
2022-08-22T17:00:00,26,25.9,10,13.8,94,801,33.1,525,d,0,901,47,1019,0,505,10,Few clouds,801,c02d,120,4.8,2.6
2022-08-22T18:00:00,26,25.9,8,13.8,81,723,24.2,372,d,0,901,47,1018,0,358,10,Few clouds,801,c02d,115,3.6,1
2022-08-22T19:00:00,26,25.9,10,13.8,64,591,14.9,208,d,0,901,47,1018,0,200,10,Few clouds,801,c02d,110,4,3.6
2022-08-22T20:00:00,24,23.8,25,13.8,36,324,5.5,58,d,0.25,900,53,1019,0,55,16,Scattered clouds,802,c02d,90,3.1,3.1
2022-08-22T21:00:00,22,21.7,92,12.8,0,0,-3.5,0,n,1.25,900,56,1019,0,0,16,Light rain,500,r01n,70,3.1,3.1
2022-08-22T22:00:00,22,21.7,96,12.8,0,0,-11.7,0,n,2.5,899,56,1019,0,0,16,Light rain,500,r01n,90,6.2,6.2
2022-08-22T23:00:00,15,15,98,13.9,0,0,-18.8,0,n,10.5,905,93,1023,0,0,5,Heavy rain,502,r03n,240,3.1,3.1
2022-08-23T00:00:00,17,17,98,12.9,0,0,-24,0,n,11,899,77,1022,0,0,11,Heavy rain,502,r03n,270,8,3.6
2022-08-23T01:00:00,16,16,97,12.9,0,0,-27.1,0,n,6,900,82,1021,0,0,16,Moderate rain,501,r02n,260,8,5.1
2022-08-23T02:00:00,17,17,97,10.8,0,0,-27.5,0,n,1.5,899,67,1019,0,0,16,Light rain,500,r01n,300,10,6.2
2022-08-23T03:00:00,16,16,92,12,0,0,-25.2,0,n,0.25,897,77,1020,0,0,16,Overcast clouds,804,c04n,40,3.6,3.6
2022-08-23T04:00:00,16,16,97,12,0,0,-20.5,0,n,0.25,898,77,1021,0,0,16,Overcast clouds,804,c04n,10,2.4,1.5
2022-08-23T05:00:00,16,16,97,12.9,0,0,-14,0,n,0.5,899,82,1022,0,0,16,Overcast clouds,804,c04n,220,3.6,3.6
2022-08-23T06:00:00,15,15,97,12,0,0,-6.1,0,n,0.5,900,82,1021,0,0,16,Overcast clouds,804,c04n,255,2,1
2022-08-23T07:00:00,15,15,96,12,23,178,2.7,23,d,0,899,82,1021,0,27,16,Overcast clouds,804,c04n,295,1.6,1
2022-08-23T08:00:00,15,15,89,12.9,57,532,12,160,d,0,898,87,1021,0,57,16,Overcast clouds,804,c04d,330,2.4,2.1
2022-08-23T09:00:00,16,16,89,13.8,77,690,21.4,322,d,0,899,87,1022,0,115,16,Overcast clouds,804,c04d,330,3.6,2.6
2022-08-23T10:00:00,16,16,73,13.8,90,781,30.5,480,d,0.5,899,87,1022,0,313,16,Overcast clouds,804,c04d,340,5.6,2.6
2022-08-23T11:00:00,16,16,95,13.8,100,836,38.7,616,d,0.25,900,87,1023,0,127,11,Overcast clouds,804,c04d,350,5.6,2.1
2022-08-23T12:00:00,17,17,94,12.9,106,869,45.2,717,d,0.5,900,77,1023,0,168,16,Overcast clouds,804,c04d,350,6.4,2.1
2022-08-23T13:00:00,17,17,96,13.9,109,885,49.2,773,d,0.5,900,82,1023,0,138,16,Overcast clouds,804,c04d,360,2.8,2.1
2022-08-23T14:00:00,17,17,95,12.9,110,887,49.7,780,d,0.5,900,77,1023,0,162,16,Overcast clouds,804,c04d,340,3.6,3.6
2022-08-23T15:00:00,17,17,96,13.9,107,875,46.6,737,d,0.5,899,82,1023,0,131,16,Overcast clouds,804,c04d,10,4,2.1
2022-08-23T16:00:00,17,17,96,13.9,102,847,40.7,648,d,1.25,900,82,1023,0,109,16,Light rain,500,r01d,320,5.2,1.5
2022-08-23T17:00:00,18,18,96,13.9,93,799,32.8,520,d,0.25,900,77,1023,0,93,16,Overcast clouds,804,c04d,340,4.8,2.6
2022-08-23T18:00:00,18,18,95,12.9,81,720,23.9,367,d,0.25,900,72,1023,0,156,16,Overcast clouds,804,c04d,300,4,2.1
2022-08-23T19:00:00,18,18,95,12.9,63,585,14.6,203,d,0.25,900,72,1023,0,105,16,Overcast clouds,804,c04d,300,3.2,3.1
2022-08-23T20:00:00,17,17,93,12.9,34,310,5.2,54,d,0,901,77,1023,0,48,16,Overcast clouds,804,c04d,340,2.4,1.5
2022-08-23T21:00:00,17,17,94,13.9,0,0,-3.8,0,n,0,900,82,1024,0,0,16,Overcast clouds,804,c04n,280,2.8,1.5
2022-08-23T22:00:00,16,16,94,13.8,0,0,-12.1,0,n,0,901,87,1024,0,0,16,Overcast clouds,804,c04n,330,2.4,1.5
2022-08-23T23:00:00,16,16,81,13.8,0,0,-19.1,0,n,0,900,87,1024,0,0,16,Overcast clouds,804,c04n,345,2.8,2
2022-08-24T00:00:00,16,16,85,13.8,0,0,-24.4,0,n,0,901,87,1024,0,0,16,Overcast clouds,804,c04n,360,2.8,2.1
2022-08-24T01:00:00,16,16,82,13.8,0,0,-27.4,0,n,0,901,87,1024,0,0,16,Overcast clouds,804,c04n,330,6.4,2.1
2022-08-24T02:00:00,15,15,92,13.9,0,0,-27.8,0,n,0,901,93,1024,0,0,16,Overcast clouds,804,c04n,320,6.4,2.1
2022-08-24T03:00:00,16,16,85,13.8,0,0,-25.5,0,n,0,900,87,1024,0,0,16,Overcast clouds,804,c04n,280,6.8,1.5
2022-08-24T04:00:00,16,16,90,13.8,0,0,-20.8,0,n,0,901,87,1024,0,0,16,Overcast clouds,804,c04n,240,4.8,1.5
2022-08-24T05:00:00,15,15,83,13.9,0,0,-14.2,0,n,0,899,93,1024,0,0,16,Overcast clouds,804,c04n,350,4.4,1.5
2022-08-24T06:00:00,14,14,100,12.9,0,0,-6.3,0,n,0,900,93,1024,0,0,16,Overcast clouds,804,c04n,240,3.6,1.5
2022-08-24T07:00:00,13,13,97,13,22,164,2.5,20,d,0,898,100,1024,0,25,16,Fog,741,a05n,215,2.8,1.6
2022-08-24T08:00:00,14,14,81,14,56,527,11.8,156,d,0,900,100,1024,0,81,16,Fog,741,a05d,190,3.2,1.5
2022-08-24T09:00:00,17,17,48,13.9,76,688,21.2,319,d,0,899,82,1024,0,283,16,Broken clouds,803,c03d,340,3.2,1.5
2022-08-24T10:00:00,19,18.8,78,13.8,90,779,30.2,476,d,0,902,72,1024,0,274,16,Overcast clouds,804,c04d,195,3.2,0.8
2022-08-24T11:00:00,20,19.7,66,13,100,835,38.4,612,d,0,902,64,1024,0,456,16,Broken clouds,803,c03d,50,5.6,2.6
2022-08-24T12:00:00,21,20.7,21,12.9,106,868,44.9,713,d,0,903,60,1024,0,684,16,Scattered clouds,802,c02d,50,6.4,2.1
2022-08-24T13:00:00,22,21.5,5,10.8,109,884,48.9,769,d,0,903,49,1023,0,745,16,Few clouds,801,c02d,110,9,3.1
2022-08-24T14:00:00,24,23.5,5,9.9,109,886,49.4,775,d,0,903,41,1023,0,775,16,Few clouds,801,c02d,150,9,5.7
2022-08-24T15:00:00,24,23.4,5,8.8,107,874,46.3,732,d,0,904,38,1023,0,732,16,Few clouds,801,c02d,130,7,4.6
2022-08-24T16:00:00,22,21.6,81,12,102,846,40.3,643,d,0,903,53,1023,0,339,14,Overcast clouds,804,c04d,210,8,6.7
2022-08-24T17:00:00,21,20.4,84,9.9,93,797,32.5,515,d,0,903,49,1023,0,259,16,Overcast clouds,804,c04d,230,7.6,3.6
2022-08-24T18:00:00,21,20.4,84,9.9,80,717,23.6,361,d,0,902,49,1023,0,181,16,Overcast clouds,804,c04d,220,7.2,4.1
2022-08-24T19:00:00,21,20.6,94,11.9,62,580,14.3,198,d,0,902,56,1023,0,108,16,Overcast clouds,804,c04d,190,5.6,3.1
2022-08-24T20:00:00,20,19.6,83,12,33,296,4.9,49,d,0,902,60,1023,0,57,16,Overcast clouds,804,c04n,240,2.8,2.1
2022-08-24T21:00:00,19,18.6,4,11.8,0,0,-4.1,0,n,0,901,63,1022,0,0,16,Few clouds,801,c02n,275,3.2,1
2022-08-24T22:00:00,17,17,99,11.9,0,0,-12.4,0,n,0,901,72,1023,0,0,16,Overcast clouds,804,c04n,310,2.8,2.1
2022-08-24T23:00:00,17,17,63,12.9,0,0,-19.4,0,n,0,900,77,1023,0,0,16,Broken clouds,803,c03n,190,2.4,1.5
2022-08-25T00:00:00,16,16,36,12,0,0,-24.7,0,n,0,900,77,1023,0,0,16,Scattered clouds,802,c02n,270,2,1.2
2022-08-25T01:00:00,13,13,14,10.9,0,0,-27.8,0,n,0,900,87,1023,0,0,16,Few clouds,801,c02n,350,2.1,2.1
2022-08-25T02:00:00,13,13,36,10,0,0,-28.1,0,n,0,899,82,1022,0,0,16,Scattered clouds,802,c02n,290,2.1,2.1
2022-08-25T03:00:00,13,13,25,10,0,0,-25.8,0,n,0,899,82,1022,0,0,16,Scattered clouds,802,c02n,90,2,1.5
2022-08-25T04:00:00,11,11,54,8.9,0,0,-21.1,0,n,0,898,87,1022,0,0,16,Broken clouds,803,c03n,350,1.6,1.5
2022-08-25T05:00:00,11,11,92,8.9,0,0,-14.5,0,n,0,897,87,1022,0,0,16,Overcast clouds,804,c04n,310,1.2,1
2022-08-25T06:00:00,11,11,85,9.9,0,0,-6.6,0,n,0,897,93,1022,0,0,16,Overcast clouds,804,c04n,170,1.2,0.4
2022-08-25T07:00:00,11,11,14,8.9,20,149,2.3,18,d,0,897,87,1022,0,38,16,Few clouds,801,c02n,30,1.5,1.5
2022-08-25T08:00:00,12,12,47,8.8,55,522,11.6,153,d,0,897,81,1022,0,142,16,Broken clouds,803,c03d,320,2.1,2.1
2022-08-25T09:00:00,15,15,80,10,76,685,21,315,d,0,897,72,1022,0,182,16,Overcast clouds,804,c04d,270,3.2,0.4
2022-08-25T10:00:00,17,17,95,10.8,90,778,30,473,d,0,902,67,1021,0,101,16,Overcast clouds,804,c04d,220,4.8,2.1
2022-08-25T11:00:00,19,18.5,95,10.8,99,834,38.1,608,d,0,899,59,1021,0,129,16,Overcast clouds,804,c04d,220,8,2.1
2022-08-25T12:00:00,21,20.6,57,11.9,106,867,44.6,709,d,0,905,56,1020,0,591,16,Broken clouds,803,c03d,230,11.6,2.6
2022-08-25T13:00:00,22,21.6,60,12,109,884,48.6,765,d,0,900,53,1020,0,618,16,Broken clouds,803,c03d,180,9.6,5.7
2022-08-25T14:00:00,22,21.6,79,12,109,885,49,771,d,0,900,53,1019,0,434,16,Overcast clouds,804,c04d,170,10,5.7
2022-08-25T15:00:00,23,22.7,80,12.9,107,873,45.9,727,d,0,900,53,1019,0,395,16,Overcast clouds,804,c04d,190,9.2,5.7
2022-08-25T16:00:00,23,22.7,53,12.9,101,844,40,638,d,0.5,899,53,1018,0,549,16,Broken clouds,803,c03d,180,9,4.1
2022-08-25T17:00:00,23,22.6,81,10.8,93,795,32.2,510,d,1.5,899,46,1018,0,263,16,Light rain,500,r01d,160,9,6.2
2022-08-25T18:00:00,24,23.7,4,12,80,714,23.3,356,d,0,898,47,1017,0,344,16,Few clouds,801,c02d,160,6.2,6.2
2022-08-25T19:00:00,23,22.6,42,11.7,61,574,13.9,193,d,0,898,49,1017,0,178,16,Broken clouds,803,c03d,180,8,5.7
2022-08-25T20:00:00,21,20.7,2,12.9,32,281,4.6,45,d,0,897,60,1016,0,43,16,Few clouds,801,c02n,170,7,5.1
2022-08-25T21:00:00,20,19.7,7,13,0,0,-4.5,0,n,0,896,64,1016,0,0,16,Few clouds,801,c02n,170,5.1,5.1
2022-08-25T22:00:00,19,18.7,22,13,0,0,-12.7,0,n,0,895,68,1015,0,0,16,Scattered clouds,802,c02n,170,4,2.6
2022-08-25T23:00:00,18,18,80,12.9,0,0,-19.8,0,n,0,895,72,1015,0,0,16,Overcast clouds,804,c04n,150,4,3.6
2022-08-26T00:00:00,17,17,16,12.9,0,0,-25.1,0,n,0,894,77,1014,0,0,16,Few clouds,801,c02n,140,3.6,3.6
2022-08-26T01:00:00,16,16,0,12.9,0,0,-28.1,0,n,0,893,82,1013,0,0,16,Clear Sky,800,c01n,190,3.2,2.6
2022-08-26T02:00:00,15,15,0,12.9,0,0,-28.5,0,n,0,892,87,1013,0,0,16,Clear Sky,800,c01n,190,3.2,2.1
2022-08-26T03:00:00,14,14,88,11.9,0,0,-26.1,0,n,0,891,87,1012,0,0,16,Overcast clouds,804,c04n,170,3.2,3.1
2022-08-26T04:00:00,13,13,89,13,0,0,-21.4,0,n,0,890,100,1012,0,0,16,Fog,741,a05n,170,2.8,2.6
2022-08-26T05:00:00,13,13,83,11.9,0,0,-14.8,0,n,0,889,93,1011,0,0,16,Overcast clouds,804,c04n,180,3.1,3.1
2022-08-26T06:00:00,13,13,79,10.9,0,0,-6.8,0,n,0,889,87,1010,0,0,16,Overcast clouds,804,c04n,180,2.8,1.6
2022-08-26T07:00:00,12,12,5,10.9,19,134,2,15,d,0,888,93,1010,0,33,16,Few clouds,801,c02n,180,2.8,1.6
2022-08-26T08:00:00,14,14,5,11,55,516,11.4,149,d,0,888,82,1010,0,144,16,Few clouds,801,c02d,180,4.4,2.1
2022-08-26T09:00:00,17,17,5,10.8,75,683,20.7,311,d,0,888,67,1009,0,301,16,Few clouds,801,c02d,220,4.4,2.6
2022-08-26T10:00:00,20,19.6,4,12,89,776,29.7,469,d,0,889,60,1009,0,453,16,Few clouds,801,c02d,265,4.8,1
2022-08-26T11:00:00,24,23.5,4,9.9,99,833,37.9,604,d,0,888,41,1008,0,604,16,Few clouds,801,c02d,310,8,5.7
2022-08-26T12:00:00,24,23.6,2,11,105,866,44.3,705,d,0,891,44,1008,0,683,16,Few clouds,801,c02d,340,8,5.7
2022-08-26T13:00:00,27,26.6,5,9.8,109,883,48.2,760,d,0,891,34,1007,0,760,16,Few clouds,801,c02d,350,8,5.1
2022-08-26T14:00:00,27,26.6,70,9.8,109,884,48.7,766,d,0,892,34,1006,0,561,16,Broken clouds,803,c03d,360,8,4.1
2022-08-26T15:00:00,23,22.4,88,8.7,106,872,45.6,723,d,0.5,891,40,1007,0,302,16,Overcast clouds,804,c04d,280,11,7.2
2022-08-26T16:00:00,24,23.4,100,8.8,101,843,39.6,633,d,0,889,38,1006,0,164,16,Overcast clouds,804,c04d,300,8,3.1
2022-08-26T17:00:00,26,25.6,94,9.8,92,793,31.8,505,d,0,889,36,1006,0,137,16,Overcast clouds,804,c04d,330,14,3.6
2022-08-26T18:00:00,24,23.4,90,8.8,79,711,23,351,d,0,889,38,1007,0,130,16,Overcast clouds,804,c04d,300,16,10.8
2022-08-26T19:00:00,21,20.4,81,8.9,61,568,13.6,187,d,0,905,46,1007,0,105,16,Overcast clouds,804,c04d,280,11,8.2
2022-08-26T20:00:00,20,19.3,88,9,30,265,4.3,41,d,0,888,49,1007,0,47,16,Overcast clouds,804,c04n,270,4.4,2.1
2022-08-26T21:00:00,19,18.3,89,8.9,0,0,-4.8,0,n,0,887,52,1006,0,0,16,Overcast clouds,804,c04n,260,4,3.6
2022-08-26T22:00:00,18,18,2,9.9,0,0,-13.1,0,n,0,887,59,1005,0,0,16,Few clouds,801,c02n,260,3.6,2.1
2022-08-26T23:00:00,18,18,0,8.8,0,0,-20.1,0,n,0,883,55,1004,0,0,16,Clear Sky,800,c01n,320,2.8,2.6
2022-08-27T00:00:00,16,16,91,9,0,0,-25.4,0,n,0,885,63,1004,0,0,16,Overcast clouds,804,c04n,350,3.6,3.6
2022-08-27T01:00:00,16,16,2,9,0,0,-28.5,0,n,0,884,63,1003,0,0,16,Few clouds,801,c02n,310,3.2,2.1
2022-08-27T02:00:00,17,17,2,8.9,0,0,-28.8,0,n,0,884,59,1003,0,0,16,Few clouds,801,c02n,300,3.2,1.5
2022-08-27T03:00:00,15,15,5,10,0,0,-26.5,0,n,0.5,884,72,1003,0,0,16,Few clouds,801,c02n,210,3.2,2.1
2022-08-27T04:00:00,15,15,96,10,0,0,-21.7,0,n,1,883,72,1003,0,0,16,Light rain,500,r01n,210,3.2,2.6
2022-08-27T05:00:00,16,16,94,9,0,0,-15,0,n,0.75,883,63,1002,0,0,16,Light rain,500,r01n,240,3.6,2.6
2022-08-27T06:00:00,16,16,96,9,0,0,-7,0,n,0,883,63,1001,0,0,16,Overcast clouds,804,c04n,220,4.4,3.1
2022-08-27T07:00:00,16,16,93,9,18,118,1.8,13,d,0,882,63,1001,0,22,16,Overcast clouds,804,c04n,220,9,3.1
2022-08-27T08:00:00,16,16,89,9,54,511,11.1,145,d,0,881,63,1001,0,57,16,Overcast clouds,804,c04d,10,9,4.6
2022-08-27T09:00:00,17,17,90,10.8,75,680,20.5,307,d,0.5,881,67,1001,0,104,16,Overcast clouds,804,c04d,360,6.7,6.7
2022-08-27T10:00:00,17,17,98,10.8,89,774,29.5,465,d,0,882,67,1001,0,148,16,Overcast clouds,804,c04d,20,9,5.1
2022-08-27T11:00:00,17,17,92,11.9,99,832,37.6,600,d,0,882,72,1001,0,173,16,Overcast clouds,804,c04d,350,8,5.7
2022-08-27T12:00:00,19,18.6,84,11.8,105,865,44,700,d,1.5,881,63,1000,0,321,16,Light rain,500,r01d,360,8,4.1
2022-08-27T13:00:00,19,18.5,93,10.8,108,882,47.9,756,d,1,905,59,1000,0,201,16,Light rain,500,r01d,350,8,5.7
2022-08-27T14:00:00,13,13,59,8.9,109,883,48.3,762,d,6.75,881,76,1004,0,611,6,Heavy rain,502,r03d,310,13,9.3
2022-08-27T15:00:00,11,11,96,8.9,106,871,45.2,718,d,3.25,881,87,1004,0,138,8,Light rain,500,r01d,320,12,8.2
2022-08-27T16:00:00,11,11,95,8.9,101,841,39.3,627,d,2.5,881,87,1003,0,140,10,Light rain,500,r01d,340,15,12.9
2022-08-27T17:00:00,12,12,95,9.9,92,791,31.5,499,d,0.5,880,87,1003,0,107,16,Overcast clouds,804,c04d,330,9,5.1
2022-08-27T18:00:00,13,13,94,10.9,79,707,22.6,345,d,0.5,881,87,1003,0,82,16,Overcast clouds,804,c04d,330,7,4.6
2022-08-27T19:00:00,13,13,94,8.9,60,561,13.3,182,d,0,881,76,1005,0,109,16,Overcast clouds,804,c04d,340,8,5.7
2022-08-27T20:00:00,12,12,92,8.8,29,248,3.9,37,d,0,883,81,1005,0,41,8,Overcast clouds,804,c04n,330,8,6.2
2022-08-27T21:00:00,13,13,88,8.9,0,0,-5.1,0,n,0,882,76,1005,0,0,11,Overcast clouds,804,c04n,310,9,6.7
2022-08-27T22:00:00,13,13,88,8.9,0,0,-13.4,0,n,0,883,76,1006,0,0,11,Overcast clouds,804,c04n,300,10,4.6
2022-08-27T23:00:00,13,13,87,7.9,0,0,-20.5,0,n,0,883,71,1006,0,0,11,Overcast clouds,804,c04n,330,10,6.2
2022-08-28T00:00:00,13,13,87,7.9,0,0,-25.8,0,n,0,884,71,1006,0,0,16,Overcast clouds,804,c04n,310,5.6,4.6
2022-08-28T01:00:00,13,13,87,6.8,0,0,-28.8,0,n,0,884,66,1006,0,0,16,Overcast clouds,804,c04n,310,7.6,4.6
2022-08-28T02:00:00,13,13,87,6.8,0,0,-29.2,0,n,0,884,66,1008,0,0,16,Overcast clouds,804,c04n,310,8,4.1
2022-08-28T03:00:00,14,14,83,5.9,0,0,-26.8,0,n,0,885,58,1008,0,0,16,Overcast clouds,804,c04n,320,7,4.6
2022-08-28T04:00:00,13,13,57,6.8,0,0,-22,0,n,0,885,66,1009,0,0,16,Broken clouds,803,c03n,320,8,5.1
2022-08-28T05:00:00,12,12,100,5.9,0,0,-15.3,0,n,0,886,66,1010,0,0,16,Overcast clouds,804,c04n,320,5.6,4.1
2022-08-28T06:00:00,11,11,47,4,0,0,-7.3,0,n,0,886,62,1010,0,0,16,Broken clouds,803,c03n,330,5.2,4.1
2022-08-28T07:00:00,11,11,10,2.8,16,102,1.6,11,d,0,886,57,1010,0,27,16,Few clouds,801,c02n,320,4.4,3.1
2022-08-28T08:00:00,13,13,25,3.9,54,506,10.9,142,d,0,886,54,1011,0,141,16,Scattered clouds,802,c02d,300,5.2,2.1
2022-08-28T09:00:00,14,14,50,3.8,75,677,20.3,303,d,0,887,50,1011,0,277,16,Broken clouds,803,c03d,320,5.6,3.6
2022-08-28T10:00:00,15,15,79,1.9,89,773,29.3,461,d,0,888,41,1011,0,275,16,Overcast clouds,804,c04d,280,6,4.1
2022-08-28T11:00:00,16,16,84,2.8,99,830,37.3,596,d,0,889,41,1011,0,299,16,Overcast clouds,804,c04d,250,6.8,4.1
2022-08-28T12:00:00,17,17,25,4,105,864,43.7,696,d,0,889,42,1011,0,690,16,Scattered clouds,802,c02d,240,6,2.6
2022-08-28T13:00:00,18,18,61,1.9,108,881,47.5,751,d,0,889,34,1010,0,625,16,Broken clouds,803,c03d,255,6.4,3.6
2022-08-28T14:00:00,19,17.7,44,0.6,108,882,48,757,d,0,889,29,1010,0,715,16,Broken clouds,803,c03d,270,6.4,4.1
2022-08-28T15:00:00,20,18.9,0,2.8,106,869,44.9,713,d,0,890,32,1010,0,713,16,Clear Sky,800,c01d,295,7.2,4.6
2022-08-28T16:00:00,21,19.9,2,1.8,100,840,39,622,d,0,890,28,1010,0,622,16,Few clouds,801,c02d,320,9,1.5
2022-08-28T17:00:00,22,21,4,2.7,91,788,31.2,494,d,0,891,28,1010,0,494,16,Few clouds,801,c02d,320,9,6.2
2022-08-28T18:00:00,22,21,5,2.7,78,704,22.3,340,d,0,891,28,1010,0,340,16,Few clouds,801,c02d,290,8,5.1
2022-08-28T19:00:00,22,20.9,2,1.6,59,555,13,177,d,0,894,26,1010,0,177,16,Few clouds,801,c02d,280,7,4.1
2022-08-28T20:00:00,20,18.9,2,2.8,27,230,3.6,33,d,0,891,32,1011,0,33,16,Few clouds,801,c02n,270,9,6.2
2022-08-28T21:00:00,18,18,5,2.7,0,0,-5.4,0,n,0,894,36,1012,0,0,16,Few clouds,801,c02n,270,10,4.1
2022-08-28T22:00:00,18,18,5,2.7,0,0,-13.7,0,n,0,894,36,1012,0,0,16,Few clouds,801,c02n,280,10,7.2
2022-08-28T23:00:00,17,17,3,3,0,0,-20.8,0,n,0,891,39,1013,0,0,16,Few clouds,801,c02n,290,10,7.7
2022-08-29T00:00:00,13,13,0,3.9,0,0,-26.2,0,n,0,891,54,1014,0,0,16,Clear Sky,800,c01n,350,3.1,3.1
2022-08-29T01:00:00,12,12,1,4,0,0,-29.2,0,n,0,891,58,1014,0,0,16,Clear Sky,800,c01n,20,6,2.6
2022-08-29T02:00:00,12,12,0,4,0,0,-29.5,0,n,0,891,58,1015,0,0,16,Clear Sky,800,c01n,360,5.6,2.6
2022-08-29T03:00:00,13,13,0,2.8,0,0,-27.1,0,n,0,891,50,1014,0,0,16,Clear Sky,800,c01n,360,5.2,1.5
2022-08-29T04:00:00,12,12,6,3,0,0,-22.3,0,n,0,891,54,1015,0,0,16,Few clouds,801,c02n,290,4.4,1
2022-08-29T05:00:00,11,11,86,4,0,0,-15.6,0,n,0,891,62,1015,0,0,16,Overcast clouds,804,c04n,220,4,2.1
2022-08-29T06:00:00,12,12,84,4,0,0,-7.5,0,n,0,891,58,1015,0,0,16,Overcast clouds,804,c04n,270,4,1
2022-08-29T07:00:00,12,12,86,4,15,86,1.4,9,d,0,891,58,1015,0,19,16,Overcast clouds,804,c04n,220,4,3.6
2022-08-29T08:00:00,13,13,25,4.9,53,500,10.7,138,d,0,892,58,1016,0,137,16,Scattered clouds,802,c02d,220,4.8,2.6
2022-08-29T09:00:00,16,16,25,5,74,675,20,299,d,0,891,48,1016,0,297,16,Scattered clouds,802,c02d,230,4,3.1
2022-08-29T10:00:00,18,18,25,5.9,89,771,29,457,d,0,894,45,1016,0,453,16,Scattered clouds,802,c02d,220,3.6,1.5
2022-08-29T11:00:00,20,19,25,4.9,98,829,37,592,d,0,895,37,1016,0,587,16,Scattered clouds,802,c02d,180,4.4,3.6
2022-08-29T12:00:00,22,21.2,25,5.8,105,863,43.4,692,d,0,896,35,1016,0,686,16,Scattered clouds,802,c02d,190,6,3.6
2022-08-29T13:00:00,23,22.3,89,6.7,108,880,47.2,747,d,0,897,35,1016,0,295,16,Overcast clouds,804,c04d,160,5.6,2.6
2022-08-29T14:00:00,23.5,22.8,92,7.2,108,881,47.6,752,d,0,897,35,1016,0,242,16,Overcast clouds,804,c04d,170,6.7,6.7
2022-08-29T15:00:00,24,23.4,95,7.6,106,868,44.5,708,d,0,897,35,1015,0,173,16,Overcast clouds,804,c04d,160,5.1,5.1
2022-08-29T16:00:00,27,26.4,94,8,100,838,38.6,617,d,0,897,30,1015,0,167,16,Overcast clouds,804,c04d,180,4.1,4.1
2022-08-29T17:00:00,27,26.5,89,8.9,91,786,30.8,488,d,0,898,32,1015,0,192,16,Overcast clouds,804,c04d,180,3.6,3.6
2022-08-29T18:00:00,27,26.4,93,8,78,700,22,334,d,0,898,30,1016,0,99,16,Overcast clouds,804,c04d,280,10,4.1
2022-08-29T19:00:00,27,26.3,93,6.9,58,548,12.7,171,d,0,898,28,1016,0,109,16,Overcast clouds,804,c04d,270,10,7.2
2022-08-29T20:00:00,25,24.4,88,7.6,26,212,3.3,29,d,0,898,33,1016,0,38,16,Overcast clouds,804,c04n,280,9,6.2
2022-08-29T21:00:00,24,23.4,19,7.6,0,0,-5.8,0,n,0,898,35,1017,0,0,16,Few clouds,801,c02n,280,6.2,6.2
2022-08-29T22:00:00,23,22.3,5,7.9,0,0,-14.1,0,n,0,898,38,1017,0,0,16,Few clouds,801,c02n,270,3.2,3.1
2022-08-29T23:00:00,21,20.4,20,8.9,0,0,-21.2,0,n,0,898,46,1017,0,0,16,Few clouds,801,c02n,220,3.2,2.6
2022-08-30T00:00:00,19,18.3,59,8.9,0,0,-26.5,0,n,0,898,52,1018,0,0,16,Broken clouds,803,c03n,140,3.2,2.1
2022-08-30T01:00:00,19,18.2,5,7.8,0,0,-29.5,0,n,0,897,48,1018,0,0,16,Few clouds,801,c02n,155,4.4,2.6
2022-08-30T02:00:00,16,16,1,9,0,0,-29.9,0,n,0,897,63,1018,0,0,16,Clear Sky,800,c01n,170,4.4,4.1
2022-08-30T03:00:00,15,15,0,7.8,0,0,-27.5,0,n,0,897,62,1019,0,0,16,Clear Sky,800,c01n,200,4.4,2.1
2022-08-30T04:00:00,14,14,0,8.8,0,0,-22.6,0,n,0,896,71,1019,0,0,16,Clear Sky,800,c01n,190,4.4,2.6
2022-08-30T05:00:00,15,15,0,7.8,0,0,-15.9,0,n,0,896,62,1019,0,0,16,Clear Sky,800,c01n,210,4.8,2.6
2022-08-30T06:00:00,15,15,0,7.8,0,0,-7.8,0,n,0,897,62,1019,0,0,16,Clear Sky,800,c01n,210,4.4,3.1
2022-08-30T07:00:00,18,18,0,8,13,70,1.1,7,d,0,897,52,1019,0,20,16,Clear Sky,800,c01n,280,4,3.6
2022-08-30T08:00:00,16,16,0,9.9,52,494,10.4,134,d,0,897,67,1019,0,134,16,Clear Sky,800,c01d,180,4.4,1.5
2022-08-30T09:00:00,19,18.4,0,9.8,74,672,19.8,295,d,0,898,55,1019,0,295,16,Clear Sky,800,c01d,180,4,2
2022-08-30T10:00:00,22,21.5,0,9.9,88,769,28.8,453,d,0,899,46,1019,0,453,16,Clear Sky,800,c01d,180,3.6,1
2022-08-30T11:00:00,25,24.6,1,10.8,98,828,36.8,588,d,0,901,41,1019,0,570,16,Clear Sky,800,c01d,190,3.2,2.1
2022-08-30T12:00:00,26,25.5,1,8.9,104,862,43.1,688,d,0,902,34,1019,0,688,16,Clear Sky,800,c01d,230,5.2,2.6
2022-08-30T13:00:00,28,27,1,7.8,108,879,46.9,742,d,0,902,28,1019,0,742,16,Clear Sky,800,c01d,200,4.4,2.1
2022-08-30T14:00:00,29,27.7,0,7.6,108,880,47.2,748,d,0,902,26,1018,0,748,16,Clear Sky,800,c01d,190,4.4,1.1
2022-08-30T15:00:00,30,28.4,1,7.8,105,867,44.1,703,d,0,902,25,1018,0,703,16,Clear Sky,800,c01d,180,4.8,1.2
2022-08-30T16:00:00,30,28.6,3,9,100,837,38.3,612,d,0,902,27,1018,0,612,16,Few clouds,801,c02d,170,5.2,1
2022-08-30T17:00:00,30,28.6,4,9.5,91,784,30.5,483,d,0.75,902,28,1017,0,483,16,Light rain,500,r01d,160,6,1.5
2022-08-30T18:00:00,30,28.6,94,9.5,77,696,21.7,328,d,0,902,28,1017,0,89,16,Overcast clouds,804,c04d,180,6.8,2.1
2022-08-30T19:00:00,30,28.6,12,9,58,541,12.3,166,d,0,901,27,1016,0,166,16,Few clouds,801,c02d,180,5.6,3.6
2022-08-30T20:00:00,28,27.1,1,8.8,24,192,3,25,d,0,901,30,1017,0,25,16,Clear Sky,800,c01n,160,4,2.6
2022-08-30T21:00:00,25,24.5,4,9.7,0,0,-6.1,0,n,0,900,38,1017,0,0,16,Few clouds,801,c02n,130,3.6,3.6
2022-08-30T22:00:00,25,24.5,1,8.9,0,0,-14.4,0,n,0,900,36,1017,0,0,16,Clear Sky,800,c01n,200,3.2,1.5
2022-08-30T23:00:00,22,21.5,6,9.9,0,0,-21.5,0,n,0,900,46,1017,0,0,16,Few clouds,801,c02n,105,3.2,2
