Datetime,Temperature,Apparent Temperature,Cloud Cover,Dew Point,DHI,DNI,Solar Zenith Angle,GHI,Pod,Precipitation,Pressure,Relative Humidity,Sea Level Pressure,Snow Depth,Solar Radiation,Visibility,Weather Description,Weather Code,Weather Icon,Wind Direction,Wind Gust Speed,Wind Speed
2022-11-01T00:00:00,3,-1.5,89,-2.1,0,0,-50.1,0,n,0,873,69,1004,0,0,16,Overcast clouds,804,c04n,340,5.7,5.7
2022-11-01T01:00:00,1,-3.1,80,-2.1,0,0,-53.3,0,n,0,875,80,1005,0,0,16,Overcast clouds,804,c04n,350,4.8,4.1
2022-11-01T02:00:00,0,-4,86,-3,0,0,-52.6,0,n,0,873,80,1005,0,0,16,Overcast clouds,804,c04n,350,4,3.6
2022-11-01T03:00:00,0,-4.7,95,-2.1,0,0,-48.3,0,n,0,875,86,1006,0,0,16,Overcast clouds,804,c04n,350,4.8,4.6
2022-11-01T04:00:00,0,-6.6,93,-3,0,0,-41.4,0,n,0,875,80,1006,0,0,16,Overcast clouds,804,c04n,350,8.8,8.8
2022-11-01T05:00:00,0,-4.4,92,-2.1,0,0,-33,0,n,0,875,86,1007,0,0,16,Overcast clouds,804,c04n,350,6.4,4.1
2022-11-01T06:00:00,0,-4.7,89,-2.1,0,0,-23.8,0,n,0,876,86,1007,0,0,16,Overcast clouds,804,c04n,350,6.4,4.6
2022-11-01T07:00:00,0,-4.7,91,-3,0,0,-14.4,0,n,0,876,80,1008,0,0,16,Overcast clouds,804,c04n,340,6.4,4.6
2022-11-01T08:00:00,0,-5,91,-2.1,0,0,-5.2,0,n,0,877,86,1008,0,0,16,Overcast clouds,804,c04n,340,6.4,5.1
2022-11-01T09:00:00,0,-4.7,93,-2.1,28,229,3.4,32,d,0,877,86,1008,0,37,16,Overcast clouds,804,c04n,350,6.4,4.6
2022-11-01T10:00:00,1,-3.7,93,-2.1,56,531,11.1,151,d,0,877,80,1008,0,101,16,Overcast clouds,804,c04d,350,7.2,5.1
2022-11-01T11:00:00,1,-3.1,93,-2.1,72,660,17.5,263,d,0,877,80,1009,0,78,16,Overcast clouds,804,c04d,360,7.6,4.1
2022-11-01T12:00:00,0,-5.8,93,-3,80,724,21.9,344,d,0.5,878,80,1008,3.5,102,4,Flurries,623,s06d,360,7.2,6.7
2022-11-01T13:00:00,0,-5.3,94,-1.1,84,749,24,382,d,0.5,877,92,1008,7.5,103,2,Light snow,600,s01d,360,9,5.7
2022-11-01T14:00:00,-1,-7.1,95,-1,83,744,23.5,374,d,0.5,877,100,1008,8.5,91,2,Light snow,600,s01d,360,9,6.7
2022-11-01T15:00:00,-1,-7.3,96,-2.1,78,706,20.6,320,d,0.5,876,92,1008,8.5,147,2,Light snow,600,s01d,350,8.8,7.2
2022-11-01T16:00:00,-1,-7.3,96,-2.1,67,624,15.4,226,d,0.5,876,92,1008,8.5,116,1,Light snow,600,s01d,360,8.8,7.2
2022-11-01T17:00:00,-2,-8.6,96,-3.1,48,455,8.5,107,d,0.5,876,92,1009,10,71,1,Light snow,600,s01d,350,9,7.2
2022-11-01T18:00:00,-2,-8.1,96,-3.1,8,26,0.4,3,d,0.5,876,92,1009,10,9,2,Light snow,600,s01n,350,9,6.2
2022-11-01T19:00:00,-2,-8.1,95,-3.1,0,0,-8.5,0,n,0.5,876,92,1010,10,0,2,Light snow,600,s01n,340,7.2,6.2
2022-11-01T20:00:00,-3,-9.4,96,-4.1,0,0,-17.8,0,n,0.5,877,92,1010,10,0,2,Light snow,600,s01n,330,9,6.2
2022-11-01T21:00:00,-3,-9.9,94,-5,0,0,-27.2,0,n,0.5,877,86,1010,10,0,2,Light snow,600,s01n,330,10,7.2
2022-11-01T22:00:00,-3,-9.9,90,-5,0,0,-36.2,0,n,0.5,877,86,1011,10,0,2,Light snow,600,s01n,330,10,7.2
2022-11-01T23:00:00,-3,-9.9,88,-5,0,0,-44.2,0,n,0.5,877,86,1011,10,0,2,Light snow,600,s01n,330,9,7.2
2022-11-02T00:00:00,-3,-9.9,89,-6.1,0,0,-50.4,0,n,0.5,877,79,1011,10,0,4,Light snow,600,s01n,330,10,7.2
2022-11-02T01:00:00,-3,-10.7,89,-6.1,0,0,-53.6,0,n,0,877,79,1011,0,0,4,Overcast clouds,804,c04n,340,12,9.3
2022-11-02T02:00:00,-3,-10.1,90,-6.1,0,0,-52.9,0,n,0,877,79,1011,0,0,5,Overcast clouds,804,c04n,340,12,7.7
2022-11-02T03:00:00,-4,-12.1,88,-6.1,0,0,-48.6,0,n,0,877,85,1011,0,0,11,Overcast clouds,804,c04n,340,13,9.3
2022-11-02T04:00:00,-4,-12.3,88,-6.1,0,0,-41.7,0,n,0,877,85,1012,0,0,14,Overcast clouds,804,c04n,350,13,9.8
2022-11-02T05:00:00,-4,-12.4,94,-6.1,0,0,-33.2,0,n,0,877,85,1012,0,0,1,Haze,721,a03n,350,12,10.3
2022-11-02T06:00:00,-5,-13.4,93,-6.1,0,0,-24,0,n,0.5,877,92,1012,12.5,0,2,Light snow,600,s01n,350,13,9.3
2022-11-02T07:00:00,-5,-12.9,95,-7.1,0,0,-14.7,0,n,0.5,876,85,1013,12.5,0,2,Light snow,600,s01n,340,13,8.2
2022-11-02T08:00:00,-6,-14.5,97,-7.1,0,0,-5.5,0,n,1,877,92,1014,25,0,1,Light snow,600,s01n,340,13,8.8
2022-11-02T09:00:00,-6,-14.9,97,-7.1,26,214,3.2,29,d,1,878,92,1015,25,31,0,Light snow,600,s01n,330,13,9.8
2022-11-02T10:00:00,-6,-15.3,96,-8.1,56,524,10.9,146,d,1,879,85,1016,25,88,0,Light snow,600,s01d,330,14,10.8
2022-11-02T11:00:00,-6,-15.3,96,-8.1,71,656,17.2,258,d,1,879,85,1016,25,127,1,Light snow,600,s01d,330,16,10.8
2022-11-02T12:00:00,-6,-15.3,93,-9,80,720,21.6,339,d,1,880,79,1017,25,101,2,Light snow,600,s01d,330,14,10.8
2022-11-02T13:00:00,-6,-15.3,94,-9,84,746,23.7,377,d,0.5,880,79,1017,12.5,102,2,Light snow,600,s01d,340,15,10.8
2022-11-02T14:00:00,-6,-14.9,96,-9,83,740,23.2,369,d,0.5,880,79,1018,12.5,163,4,Light snow,600,s01d,330,12,9.8
2022-11-02T15:00:00,-6,-15.1,94,-9,77,703,20.3,314,d,0.5,881,79,1018,12.5,85,5,Light snow,600,s01d,320,14,10.3
2022-11-02T16:00:00,-6,-14.5,94,-9,67,619,15.1,221,d,0,881,79,1019,0,127,14,Overcast clouds,804,c04d,330,11,8.8
2022-11-02T17:00:00,-6,-14.7,94,-10,47,446,8.3,103,d,0,882,73,1020,0,75,16,Overcast clouds,804,c04d,330,16,9.3
2022-11-02T18:00:00,-6,-13.7,93,-10,6,13,0.2,1,d,0,883,73,1021,0,6,16,Overcast clouds,804,c04n,340,10,7.2
2022-11-02T19:00:00,-6,-12.9,93,-9,0,0,-8.7,0,n,0,883,79,1022,0,0,13,Overcast clouds,804,c04n,340,16,5.7
2022-11-02T20:00:00,-7,-14.7,94,-9.1,0,0,-18,0,n,0,884,85,1023,0,0,8,Overcast clouds,804,c04n,350,7.2,6.7
2022-11-02T21:00:00,-7,-14.5,94,-10,0,0,-27.4,0,n,0,884,79,1023,0,0,13,Overcast clouds,804,c04n,350,9,6.2
2022-11-02T22:00:00,-7,-14.5,91,-10,0,0,-36.4,0,n,0,885,79,1023,0,0,14,Overcast clouds,804,c04n,350,9,6.2
2022-11-02T23:00:00,-8,-15.7,88,-11,0,0,-44.5,0,n,0,885,79,1024,0,0,16,Overcast clouds,804,c04n,340,9,6.2
2022-11-03T00:00:00,-9,-14.4,93,-12.1,0,0,-50.7,0,n,0,884,78,1024,0,0,16,Overcast clouds,804,c04n,320,9,3.1
2022-11-03T01:00:00,-10,-15.6,87,-12,0,0,-53.9,0,n,0,884,85,1024,0,0,16,Overcast clouds,804,c04n,330,4,3.1
2022-11-03T02:00:00,-11,-13,85,-12,0,0,-53.2,0,n,0,884,92,1024,0,0,16,Overcast clouds,804,c04n,300,4,1
2022-11-03T03:00:00,-10,-13.2,86,-12,0,0,-48.9,0,n,0,883,85,1024,0,0,16,Overcast clouds,804,c04n,270,3.6,1.5
2022-11-03T04:00:00,-14,-18.9,86,-16.1,0,0,-41.9,0,n,0,883,84,1024,0,0,16,Overcast clouds,804,c04n,50,3.2,2.1
2022-11-03T05:00:00,-11,-15.4,86,-13,0,0,-33.5,0,n,0,881,85,1023,0,0,16,Overcast clouds,804,c04n,250,3.2,2.1
2022-11-03T06:00:00,-12,-16.6,87,-14,0,0,-24.3,0,n,0,882,85,1023,0,0,16,Overcast clouds,804,c04n,200,3.6,2.1
2022-11-03T07:00:00,-13,-16.6,87,-14,0,0,-14.9,0,n,0,892,92,1023,0,0,16,Overcast clouds,804,c04n,210,4.4,1.5
2022-11-03T08:00:00,-12,-17.4,87,-13,0,0,-5.7,0,n,0,881,92,1022,0,0,16,Overcast clouds,804,c04n,200,5.2,2.6
2022-11-03T09:00:00,-12,-17.4,87,-13,25,198,2.9,26,d,0,881,92,1022,0,36,16,Overcast clouds,804,c04n,190,5.2,2.6
2022-11-03T10:00:00,-11,-17.4,86,-13,55,517,10.6,142,d,0,881,85,1021,0,65,16,Overcast clouds,804,c04d,180,4.8,3.6
2022-11-03T11:00:00,-9,-13.8,83,-12.1,71,651,16.9,253,d,0,880,78,1020,0,132,16,Overcast clouds,804,c04d,180,4.8,2.6
2022-11-03T12:00:00,-7,-12,80,-11,79,717,21.3,333,d,0,881,73,1019,0,193,16,Overcast clouds,804,c04d,230,4.4,3.1
2022-11-03T13:00:00,-5,-9.6,59,-10.2,83,743,23.4,371,d,0,881,67,1017,0,315,16,Broken clouds,803,c03d,230,6.4,3.1
2022-11-03T14:00:00,-4,-7.9,56,-10,82,737,22.9,363,d,0,880,63,1016,0,318,16,Broken clouds,803,c03d,170,7.6,2.6
2022-11-03T15:00:00,-3,-7.2,56,-9,77,699,20,309,d,0,880,63,1014,0,270,16,Broken clouds,803,c03d,160,8.4,3.1
2022-11-03T16:00:00,-1,-2.9,88,-8,66,614,14.8,216,d,0,879,59,1014,0,90,16,Overcast clouds,804,c04d,130,7.2,1.5
2022-11-03T17:00:00,-4,-8.4,83,-9,47,437,8,99,d,0,879,68,1013,0,52,16,Overcast clouds,804,c04d,170,4.4,3.1
2022-11-03T18:00:00,-4,-7.3,82,-9,4,4,-0.1,1,d,0,877,68,1013,0,5,16,Overcast clouds,804,c04n,200,3.2,2.1
2022-11-03T19:00:00,-4,-5.3,88,-9,0,0,-8.9,0,n,0,877,68,1012,0,0,16,Overcast clouds,804,c04n,170,3.2,1
2022-11-03T20:00:00,-1,-4.3,94,-11.1,0,0,-18.3,0,n,0,876,46,1011,0,0,16,Overcast clouds,804,c04n,230,2.8,2.6
2022-11-03T21:00:00,-3,-6.1,95,-10.1,0,0,-27.7,0,n,0,877,58,1010,0,0,16,Overcast clouds,804,c04n,120,3.2,2.1
2022-11-03T22:00:00,-3,-5.2,92,-10.1,0,0,-36.7,0,n,0,875,58,1010,0,0,16,Overcast clouds,804,c04n,200,3.6,1.5
2022-11-03T23:00:00,-3,-6.7,83,-11,0,0,-44.8,0,n,0,875,54,1009,0,0,16,Overcast clouds,804,c04n,270,3.6,2.6
2022-11-04T00:00:00,-2,-6,89,-11,0,0,-51,0,n,0,874,50,1008,0,0,16,Overcast clouds,804,c04n,240,3.6,3.1
2022-11-04T01:00:00,-2,-5.5,86,-11,0,0,-54.2,0,n,0,874,50,1006,0,0,16,Overcast clouds,804,c04n,255,4,2.6
2022-11-04T02:00:00,-2,-3,94,-10,0,0,-53.5,0,n,0,873,54,1005,0,0,16,Overcast clouds,804,c04n,275,4,1
2022-11-04T03:00:00,0,-2.6,93,-8.2,0,0,-49.2,0,n,0,872,54,1005,0,0,16,Overcast clouds,804,c04n,290,4,2.1
2022-11-04T04:00:00,0,-2.6,5,-1.6,0,0,-42.2,0,n,0,879,89,1004,0,0,16,Few clouds,801,c02n,220,3,2.1
2022-11-04T05:00:00,-1,-1.9,5,-9.1,0,0,-33.7,0,n,0,878,54,1004,0,0,16,Few clouds,801,c02n,180,3,1
2022-11-04T06:00:00,-2,-4,5,-10,0,0,-24.5,0,n,0,878,54,1004,0,0,16,Few clouds,801,c02n,140,3,1.5
2022-11-04T07:00:00,0,-4.4,83,-8.2,0,0,-15.1,0,n,0,871,54,1003,0,0,16,Overcast clouds,804,c04n,270,8,4.1
2022-11-04T08:00:00,1,-4.3,83,-10.1,0,0,-5.9,0,n,0,872,43,1003,0,0,16,Overcast clouds,804,c04n,270,8,6.2
2022-11-04T09:00:00,-1,-4.8,5,-9.1,23,181,2.7,23,d,0,878,54,1003,0,46,16,Few clouds,801,c02n,160,3.1,3.1
2022-11-04T10:00:00,0,-3.1,89,-8.2,54,510,10.3,137,d,0,871,54,1002,0,54,16,Overcast clouds,804,c04d,170,3,2.6
2022-11-04T11:00:00,1,-1.9,80,-8,70,647,16.6,248,d,0,871,51,1002,0,143,16,Overcast clouds,804,c04d,190,4.8,2.6
2022-11-04T12:00:00,2,-0.7,54,-6.1,79,713,21,328,d,0,871,55,1001,0,292,16,Broken clouds,803,c03d,180,4.8,2.6
2022-11-04T13:00:00,4,2.8,81,-8,83,739,23.1,366,d,0,871,41,1000,0,205,16,Overcast clouds,804,c04d,140,5.2,1.5
2022-11-04T14:00:00,3,0,87,-5.1,82,734,22.6,358,d,0,871,55,999,0,157,16,Overcast clouds,804,c04d,170,5.6,3.1
2022-11-04T15:00:00,3,0.4,91,-6.1,76,695,19.7,304,d,0,870,51,997,0,105,16,Overcast clouds,804,c04d,170,5.6,2.6
2022-11-04T16:00:00,2,-1.2,90,-4.1,65,609,14.6,211,d,0,869,64,997,0,78,16,Overcast clouds,804,c04d,140,4.8,3.1
2022-11-04T17:00:00,2,0.5,93,-5.2,46,428,7.8,95,d,0,868,59,995,0,74,16,Overcast clouds,804,c04d,170,3.2,1.5
2022-11-04T18:00:00,2,-0.2,93,-5.2,2,0,-0.3,0,n,0,866,59,994,0,0,16,Overcast clouds,804,c04n,180,4,2.1
2022-11-04T19:00:00,1,-1.9,94,-4,0,0,-9.2,0,n,0,865,69,992,0,0,16,Overcast clouds,804,c04n,190,4.4,2.6
2022-11-04T20:00:00,1,-1.9,81,-4,0,0,-18.5,0,n,0,863,69,990,0,0,16,Overcast clouds,804,c04n,170,4.8,2.6
2022-11-04T21:00:00,-2,-5.5,80,-5.1,0,0,-27.9,0,n,0,862,79,989,0,0,16,Overcast clouds,804,c04n,160,4.8,2.6
2022-11-04T22:00:00,-2,-5.7,80,-4,0,0,-36.9,0,n,0,859,86,988,0,0,16,Overcast clouds,804,c04n,220,5.2,2.8
2022-11-04T23:00:00,-2,-4.8,87,-4,0,0,-45,0,n,0,859,86,986,0,0,16,Overcast clouds,804,c04n,280,2,2
2022-11-05T00:00:00,-2,-4.9,92,-5.1,0,0,-51.3,0,n,0,857,79,985,0,0,16,Overcast clouds,804,c04n,340,3.2,2.1
2022-11-05T01:00:00,-3,-4.1,94,-5,0,0,-54.5,0,n,0,856,86,984,0,0,11,Overcast clouds,804,c04n,175,2.4,1
2022-11-05T02:00:00,-3,-7.6,95,-6.1,0,0,-53.8,0,n,0,855,79,983,0,0,16,Overcast clouds,804,c04n,10,4,3.6
2022-11-05T03:00:00,-4,-8.4,93,-6.1,0,0,-49.4,0,n,0,853,85,982,0,0,16,Overcast clouds,804,c04n,330,6,3.1
2022-11-05T04:00:00,-3,-8.4,83,-6.1,0,0,-42.4,0,n,0,853,79,982,0,0,16,Overcast clouds,804,c04n,10,7.6,4.6
2022-11-05T05:00:00,-2,-7.8,95,-3.1,0,0,-34,0,n,0,853,92,982,0,0,6,Overcast clouds,804,c04n,360,10,5.7
2022-11-05T06:00:00,-2,-8.6,89,-3.1,0,0,-24.8,0,n,0.25,854,92,984,5,0,2,Flurries,623,s06n,350,10,7.2
2022-11-05T07:00:00,-2,-7.8,95,-3.1,0,0,-15.4,0,n,1,856,92,985,20,0,6,Light snow,600,s01n,340,9,5.7
2022-11-05T08:00:00,-2,-9,95,-3.1,0,0,-6.2,0,n,1,856,92,987,20,0,16,Light snow,600,s01n,340,12,8.2
2022-11-05T09:00:00,-2,-9.2,95,-4,22,164,2.4,20,d,0.5,858,86,989,10,27,13,Light snow,600,s01n,350,13,8.8
2022-11-05T10:00:00,-2,-9.9,95,-4,53,502,10.1,133,d,0.5,859,86,991,10,85,16,Light snow,600,s01d,340,13,10.8
2022-11-05T11:00:00,-3,-11.4,95,-5,69,642,16.3,243,d,0.5,860,86,994,10,128,5,Light snow,600,s01d,350,14,11.3
2022-11-05T12:00:00,-3,-12.1,94,-5,78,710,20.7,323,d,0,870,86,996,0,87,1,Haze,721,a03d,340,17,13.4
2022-11-05T13:00:00,-3,-11.1,94,-5,82,736,22.8,361,d,0.5,905,86,997,10,98,1,Light snow,600,s01d,340,15,10.3
2022-11-05T14:00:00,-3,-10.6,95,-4.1,81,731,22.3,352,d,0.5,865,92,1000,10,86,1,Light snow,600,s01d,350,14,8.8
2022-11-05T15:00:00,-4,-12.8,94,-7.1,76,691,19.4,299,d,0.5,876,79,1002,12.5,81,14,Light snow,600,s01d,340,16,11.3
2022-11-05T16:00:00,-7,-17.5,95,-9.1,65,604,14.3,207,d,0.5,905,85,1005,12.5,116,4,Light snow,600,s01d,350,17,13.4
2022-11-05T17:00:00,-7,-16.4,95,-10,45,419,7.5,91,d,0,870,79,1006,0,67,6,Overcast clouds,804,c04d,350,16,10.3
2022-11-05T18:00:00,-8,-17.7,94,-11,0,0,-0.5,0,n,0,871,79,1007,0,0,6,Overcast clouds,804,c04n,350,13,10.3
2022-11-05T19:00:00,-8,-17.3,95,-11,0,0,-9.4,0,n,0,871,79,1010,0,0,4,Overcast clouds,804,c04n,340,13,9.3
2022-11-05T20:00:00,-9,-18.4,95,-11,0,0,-18.7,0,n,0,873,85,1011,0,0,2,Haze,721,a03n,340,13,8.8
2022-11-05T21:00:00,-9,-18.9,94,-12.1,0,0,-28.1,0,n,0,874,78,1012,0,0,2,Haze,721,a03n,350,13,9.8
2022-11-05T22:00:00,-10,-19.4,95,-12,0,0,-37.2,0,n,0,874,85,1013,0,0,2,Haze,721,a03n,350,11,8.2
2022-11-05T23:00:00,-10,-18.6,95,-13.1,0,0,-45.3,0,n,0,875,78,1015,0,0,2,Haze,721,a03n,340,9,6.7
2022-11-06T00:00:00,-10,-18.3,94,-13.1,0,0,-51.5,0,n,0,877,78,1016,0,0,4,Overcast clouds,804,c04n,340,8,6.2
2022-11-06T01:00:00,-11,-19.5,93,-14.1,0,0,-54.8,0,n,0,877,78,1017,0,0,3,Overcast clouds,804,c04n,340,7.6,6.2
2022-11-06T01:00:00,-11,-19.5,93,-14.1,0,0,-54.1,0,n,0,877,78,1018,0,0,4,Overcast clouds,804,c04n,340,7.2,6.2
2022-11-06T02:00:00,-11,-19.5,91,-15,0,0,-49.7,0,n,0,878,72,1019,0,0,4,Overcast clouds,804,c04n,340,8,6.2
2022-11-06T03:00:00,-12,-20,93,-15,0,0,-42.7,0,n,0,879,78,1020,0,0,8,Overcast clouds,804,c04n,340,8,5.1
2022-11-06T04:00:00,-12,-21.2,94,-15,0,0,-34.2,0,n,0,879,78,1021,0,0,6,Overcast clouds,804,c04n,330,9,6.7
2022-11-06T05:00:00,-12,-21.2,95,-16,0,0,-25,0,n,0,880,72,1023,0,0,8,Overcast clouds,804,c04n,340,9,6.7
2022-11-06T06:00:00,-13,-22.1,93,-16,0,0,-15.6,0,n,0,881,78,1024,0,0,8,Overcast clouds,804,c04n,340,6.2,6.2
2022-11-06T07:00:00,-14,-22.1,87,-17,0,0,-6.4,0,n,0,881,78,1025,0,0,11,Overcast clouds,804,c04n,330,4.8,4.6
2022-11-06T08:00:00,-14,-21.6,89,-17,21,147,2.2,17,d,0,881,78,1026,0,28,16,Overcast clouds,804,c04n,340,4.8,4.1
2022-11-06T09:00:00,-13,-20.8,91,-17.1,53,495,9.8,129,d,0,882,71,1027,0,98,16,Overcast clouds,804,c04d,340,5.6,4.6
2022-11-06T10:00:00,-13,-20.8,92,-17.1,69,637,16,238,d,0,883,71,1028,0,77,16,Overcast clouds,804,c04d,350,5.2,4.6
2022-11-06T11:00:00,-13,-22.1,92,-17.1,78,706,20.4,317,d,0,884,71,1028,0,102,10,Overcast clouds,804,c04d,360,6.2,6.2
2022-11-06T12:00:00,-13,-20.4,91,-17.1,82,733,22.5,355,d,0,885,71,1029,0,123,10,Overcast clouds,804,c04d,340,4.4,4.1
2022-11-06T13:00:00,-13,-20.8,94,-17.1,81,727,22,347,d,0,885,71,1029,0,94,8,Overcast clouds,804,c04d,360,4.6,4.6
2022-11-06T14:00:00,-13,-20.8,93,-17.1,75,688,19.1,294,d,0,885,71,1029,0,87,16,Overcast clouds,804,c04d,10,4.6,4.6
2022-11-06T15:00:00,-13,-19.8,93,-17.1,64,599,14,202,d,0,885,71,1029,0,124,16,Overcast clouds,804,c04d,360,4,3.6
2022-11-06T16:00:00,-14,-23,93,-18.1,44,411,7.3,87,d,0,885,71,1030,0,70,16,Overcast clouds,804,c04d,40,5.7,5.7
2022-11-06T17:00:00,-14,-22.5,96,-17,0,0,-0.8,0,n,0,885,78,1030,0,0,5,Overcast clouds,804,c04n,40,5.1,5.1
2022-11-06T18:00:00,-15,-22.8,96,-17.1,0,0,-9.6,0,n,0,885,84,1031,0,0,8,Overcast clouds,804,c04n,60,4.8,4.1
2022-11-06T19:00:00,-15,-23.3,94,-18.1,0,0,-18.9,0,n,0,885,77,1032,0,0,8,Overcast clouds,804,c04n,50,5.6,4.6
2022-11-06T20:00:00,-15,-23.8,94,-18.1,0,0,-28.3,0,n,0,886,77,1031,0,0,8,Overcast clouds,804,c04n,60,6.4,5.1
2022-11-06T21:00:00,-15,-22.3,95,-18.1,0,0,-37.4,0,n,0,886,77,1032,0,0,2,Haze,721,a03n,60,7.2,3.6
2022-11-06T22:00:00,-15,-23.3,96,-17.1,0,0,-45.5,0,n,0.5,886,84,1032,15,0,2,Light snow,600,s01n,80,7.2,4.6
2022-11-06T23:00:00,-15,-23.3,95,-18.1,0,0,-51.8,0,n,0.5,886,77,1032,15,0,2,Light snow,600,s01n,100,6.4,4.6
2022-11-07T00:00:00,-16,-25,95,-18.1,0,0,-55.1,0,n,0,886,84,1032,0,0,5,Overcast clouds,804,c04n,110,6.4,5.1
2022-11-07T01:00:00,-16,-24.6,91,-19.1,0,0,-54.4,0,n,0,886,77,1032,0,0,4,Overcast clouds,804,c04n,100,5.6,4.6
2022-11-07T02:00:00,-16,-24.6,97,-19.1,0,0,-50,0,n,0,886,77,1031,0,0,6,Overcast clouds,804,c04n,90,6.8,4.6
2022-11-07T03:00:00,-16,-24.6,97,-19.1,0,0,-43,0,n,0.5,885,77,1031,15,0,2,Light snow,600,s01n,80,6.8,4.6
2022-11-07T04:00:00,-17,-25.3,97,-19,0,0,-34.4,0,n,0.5,884,84,1031,15,0,2,Light snow,600,s01n,90,6.8,4.1
2022-11-07T05:00:00,-17,-24.7,96,-20.1,0,0,-25.2,0,n,0.5,884,77,1031,15,0,2,Light snow,600,s01n,90,6.8,3.6
2022-11-07T06:00:00,-17,-24.7,96,-20.1,0,0,-15.8,0,n,0.5,884,77,1030,15,0,2,Light snow,600,s01n,60,6.8,3.6
2022-11-07T07:00:00,-17,-24.7,97,-20.1,0,0,-6.7,0,n,0.5,883,77,1031,15,0,2,Light snow,600,s01n,70,5.6,3.6
2022-11-07T08:00:00,-17,-24.1,97,-20.1,19,130,1.9,15,d,0.5,884,77,1031,15,22,2,Light snow,600,s01n,60,8,3.1
2022-11-07T09:00:00,-17,-23.3,96,-20.1,52,488,9.5,124,d,0.5,884,77,1030,15,79,1,Light snow,600,s01d,40,8,2.6
2022-11-07T10:00:00,-17,-25.3,95,-20.1,68,633,15.8,233,d,0.5,883,77,1030,15,125,2,Light snow,600,s01d,360,10,4.1
2022-11-07T11:00:00,-17,-26.8,91,-20.1,77,702,20.1,312,d,0.5,883,77,1030,15,108,2,Light snow,600,s01d,10,7.6,5.7
2022-11-07T12:00:00,-17,-27.2,96,-20.1,81,730,22.2,350,d,0.25,883,77,1029,7.5,157,2,Light snow,600,s01d,360,6.4,6.2
2022-11-07T13:00:00,-17,-26.3,97,-20.1,80,724,21.7,342,d,0.5,882,77,1028,15,144,2,Light snow,600,s01d,360,6.8,5.1
2022-11-07T14:00:00,-16,-25.5,96,-19.1,75,684,18.8,289,d,0.5,882,77,1029,15,138,1,Light snow,600,s01d,350,8,5.7
2022-11-07T15:00:00,-16,-25.5,97,-20,64,594,13.8,197,d,0.5,883,71,1028,15,101,1,Light snow,600,s01d,340,8,5.7
2022-11-07T16:00:00,-16,-25.9,97,-19.1,43,402,7,83,d,0.5,882,77,1029,15,59,1,Light snow,600,s01d,350,6.4,6.2
2022-11-07T17:00:00,-16,-24.6,97,-19.1,0,0,-1,0,n,0.25,882,77,1029,7.5,0,1,Light snow,600,s01n,330,6,4.6
2022-11-07T18:00:00,-16,-25.5,95,-19.1,0,0,-9.8,0,n,0.5,883,77,1029,15,0,2,Light snow,600,s01n,340,6.4,5.7
2022-11-07T19:00:00,-16,-25.5,94,-19.1,0,0,-19.1,0,n,0,883,77,1029,0,0,3,Overcast clouds,804,c04n,350,6,5.7
2022-11-07T20:00:00,-16,-25.5,93,-19.1,0,0,-28.5,0,n,0,883,77,1030,0,0,5,Overcast clouds,804,c04n,350,6,5.7
2022-11-07T21:00:00,-17,-25.8,89,-20.1,0,0,-37.6,0,n,0,883,77,1030,0,0,11,Overcast clouds,804,c04n,340,6.4,4.6
2022-11-07T22:00:00,-18,-26.5,89,-21,0,0,-45.8,0,n,0,883,77,1031,0,0,14,Overcast clouds,804,c04n,330,6,4.1
2022-11-07T23:00:00,-19,-27.1,89,-21,0,0,-52.1,0,n,0,883,84,1031,0,0,16,Overcast clouds,804,c04n,330,6.4,3.6
2022-11-08T00:00:00,-20,-29,89,-23.1,0,0,-55.4,0,n,0,882,76,1031,0,0,16,Overcast clouds,804,c04n,340,5.6,4.1
2022-11-08T01:00:00,-20,-27.7,90,-23.1,0,0,-54.7,0,n,0,882,76,1032,0,0,16,Overcast clouds,804,c04n,330,9,3.1
2022-11-08T02:00:00,-20,-26.9,90,-23.1,0,0,-50.3,0,n,0,883,76,1032,0,0,16,Overcast clouds,804,c04n,310,6.4,2.6
2022-11-08T03:00:00,-19,-25.7,90,-22,0,0,-43.2,0,n,0,883,77,1033,0,0,16,Overcast clouds,804,c04n,260,6.4,2.6
2022-11-08T04:00:00,-21,-28.1,90,-23.1,0,0,-34.7,0,n,0,884,83,1033,0,0,16,Overcast clouds,804,c04n,300,6.4,2.6
2022-11-08T05:00:00,-21,-25.7,90,-24.1,0,0,-25.5,0,n,0,883,76,1033,0,0,16,Overcast clouds,804,c04n,310,5.6,1.5
2022-11-08T06:00:00,-21,-24.1,90,-24.1,0,0,-16.1,0,n,0,883,76,1034,0,0,16,Overcast clouds,804,c04n,320,5.2,1
2022-11-08T07:00:00,-21,-28.1,90,-24.1,0,0,-6.9,0,n,0,878,76,1034,0,0,16,Overcast clouds,804,c04n,330,5.2,2.6
2022-11-08T08:00:00,-21,-28.1,90,-24.1,17,112,1.7,12,d,0,884,76,1035,0,21,16,Overcast clouds,804,c04n,330,4.8,2.6
2022-11-08T09:00:00,-19,-25.7,90,-23.1,51,480,9.3,120,d,0,885,70,1036,0,96,16,Overcast clouds,804,c04d,320,5.2,2.6
2022-11-08T10:00:00,-18,-25.3,88,-22.1,68,628,15.5,228,d,0,887,70,1036,0,95,16,Overcast clouds,804,c04d,340,4.4,3.1
2022-11-08T11:00:00,-17,-25.3,86,-21,77,699,19.8,307,d,0,887,71,1035,0,142,16,Overcast clouds,804,c04d,330,4.1,4.1
2022-11-08T12:00:00,-16,-24,85,-21,81,726,21.9,345,d,0,887,65,1034,0,166,16,Overcast clouds,804,c04d,330,4.1,4.1
2022-11-08T13:00:00,-16,-21.3,85,-21,80,721,21.5,337,d,0,887,65,1033,0,162,16,Overcast clouds,804,c04d,20,2.1,2.1
2022-11-08T14:00:00,-16,-22.9,85,-21,74,680,18.6,284,d,0,886,65,1033,0,137,16,Overcast clouds,804,c04d,70,3.1,3.1
2022-11-08T15:00:00,-16,-22.1,86,-21,63,589,13.5,193,d,0,885,65,1032,0,89,16,Overcast clouds,804,c04d,60,2.8,2.6
2022-11-08T16:00:00,-16,-22.1,87,-21,42,392,6.8,80,d,0,885,65,1032,0,77,16,Overcast clouds,804,c04d,110,2.8,2.6
2022-11-08T17:00:00,-17,-24.1,88,-21,0,0,-1.2,0,n,0,885,71,1032,0,0,16,Overcast clouds,804,c04n,130,3.2,3.1
2022-11-08T18:00:00,-18,-25.3,89,-22.1,0,0,-10.1,0,n,0,884,70,1032,0,0,16,Overcast clouds,804,c04n,170,3.2,3.1
2022-11-08T19:00:00,-19,-26.5,89,-21,0,0,-19.4,0,n,0,883,84,1032,0,0,16,Overcast clouds,804,c04n,160,3.1,3.1
2022-11-08T20:00:00,-19,-24.8,89,-21,0,0,-28.8,0,n,0,883,84,1032,0,0,16,Overcast clouds,804,c04n,170,2.4,2.1
2022-11-08T21:00:00,-19,-24.8,90,-21,0,0,-37.8,0,n,0,883,84,1031,0,0,16,Overcast clouds,804,c04n,190,2.8,2.1
2022-11-08T22:00:00,-20,-27.7,90,-22,0,0,-46,0,n,0,882,84,1031,0,0,16,Overcast clouds,804,c04n,170,3.2,3.1
2022-11-08T23:00:00,-20,-26,90,-22,0,0,-52.3,0,n,0,881,84,1030,0,0,16,Overcast clouds,804,c04n,180,4,2.1
2022-11-09T00:00:00,-20,-24.6,90,-22,0,0,-55.7,0,n,0,881,84,1028,0,0,16,Overcast clouds,804,c04n,170,4,1.5
2022-11-09T01:00:00,-20,-26.9,90,-22,0,0,-55,0,n,0,880,84,1028,0,0,16,Overcast clouds,804,c04n,180,4,2.6
2022-11-09T02:00:00,-21,-28.9,90,-24.1,0,0,-50.5,0,n,0,879,76,1028,0,0,16,Overcast clouds,804,c04n,180,3.6,3.1
2022-11-09T03:00:00,-22,-28.3,90,-24.1,0,0,-43.5,0,n,0,879,83,1027,0,0,16,Overcast clouds,804,c04n,180,3.6,2.1
2022-11-09T04:00:00,-21,-27.1,90,-23.1,0,0,-34.9,0,n,0,877,83,1026,0,0,16,Overcast clouds,804,c04n,180,3.6,2.1
2022-11-09T05:00:00,-21,-27.1,90,-24.1,0,0,-25.7,0,n,0,877,76,1026,0,0,16,Overcast clouds,804,c04n,190,2.8,2.1
2022-11-09T06:00:00,-21,-25.7,91,-24.1,0,0,-16.3,0,n,0,877,76,1027,0,0,16,Overcast clouds,804,c04n,180,2,1.5
2022-11-09T07:00:00,-21,-28.1,91,-24.1,0,0,-7.1,0,n,0,877,76,1026,0,0,16,Overcast clouds,804,c04n,190,2.6,2.6
2022-11-09T08:00:00,-21,-28.1,91,-24.1,16,95,1.4,10,d,0,877,76,1026,0,19,16,Overcast clouds,804,c04n,180,2.6,2.6
2022-11-09T09:00:00,-20,-28.4,90,-23.1,50,472,9,116,d,0,877,76,1027,0,93,16,Overcast clouds,804,c04d,170,3.6,3.6
2022-11-09T10:00:00,-19,-27.1,89,-21,67,623,15.2,223,d,0,878,84,1027,0,88,16,Overcast clouds,804,c04d,180,3.6,3.6
2022-11-09T11:00:00,-18,-26.5,87,-21,76,695,19.5,302,d,0,879,77,1027,0,133,16,Overcast clouds,804,c04d,180,4.1,4.1
2022-11-09T12:00:00,-17,-23.3,86,-20.1,80,723,21.6,340,d,0,880,77,1027,0,157,16,Overcast clouds,804,c04d,150,3.2,2.6
2022-11-09T13:00:00,-16,-22.9,85,-21,79,717,21.2,332,d,0,880,65,1026,0,160,16,Overcast clouds,804,c04d,170,3.1,3.1
2022-11-09T14:00:00,-16,-25.5,86,-21,74,676,18.3,279,d,0,880,65,1027,0,129,16,Overcast clouds,804,c04d,170,5.7,5.7
2022-11-09T15:00:00,-16,-24.6,86,-21,62,584,13.3,189,d,0,881,65,1027,0,87,16,Overcast clouds,804,c04d,180,4.6,4.6
2022-11-09T16:00:00,-16,-23.5,87,-21,41,383,6.5,76,d,0,880,65,1027,0,74,16,Overcast clouds,804,c04d,170,3.6,3.6
2022-11-09T17:00:00,-17,-24.7,88,-21,0,0,-1.4,0,n,0,881,71,1028,0,0,16,Overcast clouds,804,c04n,160,3.6,3.6
2022-11-09T18:00:00,-19,-26.5,89,-22,0,0,-10.3,0,n,0,881,77,1029,0,0,16,Overcast clouds,804,c04n,170,4,3.1
2022-11-09T19:00:00,-20,-28.4,89,-23.1,0,0,-19.5,0,n,0,880,76,1029,0,0,16,Overcast clouds,804,c04n,180,4,3.6
2022-11-09T20:00:00,-20,-26.9,89,-23.1,0,0,-29,0,n,0,880,76,1029,0,0,16,Overcast clouds,804,c04n,180,4,2.6
2022-11-09T21:00:00,-20,-24.6,90,-22,0,0,-38,0,n,0,880,84,1029,0,0,16,Overcast clouds,804,c04n,210,3.6,1.5
2022-11-09T22:00:00,-20,-28.4,90,-22,0,0,-46.2,0,n,0,880,84,1029,0,0,16,Overcast clouds,804,c04n,170,3.6,3.6
2022-11-09T23:00:00,-20,-27.7,89,-22,0,0,-52.6,0,n,0,880,84,1029,0,0,16,Overcast clouds,804,c04n,190,4,3.1
2022-11-10T00:00:00,-20,-29.5,89,-22,0,0,-55.9,0,n,0,880,84,1029,0,0,16,Overcast clouds,804,c04n,180,4.6,4.6
2022-11-10T01:00:00,-19,-25.7,89,-21,0,0,-55.3,0,n,0,880,84,1028,0,0,16,Overcast clouds,804,c04n,200,3,2.6
2022-11-10T02:00:00,-19,-25.7,89,-21,0,0,-50.8,0,n,0,880,84,1028,0,0,16,Overcast clouds,804,c04n,210,3.6,2.6
2022-11-10T03:00:00,-18,-26.5,89,-21,0,0,-43.7,0,n,0,880,77,1028,0,0,16,Overcast clouds,804,c04n,190,4.1,4.1
2022-11-10T04:00:00,-20,-28.4,89,-22,0,0,-35.1,0,n,0,881,84,1028,0,0,16,Overcast clouds,804,c04n,180,3.6,3.6
2022-11-10T05:00:00,-17,-24.7,90,-20.1,0,0,-25.9,0,n,0,879,77,1028,0,0,16,Overcast clouds,804,c04n,200,3.6,3.6
2022-11-10T06:00:00,-18,-24.5,89,-20,0,0,-16.5,0,n,0,881,84,1028,0,0,16,Overcast clouds,804,c04n,200,4,2.6
2022-11-10T07:00:00,-18,-25.3,89,-20,0,0,-7.4,0,n,0,880,84,1028,0,0,16,Overcast clouds,804,c04n,180,4.4,3.1
2022-11-10T08:00:00,-17,-22.5,89,-20.1,14,77,1.2,8,d,0,881,77,1029,0,17,16,Overcast clouds,804,c04n,190,4.4,2.1
2022-11-10T09:00:00,-14,-20.4,89,-18.1,49,464,8.8,111,d,0,881,71,1028,0,93,16,Overcast clouds,804,c04d,210,4.4,3.1
2022-11-10T10:00:00,-11,-16.8,86,-16.1,66,618,14.9,219,d,0,883,66,1028,0,101,16,Overcast clouds,804,c04d,220,4,3.1
2022-11-10T11:00:00,-9,-13.1,84,-15.1,76,691,19.3,297,d,0,884,61,1027,0,149,16,Overcast clouds,804,c04d,200,3.6,2.1
2022-11-10T12:00:00,-9,-15,82,-14,80,720,21.3,335,d,0,885,67,1027,0,181,16,Overcast clouds,804,c04d,170,3.6,3.6
2022-11-10T13:00:00,-7,-12,81,-13,79,714,20.9,327,d,0,885,62,1026,0,183,16,Overcast clouds,804,c04d,180,3.1,3.1
2022-11-10T14:00:00,-7,-12,81,-12.1,73,672,18,275,d,0,885,67,1026,0,154,16,Overcast clouds,804,c04d,170,3.1,3.1
2022-11-10T15:00:00,-6,-10.3,81,-12.1,62,578,13,185,d,0,885,62,1026,0,104,16,Overcast clouds,804,c04d,190,2.8,2.6
2022-11-10T16:00:00,-5,-7.5,83,-11.1,41,374,6.3,73,d,0,886,62,1026,0,79,16,Overcast clouds,804,c04d,190,1.5,1.5
2022-11-10T17:00:00,-6,-8.6,85,-11.1,0,0,-1.6,0,n,0,886,67,1026,0,0,16,Overcast clouds,804,c04n,20,4,1.5
2022-11-10T18:00:00,-8,-10.9,86,-13,0,0,-10.5,0,n,0,905,67,1027,0,0,16,Overcast clouds,804,c04n,10,4.8,1.5
2022-11-10T19:00:00,-9,-14.5,86,-13.1,0,0,-19.7,0,n,0,885,72,1027,0,0,16,Overcast clouds,804,c04n,10,5.6,3.2
2022-11-10T20:00:00,-11,-14.3,86,-15,0,0,-29.1,0,n,0,885,72,1027,0,0,16,Overcast clouds,804,c04n,10,6,1.5
2022-11-10T21:00:00,-14,-16.3,86,-18.1,0,0,-38.2,0,n,0,884,71,1028,0,0,16,Overcast clouds,804,c04n,55,6,1
2022-11-10T22:00:00,-11,-17.4,4,-15,0,0,-46.4,0,n,0,895,72,1027,0,0,16,Few clouds,801,c02n,95,3.6,3.6
2022-11-10T23:00:00,-12,-18.2,86,-15,0,0,-52.8,0,n,0,885,78,1027,0,0,16,Overcast clouds,804,c04n,140,6,3.2
2022-11-11T00:00:00,-9,-10.8,86,-13.1,0,0,-56.2,0,n,0,884,72,1027,0,0,16,Overcast clouds,804,c04n,180,6,1
2022-11-11T01:00:00,-13,-15.2,86,-17.1,0,0,-55.5,0,n,0,886,71,1027,0,0,16,Overcast clouds,804,c04n,175,5.6,1
2022-11-11T02:00:00,-11,-14.3,86,-15,0,0,-51,0,n,0,884,72,1026,0,0,16,Overcast clouds,804,c04n,170,5.6,1.5
2022-11-11T03:00:00,-11,-15.4,85,-15,0,0,-43.9,0,n,0,885,72,1026,0,0,16,Overcast clouds,804,c04n,180,5.6,2.1
2022-11-11T04:00:00,-8,-14.2,85,-14,0,0,-35.4,0,n,0,885,62,1025,0,0,16,Overcast clouds,804,c04n,230,5.6,4.1
2022-11-11T05:00:00,-9,-12,85,-14,0,0,-26.1,0,n,0,886,67,1025,0,0,16,Overcast clouds,804,c04n,230,5.6,1.5
2022-11-11T06:00:00,-8,-11.9,86,-14,0,0,-16.8,0,n,0,885,62,1026,0,0,16,Overcast clouds,804,c04n,220,5.6,2.1
2022-11-11T07:00:00,-10,-15.7,86,-16.1,0,0,-7.6,0,n,0,886,61,1026,0,0,16,Overcast clouds,804,c04n,215,3.2,3.2
2022-11-11T08:00:00,-9,-13.1,86,-14,12,60,0.9,6,d,0,885,67,1026,0,15,16,Overcast clouds,804,c04n,210,5.6,2.1
2022-11-11T09:00:00,-9,-13.1,85,-16.1,49,456,8.5,107,d,0,885,56,1027,0,52,16,Overcast clouds,804,c04d,200,5.6,2.1
2022-11-11T10:00:00,-5,-7.5,82,-13.1,66,613,14.7,214,d,0,885,53,1026,0,116,16,Overcast clouds,804,c04d,200,4.8,1.5
2022-11-11T11:00:00,-3,-6.7,80,-12.2,75,688,19,292,d,0,887,49,1025,0,169,16,Overcast clouds,804,c04d,220,3.6,2.6
2022-11-11T12:00:00,-2,-4.9,60,-11,79,717,21,330,d,0,888,50,1024,0,278,16,Broken clouds,803,c03d,220,2.8,2.1
2022-11-11T13:00:00,-2,-4,80,-10,79,711,20.6,322,d,0,888,54,1024,0,186,16,Overcast clouds,804,c04d,180,2,1.5
2022-11-11T14:00:00,0,-2.6,79,-8.2,73,669,17.8,270,d,0,898,54,1023,0,161,16,Overcast clouds,804,c04d,200,2.1,2.1
2022-11-11T15:00:00,0,-2.6,56,-10.2,61,573,12.8,180,d,0,888,46,1023,0,157,16,Broken clouds,803,c03d,190,2.8,2.1
2022-11-11T16:00:00,-3,-6.5,83,-12.2,40,365,6.1,69,d,0,888,49,1023,0,76,16,Overcast clouds,804,c04d,195,3.2,2.4
2022-11-11T17:00:00,-5,-6.4,86,-11.1,0,0,-1.9,0,n,0,886,62,1023,0,0,16,Overcast clouds,804,c04n,200,1,1
2022-11-11T18:00:00,-6,-7.5,88,-10,0,0,-10.6,0,n,0,885,73,1023,0,0,16,Overcast clouds,804,c04n,330,1,1
2022-11-11T19:00:00,-9,-12,88,-12.1,0,0,-19.9,0,n,0,885,78,1023,0,0,16,Overcast clouds,804,c04n,20,4,1.5
2022-11-11T20:00:00,-11,-16.5,88,-14.1,0,0,-29.3,0,n,0,883,78,1024,0,0,16,Overcast clouds,804,c04n,65,4,2.8
2022-11-11T21:00:00,-10,-15.3,89,-14.1,0,0,-38.4,0,n,0,882,72,1023,0,0,16,Overcast clouds,804,c04n,105,4,2.8
2022-11-11T22:00:00,-11,-13,89,-13,0,0,-46.7,0,n,0,882,85,1023,0,0,16,Overcast clouds,804,c04n,150,4,1
2022-11-11T23:00:00,-12,-16.6,89,-15,0,0,-53.1,0,n,0,892,78,1022,0,0,16,Overcast clouds,804,c04n,10,4,2.1
2022-11-12T00:00:00,-11,-16.5,87,-14.1,0,0,-56.5,0,n,0,881,78,1022,0,0,16,Overcast clouds,804,c04n,95,5.2,2.8
2022-11-12T01:00:00,-11,-16.2,86,-14.1,0,0,-55.8,0,n,0,892,78,1022,0,0,16,Overcast clouds,804,c04n,180,5.2,2.6
2022-11-12T02:00:00,-10,-11.9,85,-13.1,0,0,-51.3,0,n,0,882,78,1021,0,0,16,Overcast clouds,804,c04n,175,5.6,1
2022-11-12T03:00:00,-9,-10.8,84,-13.1,0,0,-44.2,0,n,0,882,72,1021,0,0,16,Overcast clouds,804,c04n,175,5.6,1
2022-11-12T04:00:00,-8,-9.7,84,-11,0,0,-35.6,0,n,0,882,79,1021,0,0,16,Overcast clouds,804,c04n,170,5.6,1
2022-11-12T05:00:00,-9,-14.5,84,-12.1,0,0,-26.4,0,n,0,883,78,1022,0,0,16,Overcast clouds,804,c04n,185,6,3.2
2022-11-12T06:00:00,-7,-10.8,90,-11,0,0,-17,0,n,0,882,73,1022,0,0,16,Overcast clouds,804,c04n,200,6,2.1
2022-11-12T07:00:00,-5,-10.1,90,-10.2,0,0,-7.8,0,n,0,883,67,1022,0,0,16,Overcast clouds,804,c04n,10,6.4,3.6
2022-11-12T08:00:00,-3,-8,90,-8.1,11,43,0.7,4,d,0,884,68,1022,0,12,16,Overcast clouds,804,c04n,350,6.4,4.1
2022-11-12T09:00:00,-2,-6.4,90,-6,48,448,8.3,103,d,0,886,74,1023,0,86,16,Overcast clouds,804,c04d,340,6.4,3.6
2022-11-12T10:00:00,-1,-5.6,90,-6.1,65,609,14.4,209,d,0,887,68,1023,0,78,16,Overcast clouds,804,c04d,340,6.4,4.1
2022-11-12T11:00:00,0,-5.5,90,-5.2,75,684,18.7,288,d,0,887,68,1024,0,107,16,Overcast clouds,804,c04d,350,6.2,6.2
2022-11-12T12:00:00,-1,-7.5,90,-5,79,713,20.8,325,d,0,888,74,1023,0,121,16,Overcast clouds,804,c04d,350,7.7,7.7
2022-11-12T13:00:00,-1,-6.8,90,-3,78,708,20.4,318,d,0,887,86,1023,0,118,16,Overcast clouds,804,c04d,360,6.8,6.2
2022-11-12T14:00:00,-1,-5.6,89,-3,72,665,17.5,266,d,0,887,86,1023,0,105,16,Overcast clouds,804,c04d,360,6.8,4.1
2022-11-12T15:00:00,-1,-5.2,88,-3,61,568,12.6,176,d,0,887,86,1023,0,73,16,Overcast clouds,804,c04d,10,4.4,3.6
2022-11-12T16:00:00,-1,-5.9,88,-4,39,356,5.9,66,d,0,887,80,1023,0,67,16,Overcast clouds,804,c04d,360,4.6,4.6
2022-11-12T17:00:00,-1,-4.8,89,-4,0,0,-2,0,n,0,888,80,1024,0,0,16,Overcast clouds,804,c04n,340,3.1,3.1
2022-11-12T18:00:00,-1,-4.8,89,-4,0,0,-10.8,0,n,0,888,80,1023,0,0,16,Overcast clouds,804,c04n,320,3.1,3.1
2022-11-12T19:00:00,-1,-4.3,89,-6.1,0,0,-20.1,0,n,0,888,68,1023,0,0,16,Overcast clouds,804,c04n,260,2.8,2.6
2022-11-12T20:00:00,-1,-2.9,89,-5,0,0,-29.5,0,n,0,888,74,1023,0,0,16,Overcast clouds,804,c04n,260,3.6,1.5
2022-11-12T21:00:00,-1,-4.3,89,-6.1,0,0,-38.6,0,n,0,888,68,1023,0,0,16,Overcast clouds,804,c04n,280,4,2.6
2022-11-12T22:00:00,-1,-2.9,87,-6.1,0,0,-46.9,0,n,0,888,68,1023,0,0,16,Overcast clouds,804,c04n,290,4,1.5
2022-11-12T23:00:00,-1,-4.3,87,-6.1,0,0,-53.3,0,n,0,888,68,1023,0,0,16,Overcast clouds,804,c04n,280,4,2.6
2022-11-13T00:00:00,-1,-4.3,88,-5,0,0,-56.7,0,n,0,888,74,1023,0,0,16,Overcast clouds,804,c04n,270,4.4,2.6
2022-11-13T01:00:00,-3,-6.1,85,-6.1,0,0,-56.1,0,n,0,888,79,1024,0,0,16,Overcast clouds,804,c04n,340,4.4,2.1
2022-11-13T02:00:00,-7,-9.7,83,-10,0,0,-51.6,0,n,0,888,79,1024,0,0,16,Overcast clouds,804,c04n,50,4.8,1.5
2022-11-13T03:00:00,-6,-10.9,83,-8.1,0,0,-44.4,0,n,0,886,85,1025,0,0,16,Overcast clouds,804,c04n,120,4.8,3.2
2022-11-13T04:00:00,-8,-10.9,83,-10.1,0,0,-35.8,0,n,0,887,85,1025,0,0,16,Overcast clouds,804,c04n,190,5.2,1.5
2022-11-13T05:00:00,-9,-10.8,84,-11,0,0,-26.6,0,n,0,886,85,1026,0,0,16,Overcast clouds,804,c04n,170,5.2,1
2022-11-13T06:00:00,-10,-11.9,84,-12,0,0,-17.2,0,n,0,886,85,1026,0,0,16,Overcast clouds,804,c04n,150,5.6,1
2022-11-13T07:00:00,-8,-10.9,84,-11,0,0,-8.1,0,n,0,886,79,1026,0,0,16,Overcast clouds,804,c04n,150,5.6,1.5
2022-11-13T08:00:00,-8,-11.9,85,-12.1,9,28,0.5,3,d,0,887,72,1026,0,10,16,Overcast clouds,804,c04n,230,5.6,2.1
2022-11-13T09:00:00,-7,-11.4,84,-11,47,440,8,99,d,0,887,73,1026,0,50,16,Overcast clouds,804,c04d,220,5.6,2.6
2022-11-13T10:00:00,-5,-6.4,91,-12.2,65,604,14.2,205,d,0,887,57,1026,0,71,16,Overcast clouds,804,c04d,220,4.8,1
2022-11-13T11:00:00,-2,-4.9,82,-10,74,680,18.5,283,d,0,889,54,1025,0,153,16,Overcast clouds,804,c04d,220,4.4,2.1
2022-11-13T12:00:00,-1,-3.7,83,-10.1,78,710,20.5,321,d,0,890,50,1025,0,168,16,Overcast clouds,804,c04d,220,4.4,2.1
2022-11-13T13:00:00,2,-0.2,54,-9.2,78,704,20.1,313,d,0,890,43,1024,0,278,16,Broken clouds,803,c03d,220,3.6,2.1
2022-11-13T14:00:00,2,0.5,52,-9.2,72,661,17.3,261,d,0,891,43,1024,0,236,16,Broken clouds,803,c03d,240,4,1.5
2022-11-13T15:00:00,3,-0.3,52,-10.2,60,563,12.3,173,d,0,890,37,1024,0,156,16,Broken clouds,803,c03d,330,3.6,3.6
2022-11-13T16:00:00,2,-0.7,86,-9.2,38,347,5.7,63,d,0,891,43,1025,0,67,16,Overcast clouds,804,c04d,360,3.6,2.6
2022-11-13T17:00:00,1,-1.4,80,-9,0,0,-2.2,0,n,0,891,47,1025,0,0,16,Overcast clouds,804,c04n,330,4.8,2.1
2022-11-13T18:00:00,1,-0.6,81,-9,0,0,-11,0,n,0,890,47,1026,0,0,16,Overcast clouds,804,c04n,270,6,1.5
2022-11-13T19:00:00,-4,-5.3,84,-10,0,0,-20.3,0,n,0,891,63,1027,0,0,16,Overcast clouds,804,c04n,280,6.4,1
2022-11-13T20:00:00,-3,-4.1,82,-9,0,0,-29.7,0,n,0,889,63,1027,0,0,16,Overcast clouds,804,c04n,290,6.4,1
2022-11-13T21:00:00,-1,-2.9,86,-8,0,0,-38.8,0,n,0,890,59,1027,0,0,16,Overcast clouds,804,c04n,300,6.8,1.5
2022-11-13T22:00:00,0,-4,82,-7,0,0,-47.1,0,n,0,891,59,1027,0,0,16,Overcast clouds,804,c04n,330,8,3.6
2022-11-13T23:00:00,1,-4,81,-5,0,0,-53.5,0,n,0,892,64,1026,0,0,16,Overcast clouds,804,c04n,330,8,5.7
2022-11-14T00:00:00,1,-5.3,83,-4,0,0,-57,0,n,0,892,69,1027,0,0,16,Overcast clouds,804,c04n,330,8.8,8.8
2022-11-14T01:00:00,1,-4,80,-5,0,0,-56.3,0,n,0,893,64,1027,0,0,16,Overcast clouds,804,c04n,330,8,5.7
2022-11-14T02:00:00,0,-4.4,81,-6,0,0,-51.8,0,n,0,893,64,1027,0,0,16,Overcast clouds,804,c04n,330,8,4.1
2022-11-14T03:00:00,1,-4.5,84,-4,0,0,-44.7,0,n,0,893,69,1027,0,0,16,Overcast clouds,804,c04n,320,9,6.7
2022-11-14T04:00:00,0,-2.6,87,-5,0,0,-36,0,n,0,894,69,1028,0,0,16,Overcast clouds,804,c04n,280,6,2.1
2022-11-14T05:00:00,1,-3.1,89,-5,0,0,-26.8,0,n,0,894,64,1028,0,0,11,Overcast clouds,804,c04n,320,9,4.1
2022-11-14T06:00:00,1,-4.9,90,-5,0,0,-17.4,0,n,0,895,64,1028,0,0,11,Overcast clouds,804,c04n,320,7.7,7.7
2022-11-14T07:00:00,2,-3.6,89,-4.1,0,0,-8.3,0,n,0,895,64,1030,0,0,11,Overcast clouds,804,c04n,330,8,7.7
2022-11-14T08:00:00,2,-3,89,-4.1,7,15,0.2,2,d,0,895,64,1030,0,8,16,Overcast clouds,804,c04n,330,8,6.2
2022-11-14T09:00:00,1,-3.7,88,-4,46,431,7.8,96,d,0,896,69,1030,0,86,16,Overcast clouds,804,c04d,330,8,5.1
2022-11-14T10:00:00,2,-3.2,100,-4.1,64,599,13.9,201,d,0,902,64,1030,0,84,16,Overcast clouds,804,c04d,330,10,6.7
2022-11-14T11:00:00,2,-3.6,53,-4.1,74,676,18.2,278,d,0,896,64,1030,0,249,16,Broken clouds,803,c03d,340,10,7.7
2022-11-14T12:00:00,2,-3,80,-4.1,78,707,20.3,316,d,0,897,64,1031,0,183,16,Overcast clouds,804,c04d,360,6.8,6.2
2022-11-14T13:00:00,2,-2.5,44,-4.1,77,701,19.9,309,d,0,897,64,1031,0,292,16,Broken clouds,803,c03d,10,6.4,5.1
2022-11-14T14:00:00,2,-2.2,47,-4.1,71,658,17,257,d,0,900,64,1031,0,239,16,Broken clouds,803,c03d,360,6,4.6
2022-11-14T15:00:00,2,-2.8,47,-4.1,59,558,12.1,169,d,0,900,64,1031,0,157,16,Broken clouds,803,c03d,360,5.7,5.7
2022-11-14T16:00:00,1,-2.8,49,-4,37,338,5.5,60,d,0,900,69,1031,0,55,16,Broken clouds,803,c03d,350,3.6,3.6
2022-11-14T17:00:00,0,-3.1,57,-5,0,0,-2.4,0,n,0,900,69,1032,0,0,16,Broken clouds,803,c03n,340,3.6,2.6
2022-11-14T18:00:00,-1,-2.9,80,-4,0,0,-11.2,0,n,0,900,80,1032,0,0,16,Overcast clouds,804,c04n,290,3.2,1.5
2022-11-14T19:00:00,-2,-3,81,-4,0,0,-20.5,0,n,0,900,86,1033,0,0,16,Overcast clouds,804,c04n,230,2.8,1
2022-11-14T20:00:00,-3,-6.5,82,-5,0,0,-29.9,0,n,0,900,86,1033,0,0,16,Overcast clouds,804,c04n,135,3.2,2.4
2022-11-14T21:00:00,-7,-9.7,82,-9.1,0,0,-39,0,n,0,900,85,1034,0,0,16,Overcast clouds,804,c04n,40,3.6,1.5
2022-11-14T22:00:00,-6,-7.5,82,-8.1,0,0,-47.3,0,n,0,900,85,1034,0,0,16,Overcast clouds,804,c04n,40,4,1
2022-11-14T23:00:00,-6,-7.5,82,-9,0,0,-53.8,0,n,0,900,79,1033,0,0,16,Overcast clouds,804,c04n,40,4.4,1
2022-11-15T00:00:00,-5,-9.3,82,-7.1,0,0,-57.2,0,n,0,900,85,1033,0,0,16,Overcast clouds,804,c04n,120,4.8,2.8
2022-11-15T01:00:00,-4,-7.9,86,-8.1,0,0,-56.6,0,n,0,900,73,1033,0,0,16,Overcast clouds,804,c04n,200,4.8,2.6
2022-11-15T02:00:00,-5.2,-9.4,89,-8.4,0,0,-52,0,n,0,900,78,1032,0,0,16,Overcast clouds,804,c04n,205,2.7,2.7
2022-11-15T03:00:00,-5,-8.4,82,-9.1,0,0,-44.9,0,n,0,900,73,1032,0,0,16,Overcast clouds,804,c04n,200,2.1,2.1
2022-11-15T04:00:00,-4,-8.9,83,-8.1,0,0,-36.3,0,n,0,900,73,1032,0,0,16,Overcast clouds,804,c04n,210,5.6,3.6
2022-11-15T05:00:00,-3,-7.6,95,-8.1,0,0,-27,0,n,0,900,68,1032,0,0,16,Overcast clouds,804,c04n,220,5.6,3.6
2022-11-15T06:00:00,-4,-7.3,91,-9,0,0,-17.6,0,n,0,900,68,1032,0,0,16,Overcast clouds,804,c04n,200,5.6,2.1
2022-11-15T07:00:00,-3,-4.1,93,-8.1,0,0,-8.5,0,n,0,900,68,1032,0,0,16,Overcast clouds,804,c04n,190,6,1
2022-11-15T08:00:00,-2,-4,94,-8.1,5,5,0,1,d,0,900,63,1032,0,5,16,Overcast clouds,804,c04n,210,6.4,1.5
2022-11-15T09:00:00,2,-1.2,92,-9.2,45,423,7.5,92,d,0,900,43,1033,0,75,16,Overcast clouds,804,c04d,330,7,3.1
2022-11-15T10:00:00,3,-1.2,93,-8,64,594,13.7,196,d,0,900,44,1033,0,122,16,Overcast clouds,804,c04d,330,7,5.1
2022-11-15T11:00:00,5,-0.1,87,-8.1,73,673,18,274,d,0,900,38,1033,0,120,16,Overcast clouds,804,c04d,330,11,8.8
2022-11-15T12:00:00,5,-0.5,90,-6.2,77,703,20,312,d,0,900,44,1034,0,116,16,Overcast clouds,804,c04d,330,15,10.3
2022-11-15T13:00:00,5,-0.2,58,-5.1,77,698,19.6,304,d,0,899,48,1035,0,261,16,Broken clouds,803,c03d,330,12,9.3
2022-11-15T14:00:00,5,0.3,84,-5.1,71,654,16.8,253,d,0,899,48,1035,0,127,16,Overcast clouds,804,c04d,330,12,7.7
2022-11-15T15:00:00,6,1.6,44,-4.2,59,553,11.9,165,d,0,899,48,1035,0,156,16,Broken clouds,803,c03d,330,10,7.7
2022-11-15T16:00:00,5,0.6,46,-4,36,329,5.3,57,d,0,899,52,1036,0,53,16,Broken clouds,803,c03d,340,11,6.7
2022-11-15T17:00:00,2,-1.6,51,-4.1,0,0,-2.6,0,n,0,899,64,1038,0,0,16,Broken clouds,803,c03n,340,11,3.6
2022-11-15T18:00:00,1,-2.4,54,-4,0,0,-11.4,0,n,0,899,69,1038,0,0,16,Broken clouds,803,c03n,340,11,3.1
2022-11-15T19:00:00,0,-4.7,86,-5,0,0,-20.6,0,n,0,899,69,1039,0,0,16,Overcast clouds,804,c04n,350,8.4,4.6
2022-11-15T20:00:00,0,-5.5,85,-5,0,0,-30,0,n,0,899,69,1040,0,0,16,Overcast clouds,804,c04n,340,8,6.2
2022-11-15T21:00:00,-1,-5.2,82,-5,0,0,-39.2,0,n,0,899,74,1040,0,0,16,Overcast clouds,804,c04n,320,7.2,3.6
2022-11-15T22:00:00,-1,-4.8,91,-6.1,0,0,-47.5,0,n,0,899,68,1040,0,0,16,Overcast clouds,804,c04n,340,6.4,3.1
2022-11-15T23:00:00,-1,-4.8,93,-6.1,0,0,-54,0,n,0,899,68,1040,0,0,16,Overcast clouds,804,c04n,340,6,3.1
2022-11-16T00:00:00,-1,-4.8,86,-6.1,0,0,-57.5,0,n,0,899,68,1040,0,0,16,Overcast clouds,804,c04n,300,6,3.1
2022-11-16T01:00:00,-1,-4.3,83,-6.1,0,0,-56.8,0,n,0,899,68,1039,0,0,16,Overcast clouds,804,c04n,320,5.6,2.6
2022-11-16T02:00:00,-2,-4.9,91,-6,0,0,-52.3,0,n,0,899,74,1039,0,0,16,Overcast clouds,804,c04n,270,5.2,2.1
2022-11-16T03:00:00,-2,-4.9,91,-7.1,0,0,-45.1,0,n,0,899,68,1039,0,0,16,Overcast clouds,804,c04n,240,5.2,2.1
2022-11-16T04:00:00,-3,-7.2,90,-7.1,0,0,-36.5,0,n,0,898,73,1039,0,0,16,Overcast clouds,804,c04n,230,4,3.1
2022-11-16T05:00:00,-2,-5.5,91,-7.1,0,0,-27.2,0,n,0,898,68,1039,0,0,16,Overcast clouds,804,c04n,220,6.4,2.6
2022-11-16T06:00:00,-1,-5.6,94,-6.1,0,0,-17.9,0,n,0,898,68,1038,0,0,16,Overcast clouds,804,c04n,340,7.2,4.1
2022-11-16T07:00:00,0,-5.8,94,-5.2,0,0,-8.7,0,n,0,898,68,1038,0,0,16,Overcast clouds,804,c04n,350,9,6.7
2022-11-16T08:00:00,-1,-7.1,94,-3,2,1,-0.2,0,n,0,898,86,1039,0,0,4,Overcast clouds,804,c04n,360,9,6.7
2022-11-16T09:00:00,-1,-7.7,94,-3,44,414,7.3,88,d,0,898,86,1039,0,68,13,Overcast clouds,804,c04d,340,10,8.2
2022-11-16T10:00:00,-1,-7.5,93,-4,63,589,13.4,192,d,0,898,80,1040,0,120,16,Overcast clouds,804,c04d,340,10,7.7
2022-11-16T11:00:00,-1,-8.1,93,-5,73,669,17.7,269,d,0,898,74,1040,0,80,16,Overcast clouds,804,c04d,350,12,9.3
2022-11-16T12:00:00,-1,-8.8,95,-6.1,77,700,19.8,307,d,0,898,68,1040,0,152,16,Overcast clouds,804,c04d,340,11.3,11.3
2022-11-16T13:00:00,-1,-7.7,94,-6.1,76,695,19.4,300,d,0,898,68,1040,0,81,16,Overcast clouds,804,c04d,340,10,8.2
2022-11-16T14:00:00,-1,-8.5,90,-7.1,70,650,16.6,249,d,0,898,63,1040,0,92,16,Overcast clouds,804,c04d,340,14,10.3
2022-11-16T15:00:00,-2,-9.2,91,-7.1,58,549,11.7,162,d,0,898,68,1041,0,114,16,Overcast clouds,804,c04d,350,12,8.8
2022-11-16T16:00:00,-2,-9,93,-8.1,36,320,5.1,55,d,0,898,63,1041,0,52,16,Overcast clouds,804,c04d,340,12,8.2
2022-11-16T17:00:00,-4,-13.3,85,-10,0,0,-2.8,0,n,0,898,63,1043,0,0,16,Overcast clouds,804,c04n,360,16,12.9
2022-11-16T18:00:00,-5,-13.4,86,-10.2,0,0,-11.5,0,n,0,898,67,1043,0,0,16,Overcast clouds,804,c04n,340,12,9.3
2022-11-16T19:00:00,-5,-13.2,83,-10.2,0,0,-20.8,0,n,0,897,67,1043,0,0,16,Overcast clouds,804,c04n,350,16,8.8
2022-11-16T20:00:00,-6,-14.7,84,-11.1,0,0,-30.2,0,n,0,897,67,1044,0,0,16,Overcast clouds,804,c04n,340,12,9.3
2022-11-16T21:00:00,-6,-14.7,83,-12.1,0,0,-39.3,0,n,0,897,62,1045,0,0,16,Overcast clouds,804,c04n,350,13,9.3
2022-11-16T22:00:00,-6,-15.6,87,-12.1,0,0,-47.6,0,n,0,897,62,1045,0,0,16,Overcast clouds,804,c04n,340,14,11.8
2022-11-16T23:00:00,-7,-17,87,-13,0,0,-54.2,0,n,0,897,62,1046,0,0,16,Overcast clouds,804,c04n,340,15,11.8
2022-11-17T00:00:00,-8,-18.3,85,-14,0,0,-57.7,0,n,0,897,62,1047,0,0,16,Overcast clouds,804,c04n,350,16,11.8
2022-11-17T01:00:00,-9,-19.3,85,-14,0,0,-57.1,0,n,0,897,67,1047,0,0,16,Overcast clouds,804,c04n,350,16,10.8
2022-11-17T02:00:00,-10,-20.4,85,-14.1,0,0,-52.5,0,n,0,897,72,1047,0,0,16,Overcast clouds,804,c04n,340,13,10.3
2022-11-17T03:00:00,-10,-19.7,86,-14.1,0,0,-45.3,0,n,0,903,72,1047,0,0,16,Overcast clouds,804,c04n,350,13,8.8
2022-11-17T04:00:00,-11,-19.9,86,-15,0,0,-36.7,0,n,0,904,72,1048,0,0,16,Overcast clouds,804,c04n,350,13,6.7
2022-11-17T05:00:00,-12,-21.5,86,-16,0,0,-27.5,0,n,0,904,72,1048,0,0,16,Overcast clouds,804,c04n,340,13,7.2
2022-11-17T06:00:00,-12,-20,86,-16,0,0,-18.1,0,n,0,903,72,1048,0,0,16,Overcast clouds,804,c04n,350,7.2,5.1
2022-11-17T07:00:00,-13,-20.8,86,-17.1,0,0,-8.9,0,n,0,903,71,1048,0,0,16,Overcast clouds,804,c04n,350,5.6,4.6
2022-11-17T08:00:00,-13,-19.8,87,-18,0,0,-0.4,0,n,0,902,66,1048,0,0,16,Overcast clouds,804,c04n,350,4.4,3.6
2022-11-17T09:00:00,-12,-18.6,87,-19,44,405,7.1,84,d,0,902,56,1048,0,81,16,Overcast clouds,804,c04d,340,4.4,3.6
2022-11-17T10:00:00,-10,-16.2,84,-18,62,583,13.2,188,d,0,903,52,1048,0,94,16,Overcast clouds,804,c04d,340,4.8,3.6
2022-11-17T11:00:00,-9,-13.8,82,-18,72,665,17.5,265,d,0,903,48,1047,0,144,16,Overcast clouds,804,c04d,350,4,2.6
2022-11-17T12:00:00,-9,-14.4,81,-18,77,697,19.5,303,d,0,903,48,1046,0,170,16,Overcast clouds,804,c04d,170,3.1,3.1
2022-11-17T13:00:00,-8,-11.9,80,-20.1,76,692,19.1,296,d,0,903,37,1045,0,171,16,Overcast clouds,804,c04d,160,2.8,2.1
2022-11-17T14:00:00,-7,-12,80,-19.2,70,647,16.4,245,d,0,902,37,1044,0,142,16,Overcast clouds,804,c04d,170,3.2,3.1
2022-11-17T15:00:00,-7,-13.7,92,-19.2,58,544,11.5,158,d,0,902,37,1042,0,109,16,Overcast clouds,804,c04d,180,5.1,5.1
2022-11-17T16:00:00,-8,-14.6,91,-21.1,35,311,4.9,52,d,0,900,34,1042,0,53,16,Overcast clouds,804,c04d,190,4.6,4.6
2022-11-17T17:00:00,-9,-15.4,90,-20.1,0,0,-2.9,0,n,0,899,40,1041,0,0,16,Overcast clouds,804,c04n,190,4.1,4.1
2022-11-17T18:00:00,-10,-15,88,-20.2,0,0,-11.7,0,n,0,897,43,1040,0,0,16,Overcast clouds,804,c04n,180,3.6,2.6
2022-11-17T19:00:00,-10,-15,87,-19.1,0,0,-20.9,0,n,0,896,47,1040,0,0,16,Overcast clouds,804,c04n,210,4.8,2.6
2022-11-17T20:00:00,-9,-13.8,89,-20.1,0,0,-30.3,0,n,0,896,40,1039,0,0,16,Overcast clouds,804,c04n,210,5.6,2.6
2022-11-17T21:00:00,-8,-9.7,88,-19.2,0,0,-39.5,0,n,0,896,40,1038,0,0,16,Overcast clouds,804,c04n,330,3,1
2022-11-17T22:00:00,-9,-12,86,-18,0,0,-47.8,0,n,0,895,48,1038,0,0,16,Overcast clouds,804,c04n,230,6.4,1.5
2022-11-17T23:00:00,-7,-11.4,90,-18,0,0,-54.4,0,n,0,895,41,1036,0,0,16,Overcast clouds,804,c04n,230,6.4,2.6
2022-11-18T00:00:00,-7,-10.8,86,-18,0,0,-58,0,n,0,895,41,1036,0,0,16,Overcast clouds,804,c04n,240,6.8,2.1
2022-11-18T01:00:00,-6,-10.3,85,-18.9,0,0,-57.3,0,n,0,895,35,1034,0,0,16,Overcast clouds,804,c04n,260,6.8,2.6
2022-11-18T02:00:00,-5,-8.4,85,-21.1,0,0,-52.8,0,n,0,894,27,1034,0,0,16,Overcast clouds,804,c04n,250,6.8,2.1
2022-11-18T03:00:00,-8,-13.7,1,-19.2,0,0,-45.6,0,n,0,903,40,1034,0,0,16,Clear Sky,800,c01n,230,7,3.6
2022-11-18T04:00:00,-6,-9.6,85,-18.9,0,0,-36.9,0,n,0,893,35,1033,0,0,16,Overcast clouds,804,c04n,280,7.2,2.1
2022-11-18T05:00:00,-7,-10.8,0,-19.2,0,0,-27.7,0,n,0,903,37,1033,0,0,16,Clear Sky,800,c01n,250,7,2.1
2022-11-18T06:00:00,-5,-10.5,86,-20.2,0,0,-18.3,0,n,0,892,29,1032,0,0,16,Overcast clouds,804,c04n,280,7,4.1
2022-11-18T07:00:00,-4,-9.3,0,-21.1,0,0,-9.2,0,n,0,902,25,1032,0,0,16,Clear Sky,800,c01n,330,7,4.1
2022-11-18T08:00:00,-6,-9.6,85,-18.9,0,0,-0.7,0,n,0,893,35,1033,0,0,16,Overcast clouds,804,c04n,320,7,2.1
2022-11-18T09:00:00,-5,-10.1,85,-20.2,43,396,6.8,81,d,0,893,29,1033,0,82,16,Overcast clouds,804,c04d,310,8,3.6
2022-11-18T10:00:00,-3,-8,82,-20.2,62,578,12.9,184,d,0,894,25,1033,0,100,16,Overcast clouds,804,c04d,330,10,4.1
2022-11-18T11:00:00,-1,-7.5,80,-19,72,661,17.2,261,d,0,895,24,1033,0,151,16,Overcast clouds,804,c04d,330,10,7.7
2022-11-18T12:00:00,0,-6.2,54,-18.1,76,694,19.3,298,d,0,896,24,1032,0,265,16,Broken clouds,803,c03d,320,10,7.7
2022-11-18T13:00:00,1,-4.9,53,-18.3,75,688,18.9,292,d,0,896,22,1031,0,262,16,Broken clouds,803,c03d,320,10,7.7
2022-11-18T14:00:00,1,-3.1,52,-18.3,70,643,16.2,242,d,0,896,22,1031,0,218,16,Broken clouds,803,c03d,330,8,4.1
2022-11-18T15:00:00,1,-4.3,53,-18.3,57,539,11.3,155,d,0,895,22,1031,0,139,16,Broken clouds,803,c03d,320,9,6.2
2022-11-18T16:00:00,0,-3.1,58,-11.7,34,303,4.7,50,d,0,895,41,1031,0,43,16,Broken clouds,803,c03n,340,9,2.6
2022-11-18T17:00:00,-3,-6.1,82,-16.3,0,0,-3.1,0,n,0,895,35,1032,0,0,16,Overcast clouds,804,c04n,10,4,2.1
2022-11-18T18:00:00,-6,-9.6,83,-15,0,0,-11.8,0,n,0,894,49,1032,0,0,16,Overcast clouds,804,c04n,320,4.8,2.1
2022-11-18T19:00:00,-7,-11.7,84,-16.1,0,0,-21,0,n,0,893,48,1032,0,0,16,Overcast clouds,804,c04n,295,5.2,2.8
2022-11-18T20:00:00,-6,-8.6,85,-16,0,0,-30.5,0,n,0,892,45,1032,0,0,16,Overcast clouds,804,c04n,265,5.6,1.5
2022-11-18T21:00:00,-11,-13,85,-18,0,0,-39.6,0,n,0,893,56,1033,0,0,16,Overcast clouds,804,c04n,240,2,1
2022-11-18T22:00:00,-7,-11.4,85,-16.1,0,0,-48,0,n,0,890,48,1031,0,0,16,Overcast clouds,804,c04n,210,6,2.6
2022-11-18T23:00:00,-10,-15,86,-16.1,0,0,-54.6,0,n,0,892,61,1031,0,0,16,Overcast clouds,804,c04n,220,6,2.6
2022-11-19T00:00:00,-9,-14.1,86,-16.1,0,0,-58.2,0,n,0,890,56,1030,0,0,16,Overcast clouds,804,c04n,225,5.6,2.8
2022-11-19T01:00:00,-10,-13.2,86,-15.1,0,0,-57.6,0,n,0,890,66,1030,0,0,16,Overcast clouds,804,c04n,230,5.6,1.5
2022-11-19T02:00:00,-10,-14.3,86,-16.1,0,0,-53,0,n,0,889,61,1028,0,0,16,Overcast clouds,804,c04n,200,6,2.1
2022-11-19T03:00:00,-10,-15.6,87,-16.1,0,0,-45.8,0,n,0,888,61,1027,0,0,16,Overcast clouds,804,c04n,220,6.4,3.1
2022-11-19T04:00:00,-10,-14.3,86,-16.1,0,0,-37.1,0,n,0,887,61,1026,0,0,16,Overcast clouds,804,c04n,190,6.4,2.1
2022-11-19T05:00:00,-10,-15,87,-17.1,0,0,-27.9,0,n,0,886,56,1025,0,0,16,Overcast clouds,804,c04n,210,6.8,2.6
2022-11-19T06:00:00,-8,-13.7,87,-16.1,0,0,-18.5,0,n,0,885,52,1024,0,0,16,Overcast clouds,804,c04n,220,7.6,3.6
2022-11-19T07:00:00,-8,-12.6,87,-16.1,0,0,-9.4,0,n,0,885,52,1023,0,0,16,Overcast clouds,804,c04n,210,8,2.6
2022-11-19T08:00:00,-7,-13.5,86,-17.2,0,0,-0.9,0,n,0,884,44,1022,0,0,16,Overcast clouds,804,c04n,205,8.4,4.8
2022-11-19T09:00:00,-2,-7.3,86,-16.1,42,388,6.6,77,d,0,884,33,1022,0,78,16,Overcast clouds,804,c04d,195,9.2,4.8
2022-11-19T10:00:00,4,0.2,80,-16.3,61,573,12.7,179,d,0,886,21,1021,0,104,16,Overcast clouds,804,c04d,190,9.2,4.8
2022-11-19T11:00:00,4,0.2,16,-14.2,71,658,17,256,d,0,892,25,1021,0,256,16,Few clouds,801,c02d,185,8,4.8
2022-11-19T12:00:00,5,1.6,6,-13.4,76,691,19,294,d,0,892,25,1021,0,294,16,Few clouds,801,c02d,175,9,4.4
2022-11-19T13:00:00,4,2.8,3,-10,75,685,18.7,288,d,0,892,35,1020,0,288,16,Few clouds,801,c02d,170,10,1.5
2022-11-19T14:00:00,8,8,58,-14.2,69,640,16,238,d,0,888,19,1019,0,204,16,Broken clouds,803,c03d,280,10,6.7
2022-11-19T15:00:00,8,8,20,-13,57,535,11.1,152,d,0,892,21,1019,0,151,16,Few clouds,801,c02d,280,10,6.7
2022-11-19T16:00:00,7,2.9,7,-14.4,33,294,4.6,47,d,0,892,20,1020,0,47,16,Few clouds,801,c02n,280,10,7.7
2022-11-19T17:00:00,5,0.6,60,-14.4,0,0,-3.3,0,n,0,889,23,1020,0,0,16,Broken clouds,803,c03n,290,6.7,6.7
2022-11-19T18:00:00,5,0.8,80,-15.5,0,0,-11.9,0,n,0,889,21,1020,0,0,16,Overcast clouds,804,c04n,280,7.2,6.2
2022-11-19T19:00:00,-1,-3.7,18,-11.1,0,0,-21.2,0,n,0,893,46,1022,0,0,16,Few clouds,801,c02n,30,6,2.1
2022-11-19T20:00:00,0,-3.6,87,-10.2,0,0,-30.6,0,n,0,887,46,1022,0,0,16,Overcast clouds,804,c04n,340,7.2,3.1
2022-11-19T21:00:00,-3,-5.2,83,-13,0,0,-39.8,0,n,0,887,46,1021,0,0,16,Overcast clouds,804,c04n,110,6.8,1.5
2022-11-19T22:00:00,-3,-7.2,84,-14.1,0,0,-48.1,0,n,0,886,42,1021,0,0,16,Overcast clouds,804,c04n,170,6,3.1
2022-11-19T23:00:00,2,-2.2,87,-15.9,0,0,-54.8,0,n,0,886,25,1020,0,0,16,Overcast clouds,804,c04n,310,7.2,4.6
2022-11-20T00:00:00,3,0.9,25,-17.1,0,0,-58.4,0,n,0,894,21,1020,0,0,16,Scattered clouds,802,c02n,320,4,2.1
2022-11-20T01:00:00,2,-0.2,19,-15.9,0,0,-57.8,0,n,0,893,25,1020,0,0,16,Few clouds,801,c02n,330,4,2.1
2022-11-20T02:00:00,2,-1.6,24,-15.9,0,0,-53.2,0,n,0,893,25,1019,0,0,16,Scattered clouds,802,c02n,310,4,3.6
2022-11-20T03:00:00,-4,-7.3,85,-15,0,0,-46,0,n,0,888,42,1020,0,0,16,Overcast clouds,804,c04n,315,4,2.1
2022-11-20T04:00:00,2,1.4,85,-16.9,0,0,-37.3,0,n,0,885,23,1019,0,0,16,Overcast clouds,804,c04n,315,4,1
2022-11-20T05:00:00,3,2.5,100,-16.1,0,0,-28.1,0,n,0,892,23,1019,0,0,16,Overcast clouds,804,c04n,320,5,1
2022-11-20T06:00:00,3,-1,93,-13.3,0,0,-18.7,0,n,0,892,29,1019,0,0,16,Overcast clouds,804,c04n,320,5,4.6
2022-11-20T07:00:00,4,-0.2,87,-12,0,0,-9.6,0,n,0,892,30,1019,0,0,16,Overcast clouds,804,c04n,300,5.7,5.7
2022-11-20T08:00:00,4,1.2,43,-10,0,0,-1.1,0,n,0,892,35,1019,0,0,16,Broken clouds,803,c03n,300,6,3.1
2022-11-20T09:00:00,5,2.1,44,-10.3,41,378,6.4,74,d,0,893,32,1020,0,70,16,Broken clouds,803,c03d,310,6,3.6
2022-11-20T10:00:00,2,0.5,25,-7.1,61,568,12.5,175,d,0,893,51,1021,0,174,16,Scattered clouds,802,c02d,100,6,1.5
2022-11-20T11:00:00,2,-1.6,88,-6.1,71,654,16.7,252,d,0,892,55,1021,0,105,16,Overcast clouds,804,c04d,70,6.4,3.6
2022-11-20T12:00:00,2,-1.2,91,-5.2,75,688,18.8,290,d,0,892,59,1021,0,101,16,Overcast clouds,804,c04d,60,6.4,3.1
2022-11-20T13:00:00,3,0.4,91,-5.1,75,682,18.5,284,d,0,891,55,1021,0,99,16,Overcast clouds,804,c04d,360,5.6,2.6
2022-11-20T14:00:00,5,4.7,91,-8.1,69,637,15.8,234,d,0,891,38,1021,0,81,16,Overcast clouds,804,c04d,330,5.2,1
2022-11-20T15:00:00,4,2.1,92,-6,56,530,10.9,149,d,0,891,48,1021,0,104,16,Overcast clouds,804,c04d,300,4.4,2.1
2022-11-20T16:00:00,2,-0.7,92,-6.1,33,286,4.4,45,d,0,891,55,1021,0,47,16,Overcast clouds,804,c04n,220,7,2.6
2022-11-20T17:00:00,1,-1.9,88,-6.1,0,0,-3.4,0,n,0,891,59,1020,0,0,16,Overcast clouds,804,c04n,210,4.4,2.6
2022-11-20T18:00:00,1,-0.6,88,-7,0,0,-12.1,0,n,0,891,55,1021,0,0,16,Overcast clouds,804,c04n,190,4.8,1.5
2022-11-20T19:00:00,-1,-3.7,83,-7.1,0,0,-21.3,0,n,0,891,63,1020,0,0,16,Overcast clouds,804,c04n,230,5.2,2.1
2022-11-20T20:00:00,-1,-2.9,82,-8,0,0,-30.7,0,n,0,891,59,1021,0,0,16,Overcast clouds,804,c04n,220,5.6,1.5
2022-11-20T21:00:00,-2,-4,86,-8.1,0,0,-39.9,0,n,0,891,63,1020,0,0,16,Overcast clouds,804,c04n,210,5.6,1.5
2022-11-20T22:00:00,-4,-8.5,91,-8.1,0,0,-48.3,0,n,0,891,73,1021,0,0,16,Overcast clouds,804,c04n,285,5.6,3.2
2022-11-20T23:00:00,-4.8,-4.4,92,-9.4,0,0,-55,0,n,0,891,70,1022,0,0,16,Overcast clouds,804,c04n,360,5.6,0.5
2022-11-21T00:00:00,-3,-5.2,91,-8.1,0,0,-58.6,0,n,0,891,68,1021,0,0,16,Overcast clouds,804,c04n,190,5.6,1.5
2022-11-21T01:00:00,-5,-6.4,87,-9.1,0,0,-58,0,n,0,891,73,1021,0,0,16,Overcast clouds,804,c04n,30,5.6,1
2022-11-21T02:00:00,-3,-7.3,95,-9,0,0,-53.5,0,n,0,891,63,1020,0,0,16,Overcast clouds,804,c04n,95,5.6,3.2
2022-11-21T03:00:00,-4,-5.3,95,-9,0,0,-46.2,0,n,0,891,68,1020,0,0,16,Overcast clouds,804,c04n,165,5.6,1
2022-11-21T04:00:00,-2,-4.9,93,-9.1,0,0,-37.5,0,n,0,891,58,1019,0,0,16,Overcast clouds,804,c04n,230,6,2.1
2022-11-21T05:00:00,-1,-5.6,89,-9.1,0,0,-28.3,0,n,0,891,54,1019,0,0,16,Overcast clouds,804,c04n,210,6,4.1
2022-11-21T06:00:00,0,-1.8,90,-8.2,0,0,-18.9,0,n,0,891,54,1019,0,0,16,Overcast clouds,804,c04n,285,6.4,1.5
2022-11-21T07:00:00,0,-4.7,94,-7,0,0,-9.8,0,n,0,891,59,1020,0,0,16,Overcast clouds,804,c04n,360,6.8,4.6
2022-11-21T08:00:00,-1,-1.9,94,-8,0,0,-1.3,0,n,0,891,59,1020,0,0,16,Overcast clouds,804,c04n,245,6.8,1
2022-11-21T09:00:00,1,0.3,80,-8,40,369,6.2,71,d,0,891,51,1020,0,41,16,Overcast clouds,804,c04d,125,6.8,1
2022-11-21T10:00:00,4,2.1,52,-6,60,563,12.3,172,d,0,891,48,1020,0,155,16,Broken clouds,803,c03d,10,5,2.1
2022-11-21T11:00:00,6,5.1,44,-6.2,70,650,16.5,248,d,0,891,41,1020,0,234,16,Broken clouds,803,c03d,320,6,1.5
2022-11-21T12:00:00,7,4,1,-6,75,684,18.6,286,d,0,891,39,1019,0,286,16,Clear Sky,800,c01d,290,7.2,4.6
2022-11-21T13:00:00,9,9,4,-6,74,679,18.3,280,d,0,891,34,1019,0,280,16,Few clouds,801,c02d,270,9,6.2
2022-11-21T14:00:00,9,9,5,-7.2,68,633,15.6,231,d,0,891,31,1018,0,231,16,Few clouds,801,c02d,270,9,5.7
2022-11-21T15:00:00,9,9,19,-7.2,56,526,10.8,146,d,0,891,31,1018,0,146,16,Few clouds,801,c02d,270,9,5.1
2022-11-21T16:00:00,8,8,79,-7.3,32,278,4.3,43,d,0,891,33,1018,0,58,16,Overcast clouds,804,c04n,270,8,5.1
2022-11-21T17:00:00,7,4.3,94,-7,0,0,-3.5,0,n,0,891,36,1017,0,0,16,Overcast clouds,804,c04n,270,7,4.1
2022-11-21T18:00:00,6,3.6,80,-6.2,0,0,-12.2,0,n,0,891,41,1017,0,0,16,Overcast clouds,804,c04n,210,7,3.1
2022-11-21T19:00:00,6,1.2,85,-6.2,0,0,-21.4,0,n,0,891,41,1017,0,0,16,Overcast clouds,804,c04n,280,11,8.8
2022-11-21T20:00:00,7,2.5,87,-6,0,0,-30.8,0,n,0,891,39,1017,0,0,16,Overcast clouds,804,c04n,280,13,8.8
2022-11-21T21:00:00,6,1.6,58,-5,0,0,-40,0,n,0,891,45,1017,0,0,16,Broken clouds,803,c03n,280,11,7.7
2022-11-21T22:00:00,7,2.5,84,-5,0,0,-48.4,0,n,0,891,42,1016,0,0,16,Overcast clouds,804,c04n,270,11,8.8
2022-11-21T23:00:00,6,1.4,86,-6.2,0,0,-55.2,0,n,0,891,41,1015,0,0,16,Overcast clouds,804,c04n,270,13,8.2
2022-11-22T00:00:00,7,3.8,91,-6,0,0,-58.8,0,n,0,891,39,1015,0,0,16,Overcast clouds,804,c04n,260,10,5.1
2022-11-22T01:00:00,5,1.3,97,-5.1,0,0,-58.3,0,n,0,891,48,1014,0,0,16,Overcast clouds,804,c04n,260,8,5.1
2022-11-22T02:00:00,6,2.1,97,-6.2,0,0,-53.7,0,n,0,891,41,1013,0,0,16,Overcast clouds,804,c04n,280,10,6.2
2022-11-22T03:00:00,5,3.3,97,-5.1,0,0,-46.4,0,n,0.25,891,48,1013,0,0,16,Overcast clouds,804,c04n,300,8.4,2.1
2022-11-22T04:00:00,5,1.6,98,-5.1,0,0,-37.8,0,n,0.25,891,48,1012,0,0,16,Overcast clouds,804,c04n,295,8.4,4.4
2022-11-22T05:00:00,6,2.9,98,-5,0,0,-28.5,0,n,0.25,891,45,1011,0,0,16,Overcast clouds,804,c04n,285,8,4.4
2022-11-22T06:00:00,2,0.5,98,-4.1,0,0,-19.1,0,n,0,891,64,1011,0,0,16,Overcast clouds,804,c04n,280,7.6,1.5
2022-11-22T07:00:00,5,2.4,97,-5.1,0,0,-10,0,n,0,891,48,1010,0,0,16,Overcast clouds,804,c04n,310,7.2,3.1
2022-11-22T08:00:00,4,2.8,94,-4.2,0,0,-1.5,0,n,0,891,55,1010,0,0,16,Overcast clouds,804,c04n,90,9,1.5
2022-11-22T09:00:00,8,8,97,-4.1,39,360,5.9,67,d,0,891,42,1008,0,52,16,Overcast clouds,804,c04d,220,9,3.1
2022-11-22T10:00:00,6,3,97,-3.1,59,558,12,168,d,0,891,52,1009,0,91,16,Overcast clouds,804,c04d,130,8.4,4.1
2022-11-22T11:00:00,5,3.9,97,-3,70,647,16.3,244,d,0,891,56,1008,0,116,16,Overcast clouds,804,c04d,190,8,1.5
2022-11-22T12:00:00,5,2.8,97,-3,74,681,18.4,282,d,0,891,56,1008,0,127,16,Overcast clouds,804,c04d,120,2.6,2.6
2022-11-22T13:00:00,7,5.6,97,-4.1,74,676,18.1,277,d,0.5,891,45,1006,0,126,16,Overcast clouds,804,c04d,210,2.1,2.1
2022-11-22T14:00:00,8,8,97,-4.1,68,630,15.4,228,d,0,891,42,1006,0,111,16,Overcast clouds,804,c04d,310,9,2.1
2022-11-22T15:00:00,10,10,97,-5.1,55,521,10.6,143,d,0,891,34,1005,0,82,16,Overcast clouds,804,c04d,280,9,5.7
2022-11-22T16:00:00,9,9,97,-4.2,31,270,4.1,41,d,0,891,39,1004,0,39,16,Overcast clouds,804,c04n,280,4.6,4.6
2022-11-22T17:00:00,8,8,97,-5.1,0,0,-3.7,0,n,0,891,39,1003,0,0,16,Overcast clouds,804,c04n,230,4.4,2.6
2022-11-22T18:00:00,6,3.3,97,-3.1,0,0,-12.3,0,n,0,891,52,1004,0,0,16,Overcast clouds,804,c04n,110,6.8,3.6
2022-11-22T19:00:00,5,4.7,97,-3,0,0,-21.5,0,n,0.25,891,56,1003,0,0,16,Overcast clouds,804,c04n,175,8,1
2022-11-22T20:00:00,4,2.8,97,-3,0,0,-31,0,n,0.5,891,60,1003,0,0,16,Overcast clouds,804,c04n,240,8,1.5
2022-11-22T21:00:00,5,2.8,97,-3,0,0,-40.2,0,n,0,891,56,1002,0,0,16,Overcast clouds,804,c04n,220,6.8,2.6
2022-11-22T22:00:00,4,-0.2,97,-2.2,0,0,-48.6,0,n,0,891,64,1003,0,0,16,Overcast clouds,804,c04n,10,6.4,5.7
2022-11-22T23:00:00,5,0.4,97,-2.1,0,0,-55.3,0,n,0,891,60,1005,0,0,16,Overcast clouds,804,c04n,320,7.2,7.2
2022-11-23T00:00:00,4,-0.8,96,-3,0,0,-59,0,n,0,877,60,1006,0,0,16,Overcast clouds,804,c04n,360,12,7.2
2022-11-23T01:00:00,2,-3.8,96,-1.1,0,0,-58.5,0,n,0.5,877,80,1009,0,0,16,Overcast clouds,804,c04n,340,12,8.2
2022-11-23T02:00:00,1,-4.5,95,-1.4,0,0,-53.9,0,n,0.5,879,84,1010,1,0,13,Mix snow/rain,610,s04n,350,12,6.7
2022-11-23T03:00:00,1,-4.5,95,-0.6,0,0,-46.6,0,n,0.25,887,89,1012,3,0,3,Light snow,600,s01n,340,9,6.7
2022-11-23T04:00:00,1,-4.3,94,0,0,0,-38,0,n,1.5,888,93,1013,18,0,10,Snow,601,s02n,330,9,6.2
2022-11-23T05:00:00,1,-4.5,95,0,0,0,-28.7,0,n,0.5,889,93,1014,6,0,16,Light snow,600,s01n,350,7.2,6.7
2022-11-23T06:00:00,1,-1.9,80,-1.1,0,0,-19.3,0,n,0,883,86,1016,0,0,16,Overcast clouds,804,c04n,320,5.2,2.6
2022-11-23T07:00:00,2,-0.7,84,-1.1,0,0,-10.2,0,n,0,884,80,1017,0,0,16,Overcast clouds,804,c04n,270,4.8,2.6
2022-11-23T08:00:00,2,-0.7,80,-1.1,0,0,-1.7,0,n,0,886,80,1019,0,0,16,Overcast clouds,804,c04n,310,5.6,2.6
2022-11-23T09:00:00,3,0,88,-3.1,38,351,5.7,64,d,0,894,64,1020,0,65,16,Overcast clouds,804,c04d,300,8,3.1
2022-11-23T10:00:00,4,0.3,51,-5.2,59,553,11.8,164,d,0,889,51,1020,0,149,16,Broken clouds,803,c03d,280,7,4.6
2022-11-23T11:00:00,4,-0.7,50,-5.2,70,643,16.1,241,d,0,890,51,1021,0,220,16,Broken clouds,803,c03d,280,11,6.7
2022-11-23T12:00:00,6,1.9,25,-6.2,74,678,18.2,279,d,0,897,41,1021,0,277,16,Scattered clouds,802,c02d,270,9,6.7
2022-11-23T13:00:00,6,2.8,5,-7.2,73,674,17.9,273,d,0,891,38,1022,0,273,16,Few clouds,801,c02d,280,9,4.6
2022-11-23T14:00:00,7,3.4,7,-9.4,67,627,15.2,225,d,0,892,30,1022,0,225,16,Few clouds,801,c02d,270,8,6.2
2022-11-23T15:00:00,7,4,1,-9.4,55,517,10.4,140,d,0,893,30,1023,0,140,16,Clear Sky,800,c01d,270,8,4.6
2022-11-23T16:00:00,6,3,45,-9,31,262,4,39,d,0,893,33,1023,0,37,16,Broken clouds,803,c03n,280,4.8,4.1
2022-11-23T17:00:00,4,0.6,54,-9,0,0,-3.8,0,n,0,893,38,1024,0,0,16,Broken clouds,803,c03n,270,5.2,4.1
2022-11-23T18:00:00,2,-0.7,57,-8.1,0,0,-12.4,0,n,0,893,47,1025,0,0,16,Broken clouds,803,c03n,210,5.2,2.6
2022-11-23T19:00:00,1,-2.8,80,-8,0,0,-21.6,0,n,0,892,51,1025,0,0,16,Overcast clouds,804,c04n,210,5.6,3.6
2022-11-23T20:00:00,1,-1.4,93,-9,0,0,-31.1,0,n,0,892,47,1025,0,0,16,Overcast clouds,804,c04n,200,5.2,2.1
2022-11-23T21:00:00,0,-3.1,81,-9.9,0,0,-40.3,0,n,0,892,47,1024,0,0,16,Overcast clouds,804,c04n,200,5.2,2.6
2022-11-23T22:00:00,0,-3.6,89,-8.2,0,0,-48.7,0,n,0,891,54,1024,0,0,16,Overcast clouds,804,c04n,200,3.1,3.1
2022-11-23T23:00:00,2,-1.2,95,-9.2,0,0,-55.5,0,n,0,890,43,1023,0,0,16,Overcast clouds,804,c04n,210,5.2,3.1
2022-11-24T00:00:00,0,-3.6,94,-11.1,0,0,-59.2,0,n,0,891,43,1022,0,0,16,Overcast clouds,804,c04n,170,4,3.1
2022-11-24T01:00:00,1,-1.4,95,-7,0,0,-58.7,0,n,0,889,55,1021,0,0,16,Overcast clouds,804,c04n,210,5.2,2.1
2022-11-24T02:00:00,2,-1.2,96,-7.1,0,0,-54.1,0,n,0,889,51,1020,0,0,16,Overcast clouds,804,c04n,210,6,3.1
2022-11-24T03:00:00,0,-0.8,97,-8.9,0,0,-46.8,0,n,0,888,51,1020,0,0,16,Overcast clouds,804,c04n,200,7.6,1
2022-11-24T04:00:00,2,-2.5,97,-5.2,0,0,-38.2,0,n,0,889,59,1020,0,0,16,Overcast clouds,804,c04n,190,13,5.2
2022-11-24T05:00:00,5,1.3,97,-4,0,0,-28.9,0,n,0,888,52,1019,0,0,16,Overcast clouds,804,c04n,180,9,5.1
2022-11-24T06:00:00,10,10,97,-8.1,0,0,-19.5,0,n,0.5,889,27,1020,0,0,16,Overcast clouds,804,c04n,270,9,7.2
2022-11-24T07:00:00,10,10,25,-8.1,0,0,-10.4,0,n,0.5,892,27,1019,0,0,16,Scattered clouds,802,c02n,260,11,6.7
2022-11-24T08:00:00,10,10,98,-7.2,0,0,-1.9,0,n,0.5,892,29,1020,0,0,16,Overcast clouds,804,c04n,270,14,9.3
2022-11-24T09:00:00,10,10,98,-6.3,38,341,5.5,61,d,0.75,892,31,1021,0,48,16,Light rain,500,r01d,270,9,7.2
2022-11-24T10:00:00,10,10,98,-6.3,58,548,11.6,160,d,1,893,31,1022,0,84,16,Light rain,500,r01d,280,9,6.7
2022-11-24T11:00:00,10,10,98,-6.3,69,640,15.9,237,d,1,901,31,1022,0,107,16,Light rain,500,r01d,260,8,5.1
2022-11-24T12:00:00,11,11,98,-6.3,74,675,18,275,d,0,900,29,1021,0,118,16,Overcast clouds,804,c04d,270,11,8.2
2022-11-24T13:00:00,10,10,97,-5.1,73,671,17.7,270,d,0,893,34,1020,0,124,16,Overcast clouds,804,c04d,230,12,8.2
2022-11-24T14:00:00,9,9,97,-4.2,67,624,15,222,d,0,893,39,1020,0,109,16,Overcast clouds,804,c04d,210,9.2,3.1
2022-11-24T15:00:00,8,8,97,-3.2,54,513,10.3,138,d,0,892,45,1020,0,80,16,Overcast clouds,804,c04d,180,8,2.6
2022-11-24T16:00:00,8,8,96,-3.2,30,255,3.8,37,d,0,891,45,1019,0,38,16,Overcast clouds,804,c04n,200,11,4.1
2022-11-24T17:00:00,8,8,96,-4.1,0,0,-3.9,0,n,0,890,42,1018,0,0,16,Overcast clouds,804,c04n,210,9,1.5
2022-11-24T18:00:00,5,3.3,95,-3,0,0,-12.6,0,n,0.75,890,56,1017,0,0,16,Light rain,500,r01n,170,5.6,2.1
2022-11-24T19:00:00,4,2.8,98,-3,0,0,-21.8,0,n,1,888,60,1017,0,0,16,Light rain,500,r01n,260,5.2,1.5
2022-11-24T20:00:00,3,-0.3,98,-3.1,0,0,-31.2,0,n,0.25,887,64,1016,0,0,16,Overcast clouds,804,c04n,225,5.6,3.6
2022-11-24T21:00:00,4,2.1,98,-3,0,0,-40.4,0,n,0,887,60,1016,0,0,16,Overcast clouds,804,c04n,190,6,2.1
2022-11-24T22:00:00,2,-1.6,96,-3.1,0,0,-48.8,0,n,0,887,69,1015,0,0,16,Overcast clouds,804,c04n,190,4,3.6
2022-11-24T23:00:00,5,1.5,96,-4,0,0,-55.6,0,n,0,885,52,1015,0,0,16,Overcast clouds,804,c04n,160,9,4.6
2022-11-25T00:00:00,8,8,96,-5.1,0,0,-59.4,0,n,0,886,39,1014,0,0,16,Overcast clouds,804,c04n,200,9.6,4.1
2022-11-25T01:00:00,10,10,95,-6.3,0,0,-58.9,0,n,0,887,31,1013,0,0,16,Overcast clouds,804,c04n,230,8,6.2
2022-11-25T02:00:00,10,10,96,-6.3,0,0,-54.3,0,n,0,887,31,1012,0,0,16,Overcast clouds,804,c04n,220,8,5.1
2022-11-25T03:00:00,10,10,92,-5.1,0,0,-47,0,n,0,887,34,1012,0,0,16,Overcast clouds,804,c04n,230,9,4.1
2022-11-25T04:00:00,12,12,84,-6.4,0,0,-38.3,0,n,0,886,27,1011,0,0,16,Overcast clouds,804,c04n,270,11,7.7
2022-11-25T05:00:00,11,11,50,-6.3,0,0,-29.1,0,n,0,886,29,1011,0,0,16,Broken clouds,803,c03n,230,10,5.7
2022-11-25T06:00:00,10,10,45,-6.3,0,0,-19.7,0,n,0,885,31,1010,0,0,16,Broken clouds,803,c03n,220,9,6.2
2022-11-25T07:00:00,11,11,46,-6.3,0,0,-10.6,0,n,0,884,29,1008,0,0,16,Broken clouds,803,c03n,230,9,6.2
2022-11-25T08:00:00,11,11,44,-7.3,0,0,-2.1,0,n,0,883,27,1007,0,0,16,Broken clouds,803,c03n,240,10,5.7
2022-11-25T09:00:00,11,11,50,-6.3,37,332,5.3,58,d,0,882,29,1007,0,53,16,Broken clouds,803,c03d,230,12,8.2
2022-11-25T10:00:00,10,10,95,-5.1,58,543,11.4,157,d,0,882,34,1006,0,96,16,Overcast clouds,804,c04d,240,11,3.6
2022-11-25T11:00:00,12,12,83,-3,69,636,15.7,233,d,0,881,35,1005,0,122,16,Overcast clouds,804,c04d,260,9,5.7
2022-11-25T12:00:00,12,12,100,-4.2,73,673,17.8,272,d,0,881,32,1005,0,100,16,Overcast clouds,804,c04d,260,17,9.3
2022-11-25T13:00:00,10,10,95,-3.3,73,668,17.5,267,d,0,881,39,1006,0,138,16,Overcast clouds,804,c04d,290,9,5.7
2022-11-25T14:00:00,9,9,93,-2,67,621,14.9,219,d,0,882,46,1009,0,132,16,Overcast clouds,804,c04d,320,16,12.4
2022-11-25T15:00:00,2,-4.9,93,-2.1,54,509,10.1,135,d,0,883,74,1010,0,94,16,Overcast clouds,804,c04d,10,15,11.8
2022-11-25T16:00:00,1,-4.7,92,-2.1,29,247,3.7,36,d,0,881,80,1011,0,41,16,Overcast clouds,804,c04n,360,11,7.2
2022-11-25T17:00:00,0,-6.2,95,-3,0,0,-4,0,n,0,881,80,1012,0,0,16,Overcast clouds,804,c04n,360,11,7.7
2022-11-25T18:00:00,1,-3.7,96,-3.1,0,0,-12.7,0,n,0,881,74,1013,0,0,16,Overcast clouds,804,c04n,340,7,5.1
2022-11-25T19:00:00,1,-3.1,96,-4,0,0,-21.9,0,n,0,882,69,1013,0,0,16,Overcast clouds,804,c04n,350,4.1,4.1
2022-11-25T20:00:00,1,-1.9,96,-4,0,0,-31.3,0,n,0,883,69,1014,0,0,11,Overcast clouds,804,c04n,310,2.6,2.6
2022-11-25T21:00:00,1,-1.4,94,-4,0,0,-40.5,0,n,0,883,69,1014,0,0,11,Overcast clouds,804,c04n,260,2.4,2.1
2022-11-25T22:00:00,1,-1.4,91,-3.1,0,0,-49,0,n,0,883,74,1015,0,0,16,Overcast clouds,804,c04n,260,4.4,2.1
2022-11-25T23:00:00,0,-2.6,82,-4.1,0,0,-55.8,0,n,0,891,74,1016,0,0,16,Overcast clouds,804,c04n,240,4.8,2.1
2022-11-26T00:00:00,-1,-4.3,80,-3,0,0,-59.6,0,n,0,884,86,1016,0,0,16,Overcast clouds,804,c04n,220,4,2.6
2022-11-26T01:00:00,-1,-4.8,80,-4,0,0,-59.1,0,n,0,884,80,1016,0,0,16,Overcast clouds,804,c04n,210,4,3.1
2022-11-26T02:00:00,-1,-4.8,80,-4,0,0,-54.5,0,n,0,884,80,1017,0,0,16,Overcast clouds,804,c04n,250,4.4,3.1
2022-11-26T03:00:00,-1,-2.9,80,-4,0,0,-47.2,0,n,0,884,80,1018,0,0,16,Overcast clouds,804,c04n,240,4.8,1.5
2022-11-26T04:00:00,-2,-4.9,81,-5.1,0,0,-38.5,0,n,0,885,79,1018,0,0,16,Overcast clouds,804,c04n,210,4.8,2.1
2022-11-26T05:00:00,-3,-5.2,88,-5,0,0,-29.3,0,n,0,884,86,1019,0,0,16,Overcast clouds,804,c04n,180,5.2,1.5
2022-11-26T06:00:00,-3,-6.1,85,-6.1,0,0,-19.9,0,n,0,884,79,1019,0,0,16,Overcast clouds,804,c04n,200,6,2.1
2022-11-26T07:00:00,-4,-8.4,82,-7.1,0,0,-10.8,0,n,0,884,79,1019,0,0,16,Overcast clouds,804,c04n,190,6.4,3.1
2022-11-26T08:00:00,-4,-8.4,82,-8.1,0,0,-2.3,0,n,0,884,73,1019,0,0,16,Overcast clouds,804,c04n,180,6.8,3.1
2022-11-26T09:00:00,-3,-7.2,82,-8.1,36,323,5.1,55,d,0,884,68,1019,0,66,16,Overcast clouds,804,c04d,190,3.1,3.1
2022-11-26T10:00:00,0,-5,80,-5.2,57,538,11.2,154,d,0,884,68,1018,0,89,16,Overcast clouds,804,c04d,180,5.1,5.1
2022-11-26T11:00:00,2,-1.9,50,-8.1,68,633,15.5,230,d,0,885,47,1017,0,210,16,Broken clouds,803,c03d,210,6.4,4.1
2022-11-26T12:00:00,4,1.6,42,-8,73,670,17.6,268,d,0,886,41,1017,0,255,16,Broken clouds,803,c03d,200,7,2.6
2022-11-26T13:00:00,5,1.3,1,-10.3,72,665,17.3,263,d,0,886,32,1015,0,263,16,Clear Sky,800,c01d,260,7,5.1
2022-11-26T14:00:00,6,2.1,47,-11.1,66,618,14.7,216,d,0,886,28,1014,0,201,16,Broken clouds,803,c03d,270,8,6.2
2022-11-26T15:00:00,5,1,42,-10.3,54,505,10,133,d,0,885,32,1013,0,127,16,Broken clouds,803,c03d,260,9,5.7
2022-11-26T16:00:00,4,-0.5,53,-10,29,240,3.6,34,d,0,884,35,1013,0,30,16,Broken clouds,803,c03n,260,10,6.2
2022-11-26T17:00:00,3,-0.7,82,-10.2,0,0,-4.1,0,n,0,882,37,1012,0,0,16,Overcast clouds,804,c04n,250,9,4.1
2022-11-26T18:00:00,3,-0.7,98,-10.2,0,0,-12.8,0,n,0,881,37,1011,0,0,16,Overcast clouds,804,c04n,260,8,4.1
2022-11-26T19:00:00,3,2.5,98,-10.2,0,0,-21.9,0,n,0,880,37,1010,0,0,16,Overcast clouds,804,c04n,190,15,1
2022-11-26T20:00:00,2,-0.2,98,-10.2,0,0,-31.3,0,n,0,880,40,1009,0,0,16,Overcast clouds,804,c04n,120,5,2.1
2022-11-26T21:00:00,1,-1.4,98,-9,0,0,-40.6,0,n,0,878,47,1008,0,0,16,Overcast clouds,804,c04n,200,6.8,2.1
2022-11-26T22:00:00,1,-1.4,98,-9,0,0,-49.1,0,n,0,877,47,1006,0,0,16,Overcast clouds,804,c04n,200,9,2.1
2022-11-26T23:00:00,0,-4,98,-9.9,0,0,-55.9,0,n,0,875,47,1005,0,0,16,Overcast clouds,804,c04n,160,14,3.6
2022-11-27T00:00:00,4,-1,97,-11.2,0,0,-59.7,0,n,0,874,32,1001,0,0,16,Overcast clouds,804,c04n,260,15,7.7
2022-11-27T01:00:00,2,-3.6,97,-11.1,0,0,-59.3,0,n,0,874,37,1000,0,0,16,Overcast clouds,804,c04n,220,11,7.7
2022-11-27T02:00:00,2,-3,84,-10.2,0,0,-54.7,0,n,0,872,40,999,0,0,16,Overcast clouds,804,c04n,240,10,6.2
2022-11-27T03:00:00,2,-2.8,81,-9.2,0,0,-47.4,0,n,0,871,43,999,0,0,16,Overcast clouds,804,c04n,230,9,5.7
2022-11-27T04:00:00,2,-2.5,80,-9.2,0,0,-38.7,0,n,0,870,43,998,0,0,16,Overcast clouds,804,c04n,230,7,5.1
2022-11-27T05:00:00,3,-1.7,93,-10.2,0,0,-29.4,0,n,0,869,37,997,0,0,11,Overcast clouds,804,c04n,240,12,6.2
2022-11-27T06:00:00,3,-2.5,96,-10.2,0,0,-20.1,0,n,0,869,37,996,0,0,16,Overcast clouds,804,c04n,260,11,8.2
2022-11-27T07:00:00,1,-5.5,96,-8,0,0,-11,0,n,0,868,51,998,0,0,16,Overcast clouds,804,c04n,340,15,9.3
2022-11-27T08:00:00,0,-6.2,96,-8.9,0,0,-2.5,0,n,0,868,51,998,0,0,16,Overcast clouds,804,c04n,330,11,7.7
2022-11-27T09:00:00,-1,-7.3,96,-10.1,35,313,4.9,53,d,0,869,50,999,0,46,16,Overcast clouds,804,c04d,340,10,7.2
2022-11-27T10:00:00,-1,-7.5,97,-9.1,57,533,11,150,d,0.5,868,54,999,8.5,85,16,Light snow,600,s01d,350,10,7.7
2022-11-27T11:00:00,-2,-9.6,96,-6,68,629,15.3,226,d,0.5,869,74,1000,10,117,2,Light snow,600,s01d,360,14,9.8
2022-11-27T12:00:00,-3,-9.6,91,-4.1,73,667,17.4,265,d,0,869,92,1001,0,92,1,Haze,721,a03d,350,9,6.7
2022-11-27T13:00:00,-3,-10.6,95,-5,72,663,17.1,260,d,0,869,86,1001,0,135,1,Haze,721,a03d,360,10,8.8
2022-11-27T14:00:00,-3,-9.4,95,-6.1,66,615,14.6,213,d,0,869,79,1002,0,118,2,Haze,721,a03d,350,11,6.2
2022-11-27T15:00:00,-4,-9.6,94,-8.1,53,502,9.9,131,d,0,870,73,1002,0,88,10,Overcast clouds,804,c04d,340,8,4.6
2022-11-27T16:00:00,-4,-9.3,91,-9,28,234,3.5,33,d,0,870,68,1003,0,39,16,Overcast clouds,804,c04n,330,8,4.1
2022-11-27T17:00:00,-5,-10.5,90,-12.2,0,0,-4.2,0,n,0,871,57,1004,0,0,16,Overcast clouds,804,c04n,340,8.8,4.1
2022-11-27T18:00:00,-6,-11.3,88,-12.1,0,0,-12.8,0,n,0,871,62,1006,0,0,16,Overcast clouds,804,c04n,340,13,3.6
2022-11-27T19:00:00,-6,-15.3,91,-12.1,0,0,-22,0,n,0,871,62,1007,0,0,11,Overcast clouds,804,c04n,360,14,10.8
2022-11-27T20:00:00,-8,-16.8,88,-14,0,0,-31.4,0,n,0,881,62,1008,0,0,16,Overcast clouds,804,c04n,350,12,8.2
2022-11-27T21:00:00,-9,-19.1,85,-15.1,0,0,-40.7,0,n,0,873,61,1010,0,0,16,Overcast clouds,804,c04n,350,13,10.3
2022-11-27T22:00:00,-10,-20.4,85,-17.1,0,0,-49.2,0,n,0,873,56,1011,0,0,16,Overcast clouds,804,c04n,350,14,10.3
2022-11-27T23:00:00,-11,-22.3,88,-17,0,0,-56,0,n,0,873,61,1011,0,0,16,Overcast clouds,804,c04n,350,14,11.8
2022-11-28T00:00:00,-11,-21.9,93,-18,0,0,-59.9,0,n,0,873,56,1012,0,0,16,Overcast clouds,804,c04n,340,14,10.8
2022-11-28T01:00:00,-12,-22.3,93,-19,0,0,-59.5,0,n,0,873,56,1013,0,0,16,Overcast clouds,804,c04n,340,12,8.8
2022-11-28T02:00:00,-13,-24.4,93,-19.1,0,0,-54.9,0,n,0,873,60,1013,0,0,16,Overcast clouds,804,c04n,340,14,10.3
2022-11-28T03:00:00,-13,-24.6,92,-20.1,0,0,-47.6,0,n,0,873,55,1014,0,0,16,Overcast clouds,804,c04n,340,14,10.8
2022-11-28T04:00:00,-13,-23.7,88,-20.1,0,0,-38.9,0,n,0,873,55,1014,0,0,16,Overcast clouds,804,c04n,340,14,8.8
2022-11-28T05:00:00,-13,-24.2,92,-20.1,0,0,-29.6,0,n,0,874,55,1015,0,0,16,Overcast clouds,804,c04n,330,13,9.8
2022-11-28T06:00:00,-13,-23.3,91,-20.1,0,0,-20.2,0,n,0,875,55,1016,0,0,16,Overcast clouds,804,c04n,340,12,8.2
2022-11-28T07:00:00,-13,-23.7,91,-20.1,0,0,-11.2,0,n,0,885,55,1017,0,0,16,Overcast clouds,804,c04n,340,12,8.8
2022-11-28T08:00:00,-13,-23.7,92,-21,0,0,-2.7,0,n,0,875,51,1018,0,0,16,Overcast clouds,804,c04n,330,12,8.8
2022-11-28T09:00:00,-13,-24.4,94,-20.1,34,304,4.7,50,d,0,876,55,1018,0,48,16,Overcast clouds,804,c04n,330,12,10.3
2022-11-28T10:00:00,-13,-23.7,94,-20.1,56,528,10.8,147,d,0,876,55,1018,0,96,16,Overcast clouds,804,c04d,330,12,8.8
2022-11-28T11:00:00,-12,-22.8,94,-19,67,626,15.1,223,d,0,877,56,1019,0,127,16,Overcast clouds,804,c04d,340,13,9.8
2022-11-28T12:00:00,-11,-22.8,91,-20.1,72,664,17.2,262,d,0,877,47,1018,0,91,16,Overcast clouds,804,c04d,330,16,12.9
2022-11-28T13:00:00,-11,-21.7,88,-19.1,72,660,17,257,d,0,878,51,1018,0,107,16,Overcast clouds,804,c04d,330,14,10.3
2022-11-28T14:00:00,-11,-22.2,87,-20.1,66,612,14.4,211,d,0,878,47,1019,0,93,16,Overcast clouds,804,c04d,330,15,11.3
2022-11-28T15:00:00,-11,-13,87,-20.1,53,498,9.7,129,d,0,878,47,1011,0,57,16,Overcast clouds,804,c04d,0,15,1
2022-11-28T16:00:00,-12,-21.2,87,-19,28,227,3.4,31,d,0,877,56,1020,0,42,16,Overcast clouds,804,c04n,350,11,6.7
2022-11-28T17:00:00,-13,-23,91,-18,0,0,-4.3,0,n,0,878,66,1021,0,0,16,Overcast clouds,804,c04n,350,11,7.7
2022-11-28T18:00:00,-12,-22,94,-18.2,0,0,-12.9,0,n,0,878,60,1021,0,0,16,Overcast clouds,804,c04n,340,11,8.2
2022-11-28T19:00:00,-13,-22.1,94,-18,0,0,-22.1,0,n,0,879,66,1022,0,0,16,Overcast clouds,804,c04n,350,9,6.2
2022-11-28T20:00:00,-13,-23.3,93,-18,0,0,-31.5,0,n,0,879,66,1022,0,0,16,Overcast clouds,804,c04n,340,12,8.2
2022-11-28T21:00:00,-14,-24,91,-18.1,0,0,-40.7,0,n,0,879,71,1022,0,0,16,Overcast clouds,804,c04n,340,10,7.2
2022-11-28T22:00:00,-14,-25.5,90,-19.1,0,0,-49.3,0,n,0,878,65,1022,0,0,11,Overcast clouds,804,c04n,340,12,9.8
2022-11-28T23:00:00,-14,-25.2,91,-19.1,0,0,-56.2,0,n,0,879,65,1023,0,0,16,Overcast clouds,804,c04n,340,12,9.3
2022-11-29T00:00:00,-15,-27.5,92,-20.1,0,0,-60.1,0,n,0,879,65,1023,0,0,16,Overcast clouds,804,c04n,350,14,11.3
2022-11-29T01:00:00,-15,-26.5,92,-21,0,0,-59.7,0,n,0,879,60,1023,0,0,16,Overcast clouds,804,c04n,360,13,9.3
2022-11-29T02:00:00,-15,-26.3,92,-20.1,0,0,-55.1,0,n,0,879,65,1023,0,0,16,Overcast clouds,804,c04n,350,11,8.8
2022-11-29T03:00:00,-16,-26.6,92,-21,0,0,-47.8,0,n,0,879,65,1024,0,0,16,Overcast clouds,804,c04n,350,9,7.2
2022-11-29T04:00:00,-17,-25.8,91,-22,0,0,-39.1,0,n,0,879,65,1024,0,0,16,Overcast clouds,804,c04n,340,9,4.6
2022-11-29T05:00:00,-17,-24.1,89,-22,0,0,-29.8,0,n,0,879,65,1025,0,0,16,Overcast clouds,804,c04n,310,6.4,3.1
2022-11-29T06:00:00,-17,-25.8,100,-22,0,0,-20.4,0,n,0,895,65,1025,0,0,16,Overcast clouds,804,c04n,320,9,4.6
2022-11-29T07:00:00,-18,-26.5,89,-22.1,0,0,-11.4,0,n,0,879,70,1025,0,0,16,Overcast clouds,804,c04n,320,9,4.1
2022-11-29T08:00:00,-18,-25.9,89,-23.1,0,0,-2.9,0,n,0,879,64,1026,0,0,16,Overcast clouds,804,c04n,340,4.8,3.6
2022-11-29T09:00:00,-18,-27,89,-23.1,33,294,4.6,47,d,0,879,64,1026,0,52,16,Overcast clouds,804,c04n,330,5.6,4.6
2022-11-29T10:00:00,-17,-26.8,87,-23.1,56,523,10.6,144,d,0,879,59,1026,0,63,16,Overcast clouds,804,c04d,330,5.7,5.7
2022-11-29T11:00:00,-16,-24.6,86,-21,67,622,14.9,220,d,0,880,65,1026,0,101,16,Overcast clouds,804,c04d,360,5.2,4.6
2022-11-29T12:00:00,-16,-23.5,84,-22.1,72,661,17,259,d,0,880,59,1025,0,130,16,Overcast clouds,804,c04d,340,4.8,3.6
2022-11-29T13:00:00,-15,-18.9,84,-22,71,658,16.8,255,d,0,880,55,1025,0,128,16,Overcast clouds,804,c04d,340,3.6,1.5
2022-11-29T14:00:00,-15,-21.7,91,-21,65,610,14.3,208,d,0,880,60,1025,0,72,16,Overcast clouds,804,c04d,30,3.2,3.1
2022-11-29T15:00:00,-15,-20.1,94,-21,52,495,9.6,127,d,0,880,60,1025,0,86,16,Overcast clouds,804,c04d,10,2.8,2.1
2022-11-29T16:00:00,-16,-21.3,94,-21,27,221,3.3,30,d,0,880,65,1025,0,35,16,Overcast clouds,804,c04n,50,2.1,2.1
2022-11-29T17:00:00,-17,-23.3,95,-21,0,0,-4.4,0,n,0,892,71,1025,0,0,16,Overcast clouds,804,c04n,80,2.8,2.6
2022-11-29T18:00:00,-17,-24.1,94,-21,0,0,-13,0,n,0,879,71,1026,0,0,16,Overcast clouds,804,c04n,110,3.6,3.1
2022-11-29T19:00:00,-17,-24.1,94,-21,0,0,-22.1,0,n,0,879,71,1026,0,0,16,Overcast clouds,804,c04n,90,3.6,3.1
2022-11-29T20:00:00,-17,-24.7,94,-21,0,0,-31.5,0,n,0,880,71,1026,0,0,16,Overcast clouds,804,c04n,120,3.6,3.6
2022-11-29T21:00:00,-17,-24.1,91,-20.1,0,0,-40.8,0,n,0,879,77,1026,0,0,8,Overcast clouds,804,c04n,130,4.4,3.1
2022-11-29T22:00:00,-18,-25.9,89,-20,0,0,-49.3,0,n,0,879,84,1025,0,0,6,Overcast clouds,804,c04n,140,4.8,3.6
2022-11-29T23:00:00,-18,-27,91,-21,0,0,-56.3,0,n,0,878,77,1025,0,0,10,Overcast clouds,804,c04n,120,5.6,4.6
