Datetime,Temperature,Apparent Temperature,Cloud Cover,Dew Point,DHI,DNI,Solar Zenith Angle,GHI,Pod,Precipitation,Pressure,Relative Humidity,Sea Level Pressure,Snow Depth,Solar Radiation,Visibility,Weather Description,Weather Code,Weather Icon,Wind Direction,Wind Gust Speed,Wind Speed
2022-04-01T00:00:00,3,1.7,75,-8,0,0,-30.2,0,n,0,883,44,1013,0,0,16,Overcast clouds,804,c04n,270,4.4,1.5
2022-04-01T01:00:00,3,2.5,75,-8,0,0,-33.5,0,n,0,883,44,1013,0,0,16,Overcast clouds,804,c04n,270,4,1
2022-04-01T02:00:00,2,-0.6,75,-7.1,0,0,-34,0,n,0,883,51,1014,0,0,16,Overcast clouds,804,c04n,260,4.4,2.4
2022-04-01T03:00:00,1,-0.6,21,-7,0,0,-31.5,0,n,0,889,55,1014,0,0,16,Scattered clouds,802,c02n,250,4.4,1.5
2022-04-01T04:00:00,0,-0.8,75,-7.9,0,0,-26.6,0,n,0,883,55,1014,0,0,16,Overcast clouds,804,c04n,275,4.4,1
2022-04-01T05:00:00,0,-0.8,75,-7,0,0,-19.7,0,n,0,883,59,1014,0,0,16,Overcast clouds,804,c04n,300,3.6,1
2022-04-01T06:00:00,-1,-1.9,75,-7.1,0,0,-11.4,0,n,0,883,63,1015,0,0,16,Overcast clouds,804,c04n,325,2.8,1
2022-04-01T07:00:00,-3,-4.1,75,-8.1,0,0,-2.4,0,n,0,882,68,1016,0,0,16,Overcast clouds,804,c04n,350,2.8,1
2022-04-01T08:00:00,-2,-4,25,-7.1,42,392,6.9,81,d,0,882,68,1016,0,80,16,Scattered clouds,802,c02d,360,2.4,1.5
2022-04-01T09:00:00,1,-3.4,45,-7,68,631,16.3,238,d,0,883,55,1017,0,224,16,Broken clouds,803,c03d,10,4.6,4.6
2022-04-01T10:00:00,2,-2.8,45,-7.1,85,750,25.2,398,d,0,885,51,1017,0,374,16,Broken clouds,803,c03d,20,5.7,5.7
2022-04-01T11:00:00,3,0.4,75,-7.2,96,820,33.1,537,d,0,886,47,1017,0,355,16,Overcast clouds,804,c04d,30,4.8,2.6
2022-04-01T12:00:00,4,1.2,45,-8,103,860,39.3,642,d,0,886,41,1016,0,604,16,Broken clouds,803,c03d,30,6,3.1
2022-04-01T13:00:00,6,5,75,-8.3,107,879,43.1,701,d,0,886,35,1015,0,464,16,Overcast clouds,804,c04d,80,5.2,1.6
2022-04-01T14:00:00,7,4.5,45,-9.4,107,882,43.6,709,d,0,886,30,1015,0,667,16,Broken clouds,803,c03d,130,5.6,3.6
2022-04-01T15:00:00,7,4.8,75,-10.2,104,868,40.9,667,d,0,886,28,1014,0,441,16,Overcast clouds,804,c04d,180,8,3.1
2022-04-01T16:00:00,8,8,75,-10.3,99,836,35.4,577,d,0,886,26,1014,0,382,16,Overcast clouds,804,c04d,160,8,4.6
2022-04-01T17:00:00,9,9,100,-9,89,778,28,448,d,0,886,27,1013,0,134,16,Overcast clouds,804,c04d,170,8,4.6
2022-04-01T18:00:00,8,8,100,-11.3,75,679,19.4,293,d,0,885,24,1013,0,104,16,Overcast clouds,804,c04d,190,5.6,5.1
2022-04-01T19:00:00,8,8,100,-10.3,53,495,10.1,131,d,0,885,26,1013,0,66,16,Overcast clouds,804,c04d,150,8,6.2
2022-04-01T20:00:00,6,3.3,100,-9,11,44,0.7,4,d,0,885,33,1013,0,11,16,Overcast clouds,804,c04n,170,8,3.6
2022-04-01T21:00:00,5,0.8,75,-9.2,0,0,-8.4,0,n,0,884,35,1013,0,0,16,Overcast clouds,804,c04n,140,6.2,6.2
2022-04-01T22:00:00,2,-1.6,45,-10.2,0,0,-16.9,0,n,0,884,40,1013,0,0,16,Broken clouds,803,c03n,170,3.6,3.6
2022-04-01T23:00:00,2,-0.2,100,-10.2,0,0,-24.3,0,n,0,882,40,1013,0,0,16,Overcast clouds,804,c04n,160,2.1,2.1
2022-04-02T00:00:00,1,-1.7,45,-10.1,0,0,-29.9,0,n,0,882,43,1012,0,0,16,Broken clouds,803,c03n,205,2.4,2.4
2022-04-02T01:00:00,2,1.4,75,-9.2,0,0,-33.1,0,n,0,881,43,1012,0,0,16,Overcast clouds,804,c04n,250,2.8,1
2022-04-02T02:00:00,0,-1.8,45,-11.1,0,0,-33.6,0,n,0,881,43,1012,0,0,16,Broken clouds,803,c03n,190,3.2,1.5
2022-04-02T03:00:00,0,-0.8,100,-6.4,0,0,-31.1,0,n,0,885,62,1011,0,0,16,Overcast clouds,804,c04n,210,3.2,1
2022-04-02T04:00:00,1,-2.4,100,-8,0,0,-26.2,0,n,0,884,51,1011,0,0,16,Overcast clouds,804,c04n,230,4,3.1
2022-04-02T05:00:00,1,-2.4,100,-8,0,0,-19.3,0,n,0,884,51,1010,0,0,16,Overcast clouds,804,c04n,220,4,3.1
2022-04-02T06:00:00,-1,-5.2,75,-8,0,0,-11.1,0,n,0,880,59,1011,0,0,16,Overcast clouds,804,c04n,190,4,3.6
2022-04-02T07:00:00,2,-1.9,75,-8.1,0,0,-2.1,0,n,0,879,47,1010,0,0,16,Overcast clouds,804,c04n,230,4.1,4.1
2022-04-02T08:00:00,1,-2.8,75,-8,43,404,7.3,86,d,0,880,51,1010,0,57,16,Overcast clouds,804,c04d,220,4.4,3.6
2022-04-02T09:00:00,2,-1.9,75,-7.1,69,636,16.6,244,d,0,880,51,1010,0,161,16,Overcast clouds,804,c04d,150,4.8,4.1
2022-04-02T10:00:00,7,4.5,100,-8.1,85,754,25.5,404,d,0,885,33,1009,0,125,16,Overcast clouds,804,c04d,290,5.2,3.6
2022-04-02T11:00:00,8,8,75,-8.1,96,822,33.5,543,d,0,882,31,1010,0,359,16,Overcast clouds,804,c04d,290,6.2,6.2
2022-04-02T12:00:00,9,9,75,-9,103,861,39.7,647,d,0,882,27,1010,0,428,16,Overcast clouds,804,c04d,320,7.2,6.2
2022-04-02T13:00:00,11,11,100,-10.5,107,881,43.5,706,d,0,883,21,1009,0,178,16,Overcast clouds,804,c04d,20,7.2,5.1
2022-04-02T14:00:00,8,8,75,-7.3,107,883,44,715,d,0.5,883,33,1010,0,473,16,Overcast clouds,804,c04d,340,9.3,9.3
2022-04-02T15:00:00,7,3.4,100,-5,105,870,41.2,672,d,0.75,882,42,1011,0,172,16,Light rain,500,r01d,175,9,6.2
2022-04-02T16:00:00,4,0.9,100,0.9,99,837,35.7,582,d,1,883,80,1013,0,157,16,Light rain,500,r01d,10,10,3.6
2022-04-02T17:00:00,5,-0.2,100,-1,89,780,28.3,452,d,0,883,65,1013,0,134,16,Overcast clouds,804,c04d,20,9.3,9.3
2022-04-02T18:00:00,4,0,75,-1.2,75,682,19.6,297,d,0,884,69,1014,0,196,16,Overcast clouds,804,c04d,10,15,5.1
2022-04-02T19:00:00,2,-4.8,100,-2.1,53,502,10.4,136,d,1.25,884,74,1016,0,60,6,Light rain,500,r01d,360,18,11.3
2022-04-02T20:00:00,1,-3.4,100,-1.1,12,62,1,6,d,1.25,883,86,1016,2.5,11,16,Mix snow/rain,610,s04n,70,4.6,4.6
2022-04-02T21:00:00,0,-2.6,75,-1,0,0,-8.1,0,n,0,884,93,1018,0,0,16,Overcast clouds,804,c04n,360,2.8,2.1
2022-04-02T22:00:00,0,-1.8,45,-1.1,0,0,-16.6,0,n,0,885,92,1018,0,0,16,Broken clouds,803,c03n,240,3.2,1.5
2022-04-02T23:00:00,0,-3.6,100,-1.1,0,0,-23.9,0,n,0,885,92,1018,0,0,16,Overcast clouds,804,c04n,230,3.2,3.1
2022-04-03T00:00:00,0,-3.6,5,-1.1,0,0,-29.5,0,n,0,886,92,1017,0,0,16,Few clouds,801,c02n,230,3.2,3.1
2022-04-03T01:00:00,-1,-4.8,25,-2.1,0,0,-32.8,0,n,0,886,92,1017,0,0,16,Scattered clouds,802,c02n,230,3.6,3.1
2022-04-03T02:00:00,-1,-4.8,75,-3,0,0,-33.2,0,n,0,885,86,1017,0,0,16,Overcast clouds,804,c04n,230,4,3.1
2022-04-03T03:00:00,-2,-6,100,-4,0,0,-30.8,0,n,0,885,86,1017,0,0,16,Overcast clouds,804,c04n,220,4,3.1
2022-04-03T04:00:00,-3,-6.7,75,-6.1,0,0,-25.8,0,n,0,884,79,1018,0,0,16,Overcast clouds,804,c04n,210,4,2.6
2022-04-03T05:00:00,-5,-9.6,25,-8.1,0,0,-18.9,0,n,0,883,79,1017,0,0,16,Scattered clouds,802,c02n,200,4.4,3.1
2022-04-03T06:00:00,-4,-7.9,100,-7.1,0,0,-10.7,0,n,0,882,79,1017,0,0,16,Overcast clouds,804,c04n,220,4.4,2.6
2022-04-03T07:00:00,-1,-4.3,45,-9.1,0,0,-1.8,0,n,0,882,54,1016,0,0,16,Broken clouds,803,c03n,230,4.4,2.6
2022-04-03T08:00:00,-1,-4.3,25,-8,45,416,7.6,91,d,0,883,59,1016,0,90,16,Scattered clouds,802,c02d,210,4.8,2.6
2022-04-03T09:00:00,0,-4,75,-7,70,642,17,250,d,0,882,59,1015,0,165,16,Overcast clouds,804,c04d,210,5.2,3.6
2022-04-03T10:00:00,0,-4,75,-7,86,757,25.9,410,d,0,882,59,1014,0,271,16,Overcast clouds,804,c04d,190,5.6,3.6
2022-04-03T11:00:00,1,-2.4,75,-4,97,824,33.8,549,d,0,882,69,1013,0,363,16,Overcast clouds,804,c04d,210,6.4,3.1
2022-04-03T12:00:00,2,-0.7,75,-4.1,104,863,40.1,653,d,0.5,881,64,1012,0,432,16,Overcast clouds,804,c04d,190,7.6,2.6
2022-04-03T13:00:00,3,0.4,75,-5.1,107,882,43.8,712,d,0,881,55,1011,0,471,16,Overcast clouds,804,c04d,200,9.2,2.6
2022-04-03T14:00:00,4,-0.2,75,-6,108,885,44.4,720,d,0,881,48,1010,0,476,16,Overcast clouds,804,c04d,180,10.4,5.7
2022-04-03T15:00:00,5,1.5,75,-7.1,105,871,41.6,677,d,0,880,41,1009,0,448,16,Overcast clouds,804,c04d,200,10,4.6
2022-04-03T16:00:00,6,3.3,75,-5,99,839,36,586,d,0,880,45,1008,0,388,16,Overcast clouds,804,c04d,200,10,3.6
2022-04-03T17:00:00,7,5.2,75,-5,90,782,28.5,457,d,0,879,42,1007,0,302,16,Overcast clouds,804,c04d,200,8,2.6
2022-04-03T18:00:00,9,9,75,-9,75,685,19.9,302,d,0,878,27,1005,0,200,16,Overcast clouds,804,c04d,200,12,2.6
2022-04-03T19:00:00,10,10,75,-11.3,54,508,10.6,140,d,0,878,21,1004,0,93,16,Overcast clouds,804,c04d,290,12,5.7
2022-04-03T20:00:00,8,8,75,-10.3,14,79,1.2,8,d,0,878,26,1005,0,19,16,Overcast clouds,804,c04n,300,9,4.6
2022-04-03T21:00:00,6,4,75,-9,0,0,-7.9,0,n,0,878,33,1004,0,0,16,Overcast clouds,804,c04n,270,6.4,2.6
2022-04-03T22:00:00,5,2.8,25,-9.2,0,0,-16.3,0,n,0,877,35,1004,0,0,16,Scattered clouds,802,c02n,240,6,2.6
2022-04-03T23:00:00,2,-0.7,25,-8.1,0,0,-23.6,0,n,0,874,47,1003,0,0,16,Scattered clouds,802,c02n,170,5.6,2.6
2022-04-04T00:00:00,2,-1.2,100,-7.1,0,0,-29.2,0,n,0,874,51,1003,0,0,16,Overcast clouds,804,c04n,180,6.4,3.1
2022-04-04T01:00:00,1,-3.1,45,-7,0,0,-32.4,0,n,0,873,55,1001,0,0,16,Broken clouds,803,c03n,170,6.8,4.1
2022-04-04T02:00:00,1,-2.8,75,-7,0,0,-32.8,0,n,0,871,55,1000,0,0,16,Overcast clouds,804,c04n,170,7.6,3.6
2022-04-04T03:00:00,1,-3.4,75,-7,0,0,-30.4,0,n,0,871,55,999,0,0,16,Overcast clouds,804,c04n,180,7.2,4.6
2022-04-04T04:00:00,2,-1.9,75,-7.1,0,0,-25.4,0,n,0,870,51,997,0,0,16,Overcast clouds,804,c04n,190,6,4.1
2022-04-04T05:00:00,2,-1.6,75,-6.1,0,0,-18.6,0,n,0,869,55,995,0,0,16,Overcast clouds,804,c04n,170,6,3.6
2022-04-04T06:00:00,3,-1.5,75,-5.1,0,0,-10.4,0,n,0,867,55,993,0,0,16,Overcast clouds,804,c04n,180,6.4,5.7
2022-04-04T07:00:00,4,0,75,-5.2,0,0,-1.4,0,n,0,867,51,992,0,0,16,Overcast clouds,804,c04n,180,7.6,5.1
2022-04-04T08:00:00,4,-0.5,75,-6,46,428,8,96,d,0,866,48,990,0,64,16,Overcast clouds,804,c04d,160,8.8,6.2
2022-04-04T09:00:00,4,-0.7,75,-5.2,70,647,17.3,256,d,0,864,51,989,0,169,16,Overcast clouds,804,c04d,160,10,6.7
2022-04-04T10:00:00,5,1.3,75,-5.1,86,760,26.3,416,d,0,863,48,987,0,275,16,Overcast clouds,804,c04d,200,12,5.1
2022-04-04T11:00:00,8,8,75,-5.1,97,826,34.2,555,d,0,862,39,986,0,367,16,Overcast clouds,804,c04d,210,12,7.7
2022-04-04T12:00:00,11,11,75,-6.3,104,865,40.5,659,d,0,863,29,985,0,436,16,Overcast clouds,804,c04d,220,12,9.3
2022-04-04T13:00:00,12,12,75,-8.5,107,883,44.2,717,d,0,863,23,983,0,474,16,Overcast clouds,804,c04d,230,11,7.2
2022-04-04T14:00:00,13,13,75,-12.2,108,886,44.8,725,d,0,862,16,982,0,480,16,Overcast clouds,804,c04d,260,12,7.2
2022-04-04T15:00:00,13,13,75,-12.2,105,872,41.9,682,d,0,862,16,982,0,451,16,Overcast clouds,804,c04d,290,13,7.7
2022-04-04T16:00:00,12,12,45,-12.3,99,840,36.3,591,d,0.5,861,17,982,0,556,16,Broken clouds,803,c03d,270,11,7.7
2022-04-04T17:00:00,11,11,45,-7.3,90,784,28.8,462,d,0.5,861,27,982,0,434,16,Broken clouds,803,c03d,270,11,8.2
2022-04-04T18:00:00,10,10,100,-8.1,76,688,20.1,306,d,0,861,27,982,0,107,16,Overcast clouds,804,c04d,270,13,6.2
2022-04-04T19:00:00,7,1.9,75,-7,55,515,10.9,144,d,0.75,860,36,983,0,95,11,Light rain,500,r01d,280,19,11.3
2022-04-04T20:00:00,7,1.8,100,-10.2,16,97,1.5,10,d,1.25,859,28,985,0,15,11,Light rain,500,r01n,290,17,11.8
2022-04-04T21:00:00,6,0.5,100,-9,0,0,-7.6,0,n,1.75,861,33,988,0,0,8,Light rain,500,r01n,320,16,11.8
2022-04-04T22:00:00,6,1.6,100,-11.1,0,0,-16,0,n,0.5,905,28,988,0,0,16,Overcast clouds,804,c04n,290,11,7.7
2022-04-04T23:00:00,5,-0.2,75,-12,0,0,-23.3,0,n,0,863,28,988,0,0,11,Overcast clouds,804,c04n,300,15,9.3
2022-04-05T00:00:00,5,-0.6,75,-12,0,0,-28.8,0,n,0,863,28,989,0,0,16,Overcast clouds,804,c04n,310,14,10.8
2022-04-05T01:00:00,5,-0.5,75,-13.4,0,0,-32,0,n,0,864,25,990,0,0,16,Overcast clouds,804,c04n,300,15,10.3
2022-04-05T02:00:00,4,-1.4,100,-10,0,0,-32.4,0,n,0,867,35,991,0,0,16,Overcast clouds,804,c04n,290,12,8.8
2022-04-05T03:00:00,4,-1,75,-11.2,0,0,-30,0,n,0,866,32,993,0,0,16,Overcast clouds,804,c04n,290,10,7.7
2022-04-05T04:00:00,4,-1.7,75,-12,0,0,-25.1,0,n,0,867,30,994,0,0,16,Overcast clouds,804,c04n,300,11,9.8
2022-04-05T05:00:00,4,-1.5,75,-12,0,0,-18.2,0,n,0,868,30,996,0,0,16,Overcast clouds,804,c04n,300,13,9.3
2022-04-05T06:00:00,4,-1.2,75,-13.3,0,0,-10,0,n,0,869,27,997,0,0,16,Overcast clouds,804,c04n,300,11,8.2
2022-04-05T07:00:00,3,-2.1,75,-13.3,0,0,-1.1,0,n,0,871,29,999,0,0,16,Overcast clouds,804,c04n,310,11,7.2
2022-04-05T08:00:00,4,-0.7,75,-13.3,47,439,8.3,102,d,0,871,27,1001,0,67,16,Overcast clouds,804,c04d,290,9,6.7
2022-04-05T09:00:00,5,0.1,75,-13.4,71,652,17.7,262,d,0,873,25,1002,0,173,16,Overcast clouds,804,c04d,320,10.8,8.2
2022-04-05T10:00:00,5,-0.2,75,-10.3,87,763,26.6,422,d,0,875,32,1003,0,279,16,Overcast clouds,804,c04d,350,13.6,9.3
2022-04-05T11:00:00,7,2.9,75,-9.4,97,828,34.6,561,d,0,876,30,1004,0,371,16,Overcast clouds,804,c04d,360,11,7.7
2022-04-05T12:00:00,7,2.7,75,-10.2,104,866,40.9,665,d,0,878,28,1005,0,440,16,Overcast clouds,804,c04d,360,11,8.2
2022-04-05T13:00:00,8,8,75,-9.4,108,885,44.6,723,d,0,878,28,1005,0,478,16,Overcast clouds,804,c04d,350,12,7.7
2022-04-05T14:00:00,8,8,75,-9.4,108,887,45.1,730,d,0,879,28,1007,0,483,16,Overcast clouds,804,c04d,360,10,7.2
2022-04-05T15:00:00,9,9,100,-16.2,106,873,42.3,687,d,0,880,15,1007,0,175,16,Overcast clouds,804,c04d,340,13,10.8
2022-04-05T16:00:00,9,9,75,-14,100,842,36.6,596,d,0,881,18,1009,0,394,16,Overcast clouds,804,c04d,330,16,10.8
2022-04-05T17:00:00,9,9,75,-11,90,786,29.1,466,d,0,883,23,1010,0,308,16,Overcast clouds,804,c04d,350,10,8.2
2022-04-05T18:00:00,8,8,75,-9.4,76,691,20.4,311,d,0,884,28,1012,0,206,16,Overcast clouds,804,c04d,360,9,7.2
2022-04-05T19:00:00,8,8,75,-12.4,55,521,11.1,148,d,0,884,22,1013,0,98,11,Overcast clouds,804,c04d,350,8,5.7
2022-04-05T20:00:00,6,2.3,75,-9,18,115,1.8,13,d,0,886,33,1014,0,27,11,Overcast clouds,804,c04n,10,11,5.7
2022-04-05T21:00:00,6,3,75,-9,0,0,-7.4,0,n,0,886,33,1016,0,0,8,Overcast clouds,804,c04n,330,8,4.1
2022-04-05T22:00:00,5,0.6,75,-8.1,0,0,-15.8,0,n,0,887,38,1018,0,0,8,Overcast clouds,804,c04n,300,6.7,6.7
2022-04-05T23:00:00,3,-0.3,75,-9.3,0,0,-23,0,n,0,888,40,1019,0,0,16,Overcast clouds,804,c04n,310,5.6,3.6
2022-04-06T00:00:00,2,-1.6,45,-10.2,0,0,-28.5,0,n,0,888,40,1020,0,0,16,Broken clouds,803,c03n,320,6,3.6
2022-04-06T01:00:00,1,-2.4,45,-10.1,0,0,-31.7,0,n,0,889,43,1021,0,0,16,Broken clouds,803,c03n,340,6.4,3.1
2022-04-06T02:00:00,2,-2.8,25,-11.1,0,0,-32,0,n,0,889,37,1022,0,0,16,Scattered clouds,802,c02n,320,6.8,5.7
2022-04-06T03:00:00,3,-1,25,-11.3,0,0,-29.6,0,n,0,890,34,1023,0,0,16,Scattered clouds,802,c02n,300,6.8,4.6
2022-04-06T04:00:00,3,-0.7,75,-13.3,0,0,-24.7,0,n,0,892,29,1024,0,0,16,Overcast clouds,804,c04n,300,6.8,4.1
2022-04-06T05:00:00,2,-1.6,75,-13.3,0,0,-17.9,0,n,0,892,31,1025,0,0,16,Overcast clouds,804,c04n,330,6.4,3.6
2022-04-06T06:00:00,0,-2.6,75,-15.1,0,0,-9.7,0,n,0,893,31,1026,0,0,16,Overcast clouds,804,c04n,320,5.6,2.1
2022-04-06T07:00:00,0,-4,45,-11.1,0,0,-0.7,0,n,0,893,43,1027,0,0,16,Broken clouds,803,c03n,340,4.8,3.6
2022-04-06T08:00:00,2,-0.7,25,-11.1,48,450,8.6,107,d,0,894,37,1028,0,106,16,Scattered clouds,802,c02d,330,5.2,2.6
2022-04-06T09:00:00,4,0.6,25,-11.2,72,657,18,268,d,0,896,32,1029,0,266,16,Scattered clouds,802,c02d,350,5.6,4.1
2022-04-06T10:00:00,5,2.1,25,-11.1,87,766,27,428,d,0,897,30,1029,0,425,16,Scattered clouds,802,c02d,20,6.8,3.6
2022-04-06T11:00:00,6,3.3,25,-11.1,98,830,34.9,567,d,0,898,28,1029,0,562,16,Scattered clouds,802,c02d,30,8.8,3.6
2022-04-06T12:00:00,6,4.4,75,-11.1,105,868,41.2,670,d,0,898,28,1029,0,443,16,Overcast clouds,804,c04d,120,8,2.1
2022-04-06T13:00:00,6,2.8,75,-11.1,108,886,45,728,d,0,898,28,1030,0,482,16,Overcast clouds,804,c04d,70,9,4.6
2022-04-06T14:00:00,7,3.2,75,-9.4,108,888,45.5,735,d,0,898,30,1030,0,486,16,Overcast clouds,804,c04d,50,9,6.7
2022-04-06T15:00:00,8,8,98,-11.3,106,875,42.6,692,d,0,903,24,1030,0,111,16,Overcast clouds,804,c04d,80,7,3.1
2022-04-06T16:00:00,8,8,94,-13,100,843,36.9,601,d,0,903,21,1030,0,163,16,Overcast clouds,804,c04d,350,9,4.1
2022-04-06T17:00:00,8,8,75,-10.3,91,788,29.4,471,d,0,900,26,1031,0,312,16,Overcast clouds,804,c04d,40,8,4.1
2022-04-06T18:00:00,8,8,45,-12.4,77,694,20.6,315,d,0,900,22,1031,0,296,16,Broken clouds,803,c03d,20,10,5.7
2022-04-06T19:00:00,8,8,25,-14.2,56,527,11.4,152,d,0,901,19,1032,0,151,16,Scattered clouds,802,c02d,10,6,4.1
2022-04-06T20:00:00,5,1.5,25,-16.1,19,132,2,15,d,0,901,20,1032,0,34,16,Scattered clouds,802,c02n,80,4.6,4.6
2022-04-06T21:00:00,2,-0.2,3,-15.9,0,0,-7.1,0,n,0,899,25,1033,0,0,16,Few clouds,801,c02n,80,2.8,2.1
2022-04-06T22:00:00,2,1.4,25,-15.9,0,0,-15.5,0,n,0,899,25,1034,0,0,16,Scattered clouds,802,c02n,340,2,1
2022-04-06T23:00:00,1,2.1,2,-15,0,0,-22.7,0,n,0,900,29,1034,0,0,16,Few clouds,801,c02n,305,1.2,0.4
2022-04-07T00:00:00,-1,-3.6,25,-15.2,0,0,-28.2,0,n,0,900,33,1034,0,0,16,Scattered clouds,802,c02n,270,2.8,2
2022-04-07T01:00:00,-1,-1.9,53,-14.1,0,0,-31.3,0,n,0,899,36,1034,0,0,16,Broken clouds,803,c03n,235,3.6,1
2022-04-07T02:00:00,-3,-4.1,100,-13,0,0,-31.7,0,n,0,899,46,1034,0,0,16,Overcast clouds,804,c04n,200,4,1
2022-04-07T03:00:00,-2,-4.9,100,-14.1,0,0,-29.2,0,n,0,898,39,1034,0,0,16,Overcast clouds,804,c04n,170,5.2,2.1
2022-04-07T04:00:00,-2,-4.9,25,-12,0,0,-24.3,0,n,0,898,46,1033,0,0,16,Scattered clouds,802,c02n,170,5.2,2.1
2022-04-07T05:00:00,-3,-6.7,25,-11,0,0,-17.5,0,n,0,898,54,1033,0,0,16,Scattered clouds,802,c02n,180,5.2,2.6
2022-04-07T06:00:00,-3,-7.2,45,-10.1,0,0,-9.4,0,n,0,897,58,1033,0,0,16,Broken clouds,803,c03n,180,4.4,3.1
2022-04-07T07:00:00,-3,-6.7,45,-11,1,0,-0.4,0,n,0,897,54,1032,0,0,16,Broken clouds,803,c03n,180,4.4,2.6
2022-04-07T08:00:00,-2,-4,25,-9.1,49,460,9,112,d,0,896,58,1033,0,111,16,Scattered clouds,802,c02d,180,4.4,1.5
2022-04-07T09:00:00,2,-1.2,25,-9.2,72,662,18.4,274,d,0,897,43,1033,0,272,16,Scattered clouds,802,c02d,210,5.2,3.1
2022-04-07T10:00:00,4,1.2,25,-10,88,769,27.3,434,d,0,899,35,1032,0,430,16,Scattered clouds,802,c02d,180,6.4,3.1
2022-04-07T11:00:00,6,3,25,-9,98,832,35.3,573,d,0,899,33,1032,0,568,16,Scattered clouds,802,c02d,160,7.2,4.1
2022-04-07T12:00:00,9,9,25,-9.9,105,869,41.6,676,d,0,900,25,1031,0,671,16,Scattered clouds,802,c02d,170,8.4,4.1
2022-04-07T13:00:00,12,12,25,-9,108,887,45.4,733,d,0,901,22,1030,0,727,16,Scattered clouds,802,c02d,160,8,6.7
2022-04-07T14:00:00,14,14,25,-9.2,109,889,45.9,740,d,0,901,19,1029,0,734,16,Scattered clouds,802,c02d,180,8,5.1
2022-04-07T15:00:00,16,16,45,-8.3,106,876,43,696,d,0,901,18,1027,0,655,16,Broken clouds,803,c03d,170,9,6.7
2022-04-07T16:00:00,15,15,75,-7.1,100,844,37.2,605,d,0,901,21,1026,0,400,16,Overcast clouds,804,c04d,190,9,5.1
2022-04-07T17:00:00,17,17,75,-6.1,91,790,29.6,475,d,0,900,20,1025,0,314,16,Overcast clouds,804,c04d,170,9,6.7
2022-04-07T18:00:00,17,17,75,-6.1,77,697,20.9,320,d,0,900,20,1024,0,212,16,Overcast clouds,804,c04d,170,9,6.2
2022-04-07T19:00:00,16,16,75,-6.3,57,532,11.6,156,d,0,899,21,1023,0,103,16,Overcast clouds,804,c04d,160,6.7,6.7
2022-04-07T20:00:00,14,14,75,-6.2,21,149,2.3,18,d,0.25,898,24,1022,0,33,16,Overcast clouds,804,c04n,180,5.7,5.7
2022-04-07T21:00:00,11,11,75,-6.3,0,0,-6.8,0,n,0,896,29,1022,0,0,16,Overcast clouds,804,c04n,190,5.2,3.6
2022-04-07T22:00:00,10,10,75,-6.3,0,0,-15.2,0,n,0,894,31,1021,0,0,16,Overcast clouds,804,c04n,180,5.2,3.6
2022-04-07T23:00:00,11,11,75,-6.3,0,0,-22.4,0,n,0,893,29,1020,0,0,16,Overcast clouds,804,c04n,210,5.2,3.1
2022-04-08T00:00:00,11,11,75,-6.3,0,0,-27.8,0,n,0,893,29,1019,0,0,16,Overcast clouds,804,c04n,240,5.2,2.6
2022-04-08T01:00:00,9,9,75,-5.2,0,0,-30.9,0,n,0,893,36,1018,0,0,16,Overcast clouds,804,c04n,200,6.4,3.6
2022-04-08T02:00:00,10,10,75,-6.3,0,0,-31.3,0,n,0,891,31,1017,0,0,16,Overcast clouds,804,c04n,240,6.8,2.1
2022-04-08T03:00:00,10,10,75,-6.3,0,0,-28.8,0,n,0,891,31,1015,0,0,16,Overcast clouds,804,c04n,240,6.8,3.6
2022-04-08T04:00:00,8,8,75,-5.1,0,0,-23.9,0,n,0,890,39,1014,0,0,16,Overcast clouds,804,c04n,200,6.4,3.1
2022-04-08T05:00:00,8,8,75,-6.1,0,0,-17.1,0,n,0,888,36,1013,0,0,16,Overcast clouds,804,c04n,200,5.6,2.6
2022-04-08T06:00:00,8,8,75,-6.1,0,0,-9,0,n,0,887,36,1012,0,0,16,Overcast clouds,804,c04n,210,5.2,1.5
2022-04-08T07:00:00,9,9,75,-6,4,4,-0.1,1,d,0,886,34,1011,0,5,16,Overcast clouds,804,c04n,210,4.8,3.1
2022-04-08T08:00:00,7,5.2,75,-5,50,470,9.3,118,d,0,885,42,1009,0,78,16,Overcast clouds,804,c04d,190,7.6,2.6
2022-04-08T09:00:00,11,11,75,-5,73,666,18.7,280,d,0,883,32,1008,0,185,16,Overcast clouds,804,c04d,190,9,5.1
2022-04-08T10:00:00,13,13,75,-5.1,88,771,27.6,440,d,0,884,28,1006,0,291,16,Overcast clouds,804,c04d,180,9,6.7
2022-04-08T11:00:00,16,16,75,-4,98,834,35.7,578,d,0,883,25,1005,0,382,16,Overcast clouds,804,c04d,190,9,6.7
2022-04-08T12:00:00,21,19.6,75,-4.2,105,870,42,681,d,0,883,18,1003,0,451,16,Overcast clouds,804,c04d,180,10,7.7
2022-04-08T13:00:00,20,18.6,25,-2.3,108,888,45.8,738,d,0,884,22,1003,0,732,16,Scattered clouds,802,c02d,270,11,6.7
2022-04-08T14:00:00,19,17.6,25,-2,109,890,46.2,745,d,0,883,24,1002,0,739,16,Scattered clouds,802,c02d,270,14,9.3
2022-04-08T15:00:00,19,17.5,45,-5.1,106,877,43.3,701,d,0,882,19,1001,0,659,16,Broken clouds,803,c03d,270,15,9.3
2022-04-08T16:00:00,19,17.3,25,-10,101,846,37.5,610,d,0,881,13,1000,0,605,16,Scattered clouds,802,c02d,270,14,8.8
2022-04-08T17:00:00,18,18,25,-11.8,91,791,29.9,480,d,0,880,12,999,0,476,16,Scattered clouds,802,c02d,250,14,7.2
2022-04-08T18:00:00,18,18,25,-12.9,78,700,21.1,324,d,0,880,11,998,0,321,16,Scattered clouds,802,c02d,260,12,8.2
2022-04-08T19:00:00,11,11,25,-11.7,57,538,11.9,160,d,0,879,19,1001,0,159,16,Scattered clouds,802,c02d,300,20,11.3
2022-04-08T20:00:00,8,8,25,-5.1,22,166,2.5,20,d,0,877,39,1003,0,42,16,Scattered clouds,802,c02n,280,18,13.4
2022-04-08T21:00:00,8,8,75,-8.1,0,0,-6.6,0,n,0,876,31,1002,0,0,16,Overcast clouds,804,c04n,280,13,9.3
2022-04-08T22:00:00,8,8,75,-9.4,0,0,-14.9,0,n,0,877,28,1003,0,0,16,Overcast clouds,804,c04n,300,10,7.2
2022-04-08T23:00:00,6,3.6,75,-10.2,0,0,-22.1,0,n,0,878,30,1003,0,0,16,Overcast clouds,804,c04n,330,9.2,3.1
2022-04-09T00:00:00,5,3.3,75,-10.3,0,0,-27.5,0,n,0,877,32,1003,0,0,16,Overcast clouds,804,c04n,340,8.8,2.1
2022-04-09T01:00:00,5,4.7,75,-11.1,0,0,-30.6,0,n,0,877,30,1003,0,0,16,Overcast clouds,804,c04n,290,6,1
2022-04-09T02:00:00,4,2.8,75,-11.2,0,0,-30.9,0,n,0,878,32,1003,0,0,16,Overcast clouds,804,c04n,300,6.8,1.5
2022-04-09T03:00:00,3,-0.3,75,-11.3,0,0,-28.5,0,n,0,877,34,1005,0,0,16,Overcast clouds,804,c04n,350,7.6,3.6
2022-04-09T04:00:00,3,0.9,75,-10.2,0,0,-23.6,0,n,0,877,37,1006,0,0,16,Overcast clouds,804,c04n,340,8,2.1
2022-04-09T05:00:00,2,-2.5,75,-4.1,0,0,-16.8,0,n,0,878,64,1006,0,0,16,Overcast clouds,804,c04n,270,8,5.1
2022-04-09T06:00:00,2,-1.6,75,-5.2,0,0,-8.7,0,n,0,878,59,1006,0,0,16,Overcast clouds,804,c04n,310,4.8,3.6
2022-04-09T07:00:00,2,-0.2,75,-5.2,7,17,0.3,2,d,0,878,59,1008,0,8,16,Overcast clouds,804,c04n,320,4,2.1
2022-04-09T08:00:00,2,-1.9,75,-8.1,51,479,9.6,123,d,0,879,47,1009,0,81,16,Overcast clouds,804,c04d,10,4.1,4.1
2022-04-09T09:00:00,3,-1,75,-9.3,74,671,19,286,d,0,879,40,1009,0,189,16,Overcast clouds,804,c04d,320,9,4.6
2022-04-09T10:00:00,4,-0.2,75,-10,89,774,28,446,d,0,880,35,1009,0,295,16,Overcast clouds,804,c04d,300,10,5.7
2022-04-09T11:00:00,2,-2.2,75,-5.2,99,836,36,584,d,0,880,59,1009,0,386,10,Overcast clouds,804,c04d,280,9,4.6
2022-04-09T12:00:00,5,2.4,75,-9.2,105,872,42.4,686,d,0,879,35,1009,0,454,16,Overcast clouds,804,c04d,350,10,3.1
2022-04-09T13:00:00,6,5.8,75,-9,109,889,46.1,744,d,0,880,33,1008,0,492,16,Overcast clouds,804,c04d,190,8,1
2022-04-09T14:00:00,3,-1,75,-5.1,109,891,46.6,750,d,0,880,55,1009,0,496,16,Overcast clouds,804,c04d,30,8,4.6
2022-04-09T15:00:00,4,2.1,75,-6,107,878,43.6,706,d,0,879,48,1008,0,467,16,Overcast clouds,804,c04d,130,9,2.1
2022-04-09T16:00:00,2,-3.8,75,-3.1,101,847,37.8,614,d,0,880,69,1009,0,406,16,Overcast clouds,804,c04d,20,11,8.2
2022-04-09T17:00:00,6,1.2,75,-7.2,92,793,30.2,484,d,0,879,38,1009,0,320,16,Overcast clouds,804,c04d,10,12,8.8
2022-04-09T18:00:00,5,0.3,45,-9.2,78,703,21.4,328,d,0,881,35,1009,0,308,16,Broken clouds,803,c03d,360,13,7.7
2022-04-09T19:00:00,3,-2.9,75,-7.2,58,543,12.1,164,d,0,880,47,1010,0,109,16,Overcast clouds,804,c04d,340,13,9.3
2022-04-09T20:00:00,3,-1.7,75,-9.3,23,182,2.7,23,d,0,880,40,1010,0,38,16,Overcast clouds,804,c04n,310,12,6.2
2022-04-09T21:00:00,2,-3.2,75,-10.2,0,0,-6.3,0,n,0,880,40,1011,0,0,16,Overcast clouds,804,c04n,310,10,6.7
2022-04-09T22:00:00,3,-2.3,75,-13.3,0,0,-14.6,0,n,0,880,29,1011,0,0,16,Overcast clouds,804,c04n,350,10,7.7
2022-04-09T23:00:00,2,-3.2,75,-10.2,0,0,-21.8,0,n,0,881,40,1012,0,0,16,Overcast clouds,804,c04n,330,12,6.7
2022-04-10T00:00:00,2,-3,75,-11.1,0,0,-27.1,0,n,0,881,37,1011,0,0,16,Overcast clouds,804,c04n,350,10,6.2
2022-04-10T01:00:00,1,-4.7,75,-12,0,0,-30.2,0,n,0,881,37,1012,0,0,16,Overcast clouds,804,c04n,10,7.2,7.2
2022-04-10T02:00:00,0,-6,75,-12.9,0,0,-30.5,0,n,0,881,37,1012,0,0,16,Overcast clouds,804,c04n,360,7.2,7.2
2022-04-10T03:00:00,-1,-6.2,75,-11.1,0,0,-28.1,0,n,0,880,46,1013,0,0,16,Overcast clouds,804,c04n,350,5.6,5.1
2022-04-10T04:00:00,-2,-8.3,75,-9.1,0,0,-23.2,0,n,0,880,58,1013,0,0,16,Overcast clouds,804,c04n,360,8,6.7
2022-04-10T05:00:00,-3,-8.4,75,-9,0,0,-16.4,0,n,0,880,63,1013,0,0,16,Overcast clouds,804,c04n,340,7,4.6
2022-04-10T06:00:00,-3,-8.7,75,-9,0,0,-8.3,0,n,0,879,63,1013,0,0,16,Overcast clouds,804,c04n,340,5.6,5.1
2022-04-10T07:00:00,-4,-10.4,45,-9,10,36,0.6,4,d,0,880,68,1014,0,14,16,Broken clouds,803,c03n,340,8,5.7
2022-04-10T08:00:00,-2,-8.1,75,-9.1,52,488,10,128,d,0,879,58,1013,0,85,16,Overcast clouds,804,c04d,340,9,6.2
2022-04-10T09:00:00,-2,-9.2,75,-7.1,74,675,19.3,291,d,0,880,68,1014,0,193,16,Overcast clouds,804,c04d,360,12,8.8
2022-04-10T10:00:00,0,-6,75,-5.2,89,777,28.3,452,d,0,880,68,1013,0,299,16,Overcast clouds,804,c04d,350,10,7.2
2022-04-10T11:00:00,1,-6.2,75,-14.2,99,837,36.4,590,d,0,881,31,1013,0,390,16,Overcast clouds,804,c04d,340,15,11.8
2022-04-10T12:00:00,2,-4.5,45,-15,106,873,42.7,692,d,0,881,27,1012,0,651,16,Broken clouds,803,c03d,360,16,10.3
2022-04-10T13:00:00,2,-4.2,45,-16.9,109,890,46.5,749,d,0,881,23,1012,0,704,16,Broken clouds,803,c03d,350,13,9.3
2022-04-10T14:00:00,3,-3.3,75,-17.1,109,892,47,755,d,0,881,21,1012,0,499,16,Overcast clouds,804,c04d,340,13,10.8
2022-04-10T15:00:00,2,-4.8,75,-20.4,107,879,44,710,d,0,881,17,1011,0,470,16,Overcast clouds,804,c04d,350,16,11.3
2022-04-10T16:00:00,3,-3.3,75,-18.3,101,848,38.1,619,d,0,880,19,1012,0,410,16,Overcast clouds,804,c04d,20,13,10.8
2022-04-10T17:00:00,2,-4.2,75,-19.2,92,795,30.4,489,d,0,881,19,1012,0,324,16,Overcast clouds,804,c04d,10,14,9.3
2022-04-10T18:00:00,2,-4.6,75,-18,78,706,21.7,333,d,0,880,21,1012,0,220,16,Overcast clouds,804,c04d,10,14,10.8
2022-04-10T19:00:00,1,-5.5,100,-18.3,58,549,12.4,168,d,0,880,22,1013,0,75,16,Overcast clouds,804,c04d,10,13,9.3
2022-04-10T20:00:00,-1,-8.3,100,-18,25,197,3,26,d,0,881,26,1013,0,28,16,Overcast clouds,804,c04n,20,11,9.8
2022-04-10T21:00:00,-2,-8.3,45,-18,0,0,-6.1,0,n,0,880,28,1014,0,0,16,Broken clouds,803,c03n,10,9,6.7
2022-04-10T22:00:00,-5,-10.5,25,-17.1,0,0,-14.4,0,n,0,880,38,1014,0,0,16,Scattered clouds,802,c02n,10,4.8,4.1
2022-04-10T23:00:00,-5,-9.1,25,-17.1,0,0,-21.5,0,n,0,879,38,1015,0,0,16,Scattered clouds,802,c02n,350,4,2.6
2022-04-11T00:00:00,-5,-9.6,45,-16.2,0,0,-26.8,0,n,0,879,41,1015,0,0,16,Broken clouds,803,c03n,330,4,3.1
2022-04-11T01:00:00,-4,-7.9,45,-16.2,0,0,-29.9,0,n,0,879,38,1015,0,0,16,Broken clouds,803,c03n,290,4,2.6
2022-04-11T02:00:00,-5,-9.6,45,-15.1,0,0,-30.2,0,n,0,880,45,1015,0,0,16,Broken clouds,803,c03n,330,4,3.1
2022-04-11T03:00:00,-5,-10.1,45,-14.5,0,0,-27.7,0,n,0,879,47,1014,0,0,16,Broken clouds,803,c03n,340,4.4,3.6
2022-04-11T04:00:00,-6,-12.5,75,-14,0,0,-22.8,0,n,0,879,53,1014,0,0,16,Overcast clouds,804,c04n,340,5.1,5.1
2022-04-11T05:00:00,-7,-13,75,-13,0,0,-16.1,0,n,0,879,62,1015,0,0,16,Overcast clouds,804,c04n,340,4.4,4.1
2022-04-11T06:00:00,-6,-11.3,45,-13.1,0,0,-8,0,n,0,879,57,1015,0,0,16,Broken clouds,803,c03n,350,4.4,3.6
2022-04-11T07:00:00,-7,-11.4,45,-13.6,12,58,0.9,6,d,0,879,59,1015,0,18,16,Broken clouds,803,c03n,350,4.8,2.6
2022-04-11T08:00:00,-6,-12.9,75,-14,53,497,10.3,134,d,0,879,53,1015,0,89,16,Overcast clouds,804,c04d,10,11,5.7
2022-04-11T09:00:00,-5,-12.7,75,-14,75,679,19.7,297,d,0,879,49,1015,0,196,16,Overcast clouds,804,c04d,350,11,7.7
2022-04-11T10:00:00,-5,-13.6,100,-15.1,89,779,28.7,457,d,0,889,45,1015,0,135,16,Overcast clouds,804,c04d,340,13,9.8
2022-04-11T11:00:00,-3,-10.7,100,-17,100,839,36.7,595,d,0,889,33,1015,0,160,16,Overcast clouds,804,c04d,350,13,9.3
2022-04-11T12:00:00,-4,-12.3,100,-18.2,106,874,43.1,697,d,0,889,32,1015,0,176,16,Overcast clouds,804,c04d,340,12,9.8
2022-04-11T13:00:00,-2,-9.6,100,-20.3,109,891,46.9,753,d,0,889,23,1015,0,184,16,Overcast clouds,804,c04d,360,13,9.8
2022-04-11T14:00:00,-1,-8.6,75,-20,110,893,47.3,760,d,0,881,22,1015,0,503,16,Overcast clouds,804,c04d,10,15,10.8
2022-04-11T15:00:00,-1,-7.7,75,-21.1,107,880,44.3,715,d,0,881,20,1014,0,473,16,Overcast clouds,804,c04d,10,13,8.2
2022-04-11T16:00:00,-1,-8.3,45,-22.3,101,850,38.4,623,d,0,880,18,1014,0,586,16,Broken clouds,803,c03d,20,12,9.8
2022-04-11T17:00:00,-1,-8.3,45,-21.1,92,797,30.7,493,d,0,881,20,1015,0,464,16,Broken clouds,803,c03d,40,12,9.8
2022-04-11T18:00:00,-2,-9.2,75,-17.2,79,708,21.9,337,d,0,881,30,1016,0,223,16,Overcast clouds,804,c04d,20,12,8.8
2022-04-11T19:00:00,-3,-10.1,75,-16.3,59,554,12.6,172,d,0,881,35,1017,0,114,16,Overcast clouds,804,c04d,30,12,7.7
2022-04-11T20:00:00,-4,-11.2,45,-15,26,212,3.2,29,d,0,881,42,1018,0,27,16,Broken clouds,803,c03n,50,10,7.2
2022-04-11T21:00:00,-5,-12.9,75,-15.1,0,0,-5.8,0,n,0,882,45,1019,0,0,16,Overcast clouds,804,c04n,40,11,8.2
2022-04-11T22:00:00,-7,-14.5,25,-15.2,0,0,-14.1,0,n,0,882,52,1020,0,0,16,Scattered clouds,802,c02n,50,9.6,6.2
2022-04-11T23:00:00,-8,-15.4,45,-14,0,0,-21.2,0,n,0,882,62,1020,0,0,16,Broken clouds,803,c03n,40,10,5.7
2022-04-12T00:00:00,-9,-15,45,-15.1,0,0,-26.5,0,n,0,882,61,1022,0,0,16,Broken clouds,803,c03n,340,10,3.6
2022-04-12T01:00:00,-8,-15.7,75,-15,0,0,-29.5,0,n,0,882,57,1022,0,0,16,Overcast clouds,804,c04n,360,9.6,6.2
2022-04-12T02:00:00,-8,-16.6,75,-14,0,0,-29.8,0,n,0,883,62,1022,0,0,14,Overcast clouds,804,c04n,10,9.6,7.7
2022-04-12T03:00:00,-8,-16.3,75,-13,0,0,-27.4,0,n,0,884,67,1023,0,0,10,Overcast clouds,804,c04n,20,8.4,7.2
2022-04-12T04:00:00,-9,-17.3,75,-12.1,0,0,-22.5,0,n,0,884,78,1023,0,0,2,Haze,721,a03n,10,10,6.7
2022-04-12T05:00:00,-10,-18.6,75,-12.6,0,0,-15.7,0,n,0,884,81,1024,0,0,5,Overcast clouds,804,c04n,20,10,6.7
2022-04-12T06:00:00,-10,-18.9,75,-13.1,0,0,-7.7,0,n,0,884,78,1025,0,0,5,Overcast clouds,804,c04n,20,8,7.2
2022-04-12T07:00:00,-11,-19.5,100,-13,14,81,1.3,8,d,0,885,85,1026,0,15,3,Overcast clouds,804,c04n,10,8.4,6.2
2022-04-12T08:00:00,-11,-20.5,100,-14.1,54,506,10.6,139,d,0,885,78,1026,0,68,11,Overcast clouds,804,c04d,10,9,7.7
2022-04-12T09:00:00,-11,-19.5,100,-14.1,75,684,20,303,d,0,886,78,1027,0,105,6,Overcast clouds,804,c04d,30,9,6.2
2022-04-12T10:00:00,-11,-20.2,100,-14.1,90,782,29,463,d,0,886,78,1028,0,136,5,Overcast clouds,804,c04d,30,12.8,7.2
2022-04-12T11:00:00,-10,-18.6,100,-13.1,100,841,37.1,600,d,0,887,78,1029,0,160,4,Overcast clouds,804,c04d,30,9,6.7
2022-04-12T12:00:00,-9,-16.2,100,-13.1,106,876,43.5,702,d,0,887,72,1029,0,176,8,Overcast clouds,804,c04d,30,10,5.1
2022-04-12T13:00:00,-9,-17.9,100,-14,109,893,47.3,758,d,0,888,67,1029,0,185,10,Overcast clouds,804,c04d,10,10,7.7
2022-04-12T14:00:00,-8,-16.8,100,-14,110,894,47.7,764,d,0,888,62,1029,0,186,10,Overcast clouds,804,c04d,10,11,8.2
2022-04-12T15:00:00,-8,-17.1,100,-14,107,881,44.6,719,d,0,889,62,1029,0,179,10,Overcast clouds,804,c04d,10,11.6,8.8
2022-04-12T16:00:00,-8,-17.3,100,-14,102,851,38.7,628,d,0,889,62,1030,0,165,10,Overcast clouds,804,c04d,20,11.2,9.3
2022-04-12T17:00:00,-8,-16.8,100,-14,93,798,31,497,d,0,889,62,1030,0,143,8,Overcast clouds,804,c04d,10,10.8,8.2
2022-04-12T18:00:00,-8,-16.8,100,-14,79,711,22.1,341,d,0,889,62,1030,0,113,11,Overcast clouds,804,c04d,30,10.4,8.2
2022-04-12T19:00:00,-8,-16.8,100,-14,60,559,12.8,176,d,0,889,62,1030,0,78,16,Overcast clouds,804,c04d,20,10,8.2
2022-04-12T20:00:00,-9,-18.1,100,-14,27,226,3.5,32,d,0,889,67,1031,0,30,16,Overcast clouds,804,c04n,30,9,8.2
2022-04-12T21:00:00,-10,-17.9,75,-14.1,0,0,-5.5,0,n,0,889,72,1031,0,0,11,Overcast clouds,804,c04n,20,8,5.7
2022-04-12T22:00:00,-10,-17.9,75,-15.1,0,0,-13.8,0,n,0,889,66,1032,0,0,11,Overcast clouds,804,c04n,20,8.4,5.7
2022-04-12T23:00:00,-10,-18.9,75,-15.1,0,0,-20.9,0,n,0,889,66,1032,0,0,11,Overcast clouds,804,c04n,20,8.4,7.2
2022-04-13T00:00:00,-10,-18.6,100,-15.1,0,0,-26.2,0,n,0,889,66,1031,0,0,11,Overcast clouds,804,c04n,20,7.6,6.7
2022-04-13T01:00:00,-10,-17.9,75,-14.1,0,0,-29.1,0,n,0,889,72,1031,0,0,11,Overcast clouds,804,c04n,360,8,5.7
2022-04-13T02:00:00,-10,-17.5,75,-14.1,0,0,-29.4,0,n,0,889,72,1031,0,0,8,Overcast clouds,804,c04n,350,7.6,5.1
2022-04-13T03:00:00,-10,-17.9,100,-13.1,0,0,-27,0,n,0,889,78,1031,0,0,8,Overcast clouds,804,c04n,340,8,5.7
2022-04-13T04:00:00,-10,-17.5,100,-13.1,0,0,-22.1,0,n,0,889,78,1031,0,0,11,Overcast clouds,804,c04n,350,8,5.1
2022-04-13T05:00:00,-10,-18.3,100,-13.1,0,0,-15.4,0,n,0,889,78,1031,0,0,8,Overcast clouds,804,c04n,350,8,6.2
2022-04-13T06:00:00,-10,-18.3,100,-13.1,0,0,-7.3,0,n,0,889,78,1031,0,0,4,Overcast clouds,804,c04n,340,8,6.2
2022-04-13T07:00:00,-10,-17.9,100,-13.1,16,104,1.6,11,d,0,889,78,1031,0,17,5,Overcast clouds,804,c04n,350,7.6,5.7
2022-04-13T08:00:00,-10,-18.6,100,-13.1,55,514,10.9,144,d,0,889,78,1031,0,69,3,Overcast clouds,804,c04d,360,8.8,6.7
2022-04-13T09:00:00,-9,-17.6,100,-13.1,76,688,20.3,308,d,0,889,72,1031,0,107,6,Overcast clouds,804,c04d,10,9.6,7.2
2022-04-13T10:00:00,-9,-17.3,100,-12.1,90,784,29.3,468,d,0,890,78,1031,0,137,4,Overcast clouds,804,c04d,20,9,6.7
2022-04-13T11:00:00,-9,-16.2,100,-12.1,100,842,37.4,606,d,0,890,78,1031,0,161,3,Overcast clouds,804,c04d,30,9,5.1
2022-04-13T12:00:00,-8,-16.6,100,-12.1,106,877,43.8,707,d,0,889,72,1030,0,177,6,Overcast clouds,804,c04d,360,10,7.7
2022-04-13T13:00:00,-7,-15.3,100,-13,110,894,47.6,763,d,0,890,62,1030,0,186,10,Overcast clouds,804,c04d,360,10,7.7
2022-04-13T14:00:00,-7,-15.3,100,-13,110,895,48,769,d,0,890,62,1030,0,187,10,Overcast clouds,804,c04d,20,10,7.7
2022-04-13T15:00:00,-6,-13.7,100,-13.1,107,882,44.9,724,d,0,890,57,1030,0,179,10,Overcast clouds,804,c04d,20,9,7.2
2022-04-13T16:00:00,-6,-13.5,100,-13.1,102,852,39,632,d,0,890,57,1029,0,165,11,Overcast clouds,804,c04d,10,9,6.7
2022-04-13T17:00:00,-6,-12.5,100,-12.1,93,800,31.2,502,d,0,890,62,1029,0,143,13,Overcast clouds,804,c04d,20,8.8,5.1
2022-04-13T18:00:00,-7,-14.5,100,-11,80,714,22.4,345,d,0,890,73,1029,0,115,3,Overcast clouds,804,c04d,20,8.4,6.2
2022-04-13T19:00:00,-7,-14.1,100,-12.1,60,564,13.1,180,d,0,889,67,1029,0,78,8,Overcast clouds,804,c04d,30,7.6,5.7
2022-04-13T20:00:00,-7,-12.5,100,-11,28,240,3.7,35,d,0,889,73,1029,0,32,8,Overcast clouds,804,c04n,30,6.8,3.6
2022-04-13T21:00:00,-8,-14.6,75,-11,0,0,-5.3,0,n,0,889,79,1029,0,0,8,Overcast clouds,804,c04n,30,5.2,4.6
2022-04-13T22:00:00,-8,-13.7,75,-11,0,0,-13.5,0,n,0,888,79,1028,0,0,8,Overcast clouds,804,c04n,10,5.6,3.6
2022-04-13T23:00:00,-8,-13.2,75,-11,0,0,-20.6,0,n,0,888,79,1028,0,0,5,Overcast clouds,804,c04n,20,5.6,3.1
2022-04-14T00:00:00,-8,-12.6,100,-11,0,0,-25.8,0,n,0,888,79,1028,0,0,4,Overcast clouds,804,c04n,10,5.6,2.6
2022-04-14T01:00:00,-9,-14.4,100,-11,0,0,-28.8,0,n,0,887,85,1027,0,0,5,Overcast clouds,804,c04n,360,4.8,3.1
2022-04-14T02:00:00,-9,-14.4,75,-11,0,0,-29.1,0,n,0,887,85,1027,0,0,4,Overcast clouds,804,c04n,10,4,3.1
2022-04-14T03:00:00,-9,-14.4,100,-11,0,0,-26.6,0,n,0,886,85,1026,0,0,4,Overcast clouds,804,c04n,30,3.2,3.1
2022-04-14T04:00:00,-10,-13.2,100,-12,0,0,-21.8,0,n,0,897,85,1026,0,0,6,Overcast clouds,804,c04n,50,2.4,1.5
2022-04-14T05:00:00,-10,-13.2,100,-12,0,0,-15.1,0,n,0,885,85,1026,0,0,8,Overcast clouds,804,c04n,350,2.8,1.5
2022-04-14T06:00:00,-10,-15,100,-12,0,0,-7,0,n,0,897,85,1026,0,0,10,Overcast clouds,804,c04n,360,3.2,2.6
2022-04-14T07:00:00,-10,-14.3,100,-12,18,126,1.9,14,d,0,885,85,1026,0,19,8,Overcast clouds,804,c04n,350,4,2.1
2022-04-14T08:00:00,-9,-15,75,-12.1,55,521,11.3,149,d,0,885,78,1026,0,99,11,Overcast clouds,804,c04d,340,6.4,3.6
2022-04-14T09:00:00,-9,-16.7,100,-12.1,76,691,20.6,314,d,0,885,78,1025,0,107,2,Haze,721,a03d,10,8,5.7
2022-04-14T10:00:00,-8,-14.6,100,-11,91,786,29.6,474,d,0,885,79,1025,0,138,2,Haze,721,a03d,10,9.2,4.6
2022-04-14T11:00:00,-7,-14.5,100,-12.1,100,844,37.7,611,d,0,885,67,1025,0,161,8,Overcast clouds,804,c04d,360,9.2,6.2
2022-04-14T12:00:00,-7,-15.3,100,-12.1,107,878,44.2,712,d,0,886,67,1024,0,178,5,Overcast clouds,804,c04d,360,9.6,7.7
2022-04-14T13:00:00,-7,-14.7,100,-13,110,894,48,768,d,0,885,62,1024,0,187,8,Overcast clouds,804,c04d,10,9.6,6.7
2022-04-14T14:00:00,-6,-13.5,100,-12.1,110,896,48.4,773,d,0,885,62,1024,0,187,8,Overcast clouds,804,c04d,40,9.6,6.7
2022-04-14T15:00:00,-7,-14.5,100,-12.1,108,883,45.3,728,d,0,885,67,1024,0,181,2,Haze,721,a03d,40,8,6.2
2022-04-14T16:00:00,-6,-12.5,100,-11.1,102,853,39.3,636,d,0,885,67,1024,0,166,5,Overcast clouds,804,c04d,20,8,5.1
2022-04-14T17:00:00,-6,-12.5,100,-10,93,801,31.5,506,d,0,885,73,1023,0,144,5,Overcast clouds,804,c04d,30,8.8,5.1
2022-04-14T18:00:00,-6,-12.5,100,-10,80,716,22.6,349,d,0,885,73,1023,0,115,5,Overcast clouds,804,c04d,30,8.4,5.1
2022-04-14T19:00:00,-6,-12.5,100,-9,61,569,13.3,184,d,0,885,79,1024,0,79,5,Overcast clouds,804,c04d,50,8,5.1
2022-04-14T20:00:00,-7,-13.7,100,-10,29,253,4,38,d,0,884,79,1024,0,33,8,Overcast clouds,804,c04n,30,7.2,5.1
2022-04-14T21:00:00,-7,-12.5,100,-10,0,0,-5,0,n,0,884,79,1024,0,0,5,Overcast clouds,804,c04n,40,6.8,3.6
2022-04-14T22:00:00,-8,-11.9,75,-10.1,0,0,-13.3,0,n,0,885,85,1024,0,0,2,Haze,721,a03n,30,6.4,2.1
2022-04-14T23:00:00,-8,-12.6,75,-10.1,0,0,-20.3,0,n,0,884,85,1024,0,0,4,Overcast clouds,804,c04n,10,5.6,2.6
2022-04-15T00:00:00,-8,-12.6,75,-9.1,0,0,-25.5,0,n,0,884,92,1024,0,0,2,Haze,721,a03n,360,4.8,2.6
2022-04-15T01:00:00,-8,-12.6,75,-10.1,0,0,-28.4,0,n,0,884,85,1024,0,0,4,Overcast clouds,804,c04n,350,3.6,2.6
2022-04-15T02:00:00,-9,-13.1,75,-10.1,0,0,-28.7,0,n,0,884,92,1023,0,0,3,Overcast clouds,804,c04n,350,3.2,2.1
2022-04-15T03:00:00,-8,-11.9,75,-10.1,0,0,-26.3,0,n,0,884,85,1023,0,0,3,Overcast clouds,804,c04n,340,3.2,2.1
2022-04-15T04:00:00,-9,-13.8,75,-10.1,0,0,-21.4,0,n,0,884,92,1023,0,0,16,Overcast clouds,804,c04n,350,2.8,2.6
2022-04-15T05:00:00,-9,-13.1,75,-11,0,0,-14.7,0,n,0,884,85,1023,0,0,3,Overcast clouds,804,c04n,350,2.4,2.1
2022-04-15T06:00:00,-9,-13.8,75,-11,0,0,-6.7,0,n,0,884,85,1023,0,0,3,Overcast clouds,804,c04n,350,2.6,2.6
2022-04-15T07:00:00,-9,-13.1,100,-11,20,148,2.2,17,d,0,883,85,1023,0,22,6,Overcast clouds,804,c04n,340,2.1,2.1
2022-04-15T08:00:00,-9,-13.8,100,-11,56,529,11.6,154,d,0,884,85,1024,0,71,6,Overcast clouds,804,c04d,350,3.2,2.6
2022-04-15T09:00:00,-8,-12.6,100,-10.1,77,695,21,319,d,0,884,85,1024,0,109,6,Overcast clouds,804,c04d,360,4.4,2.6
2022-04-15T10:00:00,-7,-10.8,100,-10,91,789,30,479,d,0,884,79,1024,0,139,4,Overcast clouds,804,c04d,20,5.2,2.1
2022-04-15T11:00:00,-6,-10.3,100,-10,101,846,38.1,616,d,0,885,73,1024,0,163,6,Overcast clouds,804,c04d,360,5.6,2.6
2022-04-15T12:00:00,-6,-9.6,100,-10,107,879,44.5,717,d,0,885,73,1024,0,179,6,Overcast clouds,804,c04d,40,5.6,2.1
2022-04-15T13:00:00,-5,-8.4,100,-11.1,110,895,48.3,773,d,0,886,62,1024,0,187,8,Overcast clouds,804,c04d,40,6,2.1
2022-04-15T14:00:00,-5,-6.4,100,-11.1,110,897,48.7,778,d,0,886,62,1024,0,188,8,Overcast clouds,804,c04d,75,5.6,1
2022-04-15T15:00:00,-4,-6.3,100,-10,108,884,45.6,732,d,0,886,63,1024,0,181,16,Overcast clouds,804,c04d,110,5.2,1.5
2022-04-15T16:00:00,-3,-6.7,100,-11,102,854,39.6,640,d,0,886,54,1024,0,166,16,Overcast clouds,804,c04d,40,4.8,2.6
2022-04-15T17:00:00,-3,-6.7,100,-12.2,93,803,31.8,510,d,0,887,49,1024,0,144,16,Overcast clouds,804,c04d,60,4.4,2.6
2022-04-15T18:00:00,-3,-7.2,100,-13,80,719,22.9,353,d,0,887,46,1024,0,115,16,Overcast clouds,804,c04d,40,4,3.1
2022-04-15T19:00:00,-3,-7.6,75,-12.2,61,573,13.6,188,d,0,887,49,1024,0,124,16,Overcast clouds,804,c04d,120,4.8,3.6
2022-04-15T20:00:00,-4,-7.3,75,-12.1,31,266,4.2,41,d,0,887,53,1024,0,58,16,Overcast clouds,804,c04n,160,4.8,2.1
2022-04-15T21:00:00,-4,-8.4,75,-11,0,0,-4.8,0,n,0,886,58,1024,0,0,16,Overcast clouds,804,c04n,160,4.8,3.1
2022-04-15T22:00:00,-5,-10.1,75,-11.1,0,0,-13,0,n,0,887,62,1025,0,0,16,Overcast clouds,804,c04n,140,4.8,3.6
2022-04-15T23:00:00,-5,-10.5,75,-11.1,0,0,-20,0,n,0,887,62,1025,0,0,16,Overcast clouds,804,c04n,160,4.4,4.1
2022-04-16T00:00:00,-5,-10.5,75,-11.1,0,0,-25.2,0,n,0,887,62,1024,0,0,16,Overcast clouds,804,c04n,160,4.1,4.1
2022-04-16T01:00:00,-6,-10.8,75,-10,0,0,-28.1,0,n,0,887,73,1024,0,0,16,Overcast clouds,804,c04n,180,3.2,3.1
2022-04-16T02:00:00,-7,-12.5,75,-11,0,0,-28.4,0,n,0,886,73,1024,0,0,16,Overcast clouds,804,c04n,180,3.6,3.6
2022-04-16T03:00:00,-8,-12.6,75,-11,0,0,-25.9,0,n,0,885,79,1024,0,0,16,Overcast clouds,804,c04n,180,3.6,2.6
2022-04-16T04:00:00,-8,-12.6,25,-11,0,0,-21.1,0,n,0,885,79,1023,0,0,16,Scattered clouds,802,c02n,180,3.2,2.6
2022-04-16T05:00:00,-9,-13.8,4,-12.1,0,0,-14.4,0,n,0,884,78,1023,0,0,16,Few clouds,801,c02n,150,3.2,2.6
2022-04-16T06:00:00,-9,-13.1,5,-12.1,0,0,-6.3,0,n,0,884,78,1023,0,0,16,Few clouds,801,c02n,170,3.2,2.1
2022-04-16T07:00:00,-9,-12,25,-11,22,168,2.5,21,d,0,883,85,1022,0,43,16,Scattered clouds,802,c02n,190,2.8,1.5
2022-04-16T08:00:00,-8,-10.9,5,-11,57,536,11.9,160,d,0,883,79,1022,0,160,16,Few clouds,801,c02d,140,4.4,1.5
2022-04-16T09:00:00,-6,-9.6,5,-9,77,699,21.3,325,d,0,883,79,1021,0,325,16,Few clouds,801,c02d,180,6,2.1
2022-04-16T10:00:00,-4,-8.4,5,-10,91,791,30.3,484,d,0,884,63,1021,0,484,16,Few clouds,801,c02d,150,6.8,3.1
2022-04-16T11:00:00,-2,-7.2,25,-10,101,847,38.4,621,d,0,884,54,1020,0,616,16,Scattered clouds,802,c02d,160,7.6,4.6
2022-04-16T12:00:00,-1,-5.2,25,-9.1,107,880,44.9,722,d,0,885,54,1019,0,716,16,Scattered clouds,802,c02d,160,7,3.6
2022-04-16T13:00:00,2,-2.2,25,-9.2,110,896,48.7,777,d,0,885,43,1018,0,771,16,Scattered clouds,802,c02d,160,7,4.6
2022-04-16T14:00:00,2,-1.2,45,-11.1,111,898,49.1,782,d,0,885,37,1017,0,735,16,Broken clouds,803,c03d,160,7,3.1
2022-04-16T15:00:00,3,-0.7,75,-10.2,108,885,45.9,737,d,0,884,37,1016,0,488,16,Overcast clouds,804,c04d,120,9.6,4.1
2022-04-16T16:00:00,3,-0.7,75,-11.3,103,855,39.9,645,d,0,884,34,1016,0,427,16,Overcast clouds,804,c04d,110,8,4.1
2022-04-16T17:00:00,3,-1.7,75,-11.3,94,804,32,514,d,0,884,34,1016,0,340,16,Overcast clouds,804,c04d,160,8,6.2
2022-04-16T18:00:00,2,-3,75,-11.1,81,721,23.1,358,d,0,884,37,1016,0,237,16,Overcast clouds,804,c04d,140,8,6.2
2022-04-16T19:00:00,2,-3.2,100,-9.2,62,578,13.8,192,d,0,883,43,1017,0,81,16,Overcast clouds,804,c04d,100,8.4,6.7
2022-04-16T20:00:00,1,-4,100,-11.1,32,278,4.4,44,d,0,884,40,1017,0,36,16,Overcast clouds,804,c04n,140,6.4,5.7
2022-04-16T21:00:00,0,-5,75,-12,0,0,-4.5,0,n,0,884,40,1017,0,0,16,Overcast clouds,804,c04n,160,5.1,5.1
2022-04-16T22:00:00,-1,-6.8,75,-11.1,0,0,-12.7,0,n,0,883,46,1018,0,0,16,Overcast clouds,804,c04n,140,6.2,6.2
2022-04-16T23:00:00,-2,-6.8,75,-10,0,0,-19.7,0,n,0,884,54,1019,0,0,16,Overcast clouds,804,c04n,180,4.4,4.1
2022-04-17T00:00:00,-3,-7.2,75,-9,0,0,-24.9,0,n,0,884,63,1019,0,0,16,Overcast clouds,804,c04n,190,3.6,3.1
2022-04-17T01:00:00,-3,-6.1,45,-8.1,0,0,-27.8,0,n,0,884,68,1019,0,0,16,Broken clouds,803,c03n,190,4.8,2.1
2022-04-17T02:00:00,-3,-6.1,25,-8.1,0,0,-28,0,n,0,884,68,1019,0,0,16,Scattered clouds,802,c02n,140,4.4,2.1
2022-04-17T03:00:00,-4,-7.3,100,-8.1,0,0,-25.5,0,n,0,884,73,1019,0,0,16,Overcast clouds,804,c04n,170,4.4,2.1
2022-04-17T04:00:00,-4,-7.3,75,-7.1,0,0,-20.7,0,n,0,884,79,1020,0,0,16,Overcast clouds,804,c04n,200,4.4,2.1
2022-04-17T05:00:00,-7,-11.4,75,-10,0,0,-14,0,n,0,884,79,1021,0,0,16,Overcast clouds,804,c04n,360,3.6,2.6
2022-04-17T06:00:00,-8,-10.2,75,-10.1,0,0,-6,0,n,0,883,85,1021,0,0,16,Overcast clouds,804,c04n,350,2.8,1.2
2022-04-17T07:00:00,-8,-10.9,45,-10.1,24,188,2.8,24,d,0,883,85,1022,0,47,16,Broken clouds,803,c03n,340,2.4,1.5
2022-04-17T08:00:00,-5,-6.4,45,-8.1,58,543,12.2,165,d,0,884,79,1023,0,155,16,Broken clouds,803,c03d,340,3.6,1
2022-04-17T09:00:00,-2,-8.6,25,-7.1,78,702,21.6,330,d,0,886,68,1023,0,327,16,Scattered clouds,802,c02d,340,7.2,7.2
2022-04-17T10:00:00,-1,-7.1,25,-6.1,92,793,30.6,490,d,0,888,68,1024,0,486,16,Scattered clouds,802,c02d,350,8.4,6.7
2022-04-17T11:00:00,0,-5.5,25,-5.2,101,848,38.8,626,d,0,889,68,1024,0,621,16,Scattered clouds,802,c02d,10,9,6.2
2022-04-17T12:00:00,2,-3,25,-7.1,107,881,45.2,727,d,0,890,51,1025,0,721,16,Scattered clouds,802,c02d,10,9,6.2
2022-04-17T13:00:00,3,-1,25,-8,111,897,49.1,782,d,0,891,44,1025,0,776,16,Scattered clouds,802,c02d,10,9,4.6
2022-04-17T14:00:00,4,0,45,-9,111,898,49.4,786,d,0,892,38,1025,0,739,16,Broken clouds,803,c03d,340,8,5.1
2022-04-17T15:00:00,6,2.8,45,-11.1,108,885,46.2,741,d,0,892,28,1024,0,697,16,Broken clouds,803,c03d,10,7,4.6
2022-04-17T16:00:00,2,-0.2,75,-9.2,103,856,40.1,649,d,0,893,43,1025,0,429,16,Overcast clouds,804,c04d,260,6,2.1
2022-04-17T17:00:00,4,2.1,75,-11.2,94,806,32.3,518,d,0,892,32,1025,0,343,16,Overcast clouds,804,c04d,300,6,2.1
2022-04-17T18:00:00,4,0.9,75,-10,81,723,23.4,362,d,0.5,893,35,1026,0,239,16,Overcast clouds,804,c04d,50,4,3.6
2022-04-17T19:00:00,4,0.9,75,-9,62,582,14,196,d,0,893,38,1026,0,130,16,Overcast clouds,804,c04d,80,4.8,3.6
2022-04-17T20:00:00,2,-1.2,25,-9.2,33,290,4.7,47,d,0,892,43,1026,0,47,11,Scattered clouds,802,c02n,90,4.8,3.1
2022-04-17T21:00:00,1,-2.4,25,-10.1,0,0,-4.3,0,n,0,892,43,1027,0,0,16,Scattered clouds,802,c02n,110,4,3.1
2022-04-17T22:00:00,0,-3.6,25,-11.1,0,0,-12.4,0,n,0,892,43,1027,0,0,16,Scattered clouds,802,c02n,140,3.6,3.1
2022-04-17T23:00:00,-2,-5.5,25,-10,0,0,-19.4,0,n,0,892,54,1027,0,0,16,Scattered clouds,802,c02n,150,3.6,2.6
2022-04-18T00:00:00,-2,-6,5,-11,0,0,-24.5,0,n,0,891,50,1027,0,0,16,Few clouds,801,c02n,180,3.6,3.1
2022-04-18T01:00:00,-3,-7.6,5,-10.1,0,0,-27.4,0,n,0,891,58,1027,0,0,16,Few clouds,801,c02n,190,4,3.6
2022-04-18T02:00:00,-4,-8.9,5,-8.1,0,0,-27.6,0,n,0,891,73,1026,0,0,16,Few clouds,801,c02n,180,4,3.6
2022-04-18T03:00:00,-4,-8.9,30,-7.1,0,0,-25.2,0,n,0,890,79,1025,0,0,16,Scattered clouds,802,c02n,180,4,3.6
2022-04-18T04:00:00,-5,-10.1,100,-8.1,0,0,-20.4,0,n,0,889,79,1025,0,0,16,Overcast clouds,804,c04n,180,3.6,3.6
2022-04-18T05:00:00,-5,-8.4,100,-8.1,0,0,-13.7,0,n,0,889,79,1025,0,0,16,Overcast clouds,804,c04n,190,3.6,2.1
2022-04-18T06:00:00,-5,-8.4,25,-8.1,0,0,-5.7,0,n,0,888,79,1024,0,0,16,Scattered clouds,802,c02n,200,3.2,2.1
2022-04-18T07:00:00,-5,-10.9,25,-9.1,25,207,3.2,28,d,0,888,73,1024,0,28,16,Scattered clouds,802,c02n,220,4.6,4.6
2022-04-18T08:00:00,-4,-7.3,25,-9,59,549,12.5,170,d,0,887,68,1023,0,169,16,Scattered clouds,802,c02d,200,4.4,2.1
2022-04-18T09:00:00,-1,-3.7,75,-9.1,78,706,21.9,335,d,0,888,54,1022,0,222,16,Overcast clouds,804,c04d,230,6,2.1
2022-04-18T10:00:00,2,-1.2,75,-9.2,92,795,30.9,495,d,0,888,43,1021,0,327,16,Overcast clouds,804,c04d,150,8,3.1
2022-04-18T11:00:00,5,1.5,100,-7.1,102,850,39.1,631,d,0,889,41,1020,0,165,16,Overcast clouds,804,c04d,170,8,4.6
2022-04-18T12:00:00,7,2.3,100,-10.2,108,882,45.6,731,d,0,889,28,1018,0,181,16,Overcast clouds,804,c04d,190,10,9.8
2022-04-18T13:00:00,8,8,100,-13,111,898,49.4,786,d,0,889,21,1017,0,190,16,Overcast clouds,804,c04d,170,12,8.8
2022-04-18T14:00:00,9,9,100,-13.4,111,899,49.8,791,d,0,888,19,1015,0,190,16,Overcast clouds,804,c04d,170,11,7.7
2022-04-18T15:00:00,9,9,100,-15.4,108,886,46.5,745,d,0,887,16,1014,0,183,16,Overcast clouds,804,c04d,160,13,9.3
2022-04-18T16:00:00,9,9,100,-16.2,103,857,40.4,653,d,0,886,15,1013,0,168,16,Overcast clouds,804,c04d,150,12.4,9.3
2022-04-18T17:00:00,9,9,100,-15.4,94,807,32.5,522,d,0.25,885,16,1012,0,146,16,Overcast clouds,804,c04d,160,12,9.3
2022-04-18T18:00:00,8,8,100,-13,81,725,23.6,366,d,0.5,884,21,1011,0,118,16,Overcast clouds,804,c04d,160,11,8.8
2022-04-18T19:00:00,8,8,100,-10.3,63,587,14.3,200,d,0,882,26,1010,0,83,16,Overcast clouds,804,c04d,180,13,10.3
2022-04-18T20:00:00,7,2.3,75,-10.2,34,301,4.9,50,d,0,881,28,1008,0,67,16,Overcast clouds,804,c04n,160,11,9.8
2022-04-18T21:00:00,6,1.7,100,-8.3,0,0,-4,0,n,0,880,35,1007,0,0,16,Overcast clouds,804,c04n,160,9,7.2
2022-04-18T22:00:00,6,1.9,100,-7.2,0,0,-12.2,0,n,0.25,879,38,1006,0,0,16,Overcast clouds,804,c04n,160,9,6.7
2022-04-18T23:00:00,5,0.4,75,-6.2,0,0,-19.1,0,n,0,878,44,1005,0,0,16,Overcast clouds,804,c04n,160,9,7.2
2022-04-19T00:00:00,4,-1,75,-5.2,0,0,-24.2,0,n,0,877,51,1003,0,0,16,Overcast clouds,804,c04n,170,14,7.7
2022-04-19T01:00:00,2,-2.2,45,-5.2,0,0,-27.1,0,n,0,875,59,1002,0,0,16,Broken clouds,803,c03n,180,4.8,4.6
2022-04-19T02:00:00,1,-2.4,75,-5,0,0,-27.3,0,n,0,874,64,1001,0,0,16,Overcast clouds,804,c04n,190,3.6,3.1
2022-04-19T03:00:00,1,0.3,45,-5,0,0,-24.9,0,n,0,872,64,1000,0,0,16,Broken clouds,803,c03n,180,3.2,1
2022-04-19T04:00:00,1,-2.8,75,-5,0,0,-20,0,n,0,871,64,999,0,0,16,Overcast clouds,804,c04n,170,3.6,3.6
2022-04-19T05:00:00,0,-3.1,100,-6,0,0,-13.4,0,n,0,870,64,999,0,0,16,Overcast clouds,804,c04n,90,2.8,2.6
2022-04-19T06:00:00,0,-3.6,100,-5,0,0,-5.4,0,n,0,870,69,998,0,0,16,Overcast clouds,804,c04n,70,3.1,3.1
2022-04-19T07:00:00,0,-4.7,100,-4.1,27,224,3.5,32,d,0,869,74,998,0,30,16,Overcast clouds,804,c04n,140,4.6,4.6
2022-04-19T08:00:00,1,-2.8,100,-4,59,556,12.8,175,d,0,869,69,997,0,77,16,Overcast clouds,804,c04d,160,3.6,3.6
2022-04-19T09:00:00,1,-2.4,100,-3.1,79,709,22.2,340,d,0,868,74,996,0,113,16,Overcast clouds,804,c04d,140,4.4,3.1
2022-04-19T10:00:00,0,-0.8,100,-3,92,797,31.2,500,d,0.25,867,80,996,1.75,142,1,Flurries,623,s06d,95,3.6,1
2022-04-19T11:00:00,0,-1.8,100,-1.1,102,851,39.4,636,d,0.5,866,92,995,3.5,166,1,Flurries,623,s06d,50,10.4,1.5
2022-04-19T12:00:00,0,-0.8,100,-1.1,108,883,45.9,736,d,1.5,866,92,995,10.5,165,1,Light snow,600,s01d,60,14,1
2022-04-19T13:00:00,0,-7.3,100,-1.1,111,899,49.8,790,d,2,866,92,995,14,168,0,Light snow,600,s01d,310,14,10.8
2022-04-19T14:00:00,0,-5.5,100,-1.1,111,900,50.1,795,d,2,865,92,996,14,168,0,Light snow,600,s01d,320,9,6.2
2022-04-19T15:00:00,0,-6.8,100,-1.1,109,887,46.8,749,d,2.5,866,92,997,17.5,157,2,Snow,601,s02d,330,12,9.3
2022-04-19T16:00:00,-1,-8.5,100,-1,103,858,40.7,657,d,2.5,867,100,998,42.5,143,1,Snow,601,s02d,340,13,10.3
2022-04-19T17:00:00,0,-7.4,100,0,94,809,32.8,526,d,2,867,100,998,14,128,1,Light snow,600,s01d,340,14,11.3
2022-04-19T18:00:00,0,-6,100,-1.1,82,728,23.8,370,d,1.75,868,92,999,12.25,105,1,Light snow,600,s01d,340,11,7.2
2022-04-19T19:00:00,0,-6.8,100,-1.1,63,591,14.5,204,d,1,869,92,1000,7,83,1,Light snow,600,s01d,330,11,9.3
2022-04-19T20:00:00,-2,-9.2,100,-2,35,312,5.2,54,d,0.5,870,100,1002,10,40,1,Light snow,600,s01d,350,13,8.8
2022-04-19T21:00:00,-2,-9.4,100,-3.1,0,0,-3.8,0,n,1.75,870,92,1003,35,0,2,Snow,601,s02n,340,13,9.3
2022-04-19T22:00:00,-2,-9.6,100,-3.1,0,0,-11.9,0,n,1.75,871,92,1004,35,0,2,Snow,601,s02n,330,12,9.8
2022-04-19T23:00:00,-2,-9.8,100,-3.1,0,0,-18.8,0,n,1.5,872,92,1006,30,0,2,Snow,601,s02n,350,13,10.3
2022-04-20T00:00:00,-2,-9.2,100,-3.1,0,0,-23.9,0,n,1.5,873,92,1007,30,0,2,Snow,601,s02n,330,13,8.8
2022-04-20T01:00:00,-2,-9.2,100,-4,0,0,-26.7,0,n,1.25,874,86,1008,25,0,3,Light snow,600,s01n,330,11,8.8
2022-04-20T02:00:00,-2,-8.8,100,-4,0,0,-27,0,n,0.5,875,86,1009,10,0,3,Light snow,600,s01n,340,11,7.7
2022-04-20T03:00:00,-2,-8.8,100,-4,0,0,-24.5,0,n,0.5,876,86,1009,10,0,3,Light snow,600,s01n,340,12,7.7
2022-04-20T04:00:00,-2,-9,100,-4,0,0,-19.7,0,n,0.5,876,86,1010,10,0,6,Light snow,600,s01n,330,12,8.2
2022-04-20T05:00:00,-3,-10.6,75,-5,0,0,-13.1,0,n,0,877,86,1012,0,0,6,Overcast clouds,804,c04n,350,11,8.8
2022-04-20T06:00:00,-4,-11.6,100,-5.1,0,0,-5.1,0,n,0,878,92,1014,0,0,4,Overcast clouds,804,c04n,350,12,8.2
2022-04-20T07:00:00,-4,-10,100,-6.1,28,241,3.8,35,d,0,877,85,1014,0,32,11,Overcast clouds,804,c04n,350,8,5.1
2022-04-20T08:00:00,-3,-8.7,75,-6.1,60,562,13.1,180,d,0,888,79,1015,0,119,13,Overcast clouds,804,c04d,350,8.8,5.1
2022-04-20T09:00:00,-3,-8,100,-6.1,79,712,22.5,345,d,0,881,79,1016,0,114,16,Overcast clouds,804,c04d,350,9.6,4.1
2022-04-20T10:00:00,-2,-7.8,75,-5.1,93,799,31.5,505,d,0,881,79,1016,0,334,16,Overcast clouds,804,c04d,350,10.4,5.7
2022-04-20T11:00:00,-1,-6.8,75,-5,102,852,39.7,641,d,0,882,74,1016,0,424,16,Overcast clouds,804,c04d,350,10,6.2
2022-04-20T12:00:00,-1,-6.6,45,-5,108,884,46.3,740,d,0,883,74,1017,0,696,16,Broken clouds,803,c03d,10,8.4,5.7
2022-04-20T13:00:00,0,-3.6,75,-4.1,111,900,50.1,795,d,0,884,74,1018,0,526,16,Overcast clouds,804,c04d,360,6.8,3.1
2022-04-20T14:00:00,0,-1.8,75,-5,111,901,50.4,799,d,0,884,69,1018,0,529,16,Overcast clouds,804,c04d,40,6.4,1.5
2022-04-20T15:00:00,0,-4.7,45,-5,109,888,47.1,753,d,0,885,69,1017,0,708,16,Broken clouds,803,c03d,60,6,4.6
2022-04-20T16:00:00,0,-4.4,45,-5,103,859,41,660,d,0,884,69,1018,0,621,16,Broken clouds,803,c03d,90,6,4.1
2022-04-20T17:00:00,1,-3.1,45,-6.1,95,810,33,530,d,0,884,59,1018,0,498,16,Broken clouds,803,c03d,120,6,4.1
2022-04-20T18:00:00,1,-3.1,75,-7,82,730,24.1,374,d,0,885,55,1018,0,247,16,Overcast clouds,804,c04d,130,6,4.1
2022-04-20T19:00:00,1,-3.4,75,-6.1,64,595,14.7,208,d,0,885,59,1017,0,138,16,Overcast clouds,804,c04d,130,4.8,4.6
2022-04-20T20:00:00,0,-4.4,75,-7,36,323,5.4,57,d,0,884,59,1017,0,38,16,Overcast clouds,804,c04d,140,4.4,4.1
2022-04-20T21:00:00,-1,-5.6,45,-6.1,0,0,-3.5,0,n,0,884,68,1017,0,0,11,Broken clouds,803,c03n,140,5.2,4.1
2022-04-20T22:00:00,-1,-6.2,25,-7.1,0,0,-11.6,0,n,0,883,63,1017,0,0,16,Scattered clouds,802,c02n,130,5.6,5.1
2022-04-20T23:00:00,-2,-6.8,25,-8.1,0,0,-18.5,0,n,0,883,63,1017,0,0,16,Scattered clouds,802,c02n,140,5.6,4.1
2022-04-21T00:00:00,-2,-6.4,45,-7.1,0,0,-23.6,0,n,0,883,68,1017,0,0,16,Broken clouds,803,c03n,160,5.6,3.6
2022-04-21T01:00:00,-2,-7.8,45,-8.1,0,0,-26.4,0,n,0,883,63,1016,0,0,16,Broken clouds,803,c03n,180,7.2,5.7
2022-04-21T02:00:00,-2,-8.1,75,-7.1,0,0,-26.6,0,n,0,882,68,1016,0,0,16,Overcast clouds,804,c04n,180,7.6,6.2
2022-04-21T03:00:00,-1,-8.1,75,-7.1,0,0,-24.2,0,n,0,882,63,1015,0,0,16,Overcast clouds,804,c04n,180,9.3,9.3
2022-04-21T04:00:00,-3,-10.1,75,-7.1,0,0,-19.4,0,n,0,882,73,1015,0,0,16,Overcast clouds,804,c04n,180,8,7.7
2022-04-21T05:00:00,-3,-9.1,75,-6.1,0,0,-12.8,0,n,0,880,79,1014,0,0,16,Overcast clouds,804,c04n,170,8,5.7
2022-04-21T06:00:00,-4,-10,75,-7.1,0,0,-4.8,0,n,0,880,79,1014,0,0,16,Overcast clouds,804,c04n,170,8,5.1
2022-04-21T07:00:00,-5,-10.1,45,-7.1,30,257,4.1,39,d,0,880,85,1014,0,37,16,Broken clouds,803,c03n,160,6.4,3.6
2022-04-21T08:00:00,-4,-10.6,45,-6.1,61,568,13.4,185,d,0,879,85,1014,0,174,16,Broken clouds,803,c03d,170,8,6.2
2022-04-21T09:00:00,-2,-7.2,75,-5.1,80,715,22.8,350,d,0,879,79,1013,0,232,16,Overcast clouds,804,c04d,190,8,4.6
2022-04-21T10:00:00,0,-6.8,75,-3.2,93,801,31.8,510,d,0,880,79,1013,0,337,16,Overcast clouds,804,c04d,180,11,9.3
2022-04-21T11:00:00,1,-5.8,100,-3.1,102,854,40,645,d,0,880,74,1012,0,167,16,Overcast clouds,804,c04d,170,14,10.3
2022-04-21T12:00:00,2,-4.2,100,-3.1,108,885,46.6,745,d,0,881,69,1012,0,183,16,Overcast clouds,804,c04d,160,13,9.3
2022-04-21T13:00:00,3,-2.1,100,-3.1,111,900,50.5,799,d,0,881,64,1012,0,191,16,Overcast clouds,804,c04d,150,11,7.2
2022-04-21T14:00:00,3,-2.3,100,-3.1,112,901,50.8,803,d,0,881,64,1012,0,192,16,Overcast clouds,804,c04d,130,10,7.7
2022-04-21T15:00:00,4,-0.5,75,-3,109,889,47.4,757,d,0,881,60,1012,0,501,16,Overcast clouds,804,c04d,140,9,6.2
2022-04-21T16:00:00,5,0.8,75,-2.1,104,860,41.2,664,d,0,882,60,1012,0,439,16,Overcast clouds,804,c04d,130,9,6.2
2022-04-21T17:00:00,5,0.3,75,-2.1,95,811,33.3,534,d,0,882,60,1011,0,353,16,Overcast clouds,804,c04d,120,10,7.7
2022-04-21T18:00:00,5,0.1,75,-2.1,82,732,24.3,377,d,0,882,60,1012,0,249,16,Overcast clouds,804,c04d,140,11,8.2
2022-04-21T19:00:00,5,0.8,75,-3,64,599,14.9,212,d,0,882,56,1012,0,140,16,Overcast clouds,804,c04d,120,6.8,6.2
2022-04-21T20:00:00,4,-0.7,100,-2.2,37,333,5.6,60,d,0.5,882,64,1013,0,43,16,Overcast clouds,804,c04d,140,9,6.7
2022-04-21T21:00:00,3,-1.2,75,-2.1,0,0,-3.3,0,n,0,882,69,1013,0,0,16,Overcast clouds,804,c04n,150,8,5.1
2022-04-21T22:00:00,3,-1.5,75,-1.2,0,0,-11.4,0,n,0,882,74,1014,0,0,16,Overcast clouds,804,c04n,140,5.7,5.7
2022-04-21T23:00:00,2,-2.5,75,-2.1,0,0,-18.2,0,n,0,883,74,1014,0,0,16,Overcast clouds,804,c04n,130,5.1,5.1
2022-04-22T00:00:00,2,-1.6,75,-2.1,0,0,-23.3,0,n,0,883,74,1014,0,0,16,Overcast clouds,804,c04n,130,3.6,3.6
2022-04-22T01:00:00,2,-0.2,75,-2.1,0,0,-26.1,0,n,0,883,74,1013,0,0,16,Overcast clouds,804,c04n,170,2.8,2.1
2022-04-22T02:00:00,1,-2.4,100,-3.1,0,0,-26.3,0,n,0,883,74,1013,0,0,16,Overcast clouds,804,c04n,140,3.1,3.1
2022-04-22T03:00:00,1,-1.4,75,-3.1,0,0,-23.8,0,n,0,882,74,1012,0,0,16,Overcast clouds,804,c04n,110,2.1,2.1
2022-04-22T04:00:00,1,-1.4,75,-3.1,0,0,-19,0,n,0,881,74,1013,0,0,16,Overcast clouds,804,c04n,130,2.1,2.1
2022-04-22T05:00:00,0,-2.6,75,-4.1,0,0,-12.4,0,n,0.5,882,74,1014,3.5,0,16,Flurries,623,s06n,70,2.4,2.1
2022-04-22T06:00:00,0,-2.6,100,-2.1,0,0,-4.5,0,n,0.5,882,86,1014,3.5,0,13,Flurries,623,s06n,50,2.8,2.1
2022-04-22T07:00:00,0,-4.4,100,-2.1,31,273,4.3,43,d,0.5,882,86,1014,3.5,35,4,Flurries,623,s06n,10,4.1,4.1
2022-04-22T08:00:00,0,-3.1,75,-2.1,61,573,13.6,189,d,0.5,882,86,1015,3.5,125,1,Flurries,623,s06d,20,2.6,2.6
2022-04-22T09:00:00,0,-1.8,100,-1.1,80,718,23,355,d,0.5,883,92,1015,3.5,116,0,Flurries,623,s06d,20,3.2,1.5
2022-04-22T10:00:00,0,-3.6,100,-1.1,93,803,32.1,515,d,0,883,92,1015,0,145,0,Haze,721,a03d,10,4,3.1
2022-04-22T11:00:00,1,-3.1,100,-0.1,103,855,40.3,650,d,0,883,92,1016,0,168,5,Overcast clouds,804,c04d,360,4.8,4.1
2022-04-22T12:00:00,1,-2.4,100,0,109,886,46.9,749,d,0,884,93,1016,0,184,11,Overcast clouds,804,c04d,10,4.8,3.1
2022-04-22T13:00:00,1,-3.1,100,0,112,901,50.8,803,d,0.5,884,93,1016,1,192,14,Mix snow/rain,610,s04d,20,4.1,4.1
2022-04-22T14:00:00,1,-4,100,0,112,902,51.1,807,d,0,884,93,1017,0,193,13,Overcast clouds,804,c04d,40,5.7,5.7
2022-04-22T15:00:00,1,-3.1,100,0,109,889,47.7,761,d,0,884,93,1017,0,185,8,Overcast clouds,804,c04d,10,4.1,4.1
2022-04-22T16:00:00,2,-2.2,100,1,104,861,41.5,668,d,0,885,93,1018,0,171,10,Overcast clouds,804,c04d,360,4.6,4.6
2022-04-22T17:00:00,2,-1.9,100,-0.1,95,813,33.5,538,d,0,886,86,1018,0,149,11,Overcast clouds,804,c04d,10,4.1,4.1
2022-04-22T18:00:00,2,-2.2,100,-0.1,83,734,24.5,381,d,0,886,86,1019,0,121,14,Overcast clouds,804,c04d,360,4.6,4.6
2022-04-22T19:00:00,2,-2.2,75,-0.1,65,603,15.2,216,d,0,887,86,1020,0,143,16,Overcast clouds,804,c04d,360,4.6,4.6
2022-04-22T20:00:00,1,-2.8,75,-1.1,37,343,5.8,63,d,0,888,86,1020,0,42,16,Overcast clouds,804,c04d,330,3.6,3.6
2022-04-22T21:00:00,1,-1.9,100,0,0,0,-3,0,n,0,887,93,1021,0,0,16,Overcast clouds,804,c04n,340,2.8,2.6
2022-04-22T22:00:00,1,-2.4,75,0,0,0,-11.1,0,n,0,888,93,1021,0,0,16,Overcast clouds,804,c04n,350,3.1,3.1
2022-04-22T23:00:00,1,-2.4,75,0,0,0,-17.9,0,n,0,888,93,1021,0,0,16,Overcast clouds,804,c04n,340,3.2,3.1
2022-04-23T00:00:00,1,-2.8,75,0,0,0,-23,0,n,0,889,93,1021,0,0,16,Overcast clouds,804,c04n,340,3.6,3.6
2022-04-23T01:00:00,0,-3.6,75,-1,0,0,-25.8,0,n,0,888,93,1021,0,0,16,Overcast clouds,804,c04n,340,3.6,3.1
2022-04-23T02:00:00,-1,-4.3,25,-2.1,0,0,-25.9,0,n,0,888,92,1022,0,0,16,Scattered clouds,802,c02n,340,3.2,2.6
2022-04-23T03:00:00,-1,-3.7,45,-2.1,0,0,-23.5,0,n,0,888,92,1023,0,0,16,Broken clouds,803,c03n,350,2.4,2.1
2022-04-23T04:00:00,-2,-4.9,75,-3.1,0,0,-18.7,0,n,0,889,92,1023,0,0,16,Overcast clouds,804,c04n,350,2.1,2.1
2022-04-23T05:00:00,-1,-5.2,75,-2.1,0,0,-12.1,0,n,0,888,92,1024,0,0,16,Overcast clouds,804,c04n,340,3.6,3.6
2022-04-23T06:00:00,-1,-3.7,100,-2.1,0,0,-4.2,0,n,0,889,92,1024,0,0,16,Overcast clouds,804,c04n,310,3.2,2.1
2022-04-23T07:00:00,-1,-2.9,45,-2.1,32,287,4.6,47,d,0,890,92,1025,0,44,16,Broken clouds,803,c03n,280,4.4,1.5
2022-04-23T08:00:00,0,-2.6,25,-1.1,62,579,13.9,194,d,0,890,92,1025,0,192,16,Scattered clouds,802,c02d,340,6,2.1
2022-04-23T09:00:00,1,-0.6,25,-2.1,81,721,23.3,360,d,0,891,80,1025,0,357,16,Scattered clouds,802,c02d,150,4.8,1.5
2022-04-23T10:00:00,4,0.6,25,-1.2,94,804,32.4,519,d,0,892,69,1025,0,515,16,Scattered clouds,802,c02d,350,5.6,4.1
2022-04-23T11:00:00,5,1.5,25,-0.2,103,856,40.7,654,d,0,893,69,1025,0,649,16,Scattered clouds,802,c02d,340,7.2,4.6
2022-04-23T12:00:00,6,2.8,25,1,109,887,47.2,753,d,0,894,70,1025,0,747,16,Scattered clouds,802,c02d,350,7,4.6
2022-04-23T13:00:00,7,3.8,25,0.9,112,902,51.1,807,d,0,894,65,1025,0,800,16,Scattered clouds,802,c02d,360,7,5.1
2022-04-23T14:00:00,8,8,25,1,112,903,51.4,811,d,0,895,61,1025,0,804,16,Scattered clouds,802,c02d,10,8,5.1
2022-04-23T15:00:00,8,8,25,-2,109,890,48,764,d,0,895,49,1025,0,758,16,Scattered clouds,802,c02d,360,8,4.6
2022-04-23T16:00:00,9,9,25,-2,104,862,41.8,672,d,0,895,46,1025,0,667,16,Scattered clouds,802,c02d,20,7.6,4.1
2022-04-23T17:00:00,9,9,45,-3.2,95,814,33.7,541,d,0,896,42,1025,0,509,16,Broken clouds,803,c03d,50,6.8,3.6
2022-04-23T18:00:00,10,10,25,-3.3,83,736,24.8,385,d,0,896,39,1025,0,382,16,Scattered clouds,802,c02d,20,5.6,3.1
2022-04-23T19:00:00,10,10,25,-4,65,606,15.4,219,d,0,896,37,1025,0,217,16,Scattered clouds,802,c02d,15,4.4,1
2022-04-23T20:00:00,8,8,25,-3.2,38,352,6.1,67,d,0,896,45,1025,0,66,16,Scattered clouds,802,c02d,10,3.1,3.1
2022-04-23T21:00:00,7,4.8,45,-2.2,0,0,-2.8,0,n,0,895,52,1026,0,0,16,Broken clouds,803,c03n,350,3.2,3.1
2022-04-23T22:00:00,6,5.1,75,-2.1,0,0,-10.9,0,n,0,895,56,1026,0,0,16,Overcast clouds,804,c04n,10,3.2,1.5
2022-04-23T23:00:00,5,3.9,75,-3,0,0,-17.7,0,n,0,896,56,1026,0,0,16,Overcast clouds,804,c04n,320,3.2,1.5
2022-04-24T00:00:00,6,5.8,75,-3.1,0,0,-22.7,0,n,0,895,52,1026,0,0,16,Overcast clouds,804,c04n,210,3.2,1
2022-04-24T01:00:00,6,3.6,75,-3.1,0,0,-25.4,0,n,0,896,52,1026,0,0,16,Overcast clouds,804,c04n,100,3.2,3.1
2022-04-24T02:00:00,5,4.7,75,-2.1,0,0,-25.6,0,n,0,896,60,1025,0,0,16,Overcast clouds,804,c04n,20,3.2,1
2022-04-24T03:00:00,2,1.4,75,-4.1,0,0,-23.2,0,n,0,895,64,1025,0,0,16,Overcast clouds,804,c04n,220,2.8,1
2022-04-24T04:00:00,2,0.5,3,-3.1,0,0,-18.4,0,n,0,893,69,1025,0,0,16,Few clouds,801,c02n,230,2.8,1.5
2022-04-24T05:00:00,-1,-1.9,0,-4,0,0,-11.8,0,n,0,893,80,1025,0,0,16,Clear Sky,800,c01n,270,2.8,1
2022-04-24T06:00:00,-1,-2.9,25,-4,0,0,-3.9,0,n,0,891,80,1025,0,0,16,Scattered clouds,802,c02n,310,2.8,1.5
2022-04-24T07:00:00,-1,-1.9,0,-4,34,301,4.9,50,d,0,891,80,1025,0,50,16,Clear Sky,800,c01n,20,3.2,1
2022-04-24T08:00:00,1,-1.3,25,-3.1,63,584,14.2,199,d,0,891,74,1025,0,197,16,Scattered clouds,802,c02d,100,4,2
2022-04-24T09:00:00,4,2.1,25,-2.2,81,724,23.6,365,d,0,892,64,1024,0,362,16,Scattered clouds,802,c02d,180,4,2.1
2022-04-24T10:00:00,7,6.6,25,-3.2,94,806,32.7,524,d,0,894,48,1024,0,520,16,Scattered clouds,802,c02d,270,4.8,1.2
2022-04-24T11:00:00,9,9,0,-2,103,857,41,659,d,0,895,46,1024,0,659,16,Clear Sky,800,c01d,360,5.2,1.5
2022-04-24T12:00:00,11,11,0,-4.2,109,888,47.5,757,d,0,896,34,1024,0,757,16,Clear Sky,800,c01d,80,5.6,2.1
2022-04-24T13:00:00,11,11,25,-6.3,112,902,51.5,811,d,0,896,29,1023,0,804,16,Scattered clouds,802,c02d,105,5.2,0.8
2022-04-24T14:00:00,13,13,25,-5.1,112,903,51.7,814,d,0,896,28,1023,0,807,16,Scattered clouds,802,c02d,125,5.2,1.5
2022-04-24T15:00:00,14,14,25,-5.2,110,891,48.3,768,d,0,896,26,1022,0,762,16,Scattered clouds,802,c02d,150,8,5.1
2022-04-24T16:00:00,14,14,25,-5.2,104,863,42,676,d,0,896,26,1022,0,671,16,Scattered clouds,802,c02d,120,8,2.6
2022-04-24T17:00:00,14,14,25,-6.2,96,815,34,545,d,0,896,24,1021,0,541,16,Scattered clouds,802,c02d,130,8,2.1
2022-04-24T18:00:00,14,14,25,-6.2,83,738,25,389,d,0,895,24,1021,0,386,16,Scattered clouds,802,c02d,140,7,5.1
2022-04-24T19:00:00,14,14,25,-6.2,66,610,15.6,223,d,0,895,24,1021,0,221,16,Scattered clouds,802,c02d,120,5.7,5.7
2022-04-24T20:00:00,13,13,25,-6,39,361,6.3,70,d,0,895,26,1021,0,69,16,Scattered clouds,802,c02d,120,5.1,5.1
2022-04-24T21:00:00,10,10,25,-5.1,0,0,-2.6,0,n,0,894,34,1020,0,0,16,Scattered clouds,802,c02n,130,5.2,4.1
2022-04-24T22:00:00,9,9,25,-5.2,0,0,-10.6,0,n,0,893,36,1020,0,0,16,Scattered clouds,802,c02n,140,5.7,5.7
2022-04-24T23:00:00,6,3.6,6,-5,0,0,-17.4,0,n,0,894,45,1020,0,0,16,Few clouds,801,c02n,180,5.2,3.1
2022-04-25T00:00:00,7,5.6,36,-6,0,0,-22.4,0,n,0,891,39,1019,0,0,16,Scattered clouds,802,c02n,180,4.8,2.1
2022-04-25T01:00:00,6,4,79,-5,0,0,-25.1,0,n,0,891,45,1019,0,0,16,Overcast clouds,804,c04n,200,3.2,2.6
2022-04-25T02:00:00,6,3.6,25,-5,0,0,-25.3,0,n,0,890,45,1019,0,0,16,Scattered clouds,802,c02n,240,3.6,3.1
2022-04-25T03:00:00,3,0.9,58,-5.1,0,0,-22.8,0,n,0,905,55,1018,0,0,16,Broken clouds,803,c03n,230,4,2.1
2022-04-25T04:00:00,2,0.5,25,-6.1,0,0,-18.1,0,n,0,889,55,1019,0,0,16,Scattered clouds,802,c02n,270,4,1.5
2022-04-25T05:00:00,0,-2.9,25,-7.9,0,0,-11.5,0,n,0,888,55,1019,0,0,16,Scattered clouds,802,c02n,245,4,2.4
2022-04-25T06:00:00,1,-1.3,25,-5,0,0,-3.6,0,n,0,887,64,1018,0,0,16,Scattered clouds,802,c02n,215,3.6,2
2022-04-25T07:00:00,1,-1.4,45,-5,35,314,5.2,54,d,0,887,64,1018,0,51,16,Broken clouds,803,c03d,190,4,2.1
2022-04-25T08:00:00,3,0.4,75,-4,63,589,14.5,204,d,0,887,60,1018,0,135,16,Overcast clouds,804,c04d,220,5.2,2.6
2022-04-25T09:00:00,6,4.4,100,-4.2,82,726,23.9,370,d,0,888,48,1017,0,119,16,Overcast clouds,804,c04d,230,5.2,2.1
2022-04-25T10:00:00,10,10,100,-4,94,808,33,528,d,0,889,37,1017,0,147,16,Overcast clouds,804,c04d,215,6,1
2022-04-25T11:00:00,11,11,100,-3.1,103,858,41.3,663,d,0,890,37,1017,0,169,16,Overcast clouds,804,c04d,200,6.8,3.1
2022-04-25T12:00:00,13,13,100,-5.1,109,888,47.9,761,d,0,890,28,1016,0,185,16,Overcast clouds,804,c04d,235,7.6,1
2022-04-25T13:00:00,14,14,100,-6.2,112,903,51.8,815,d,0,891,24,1015,0,194,16,Overcast clouds,804,c04d,265,7.2,1
2022-04-25T14:00:00,15,15,100,-9.1,112,904,52,818,d,0,891,18,1015,0,194,16,Overcast clouds,804,c04d,300,8,3.1
2022-04-25T15:00:00,16,16,100,-10.6,110,891,48.6,772,d,0,891,15,1014,0,187,16,Overcast clouds,804,c04d,280,8.4,2.6
2022-04-25T16:00:00,17,17,100,-8.2,104,864,42.3,679,d,0.25,891,17,1014,0,172,16,Overcast clouds,804,c04d,230,8.8,1
2022-04-25T17:00:00,16,16,100,-7.6,96,816,34.2,549,d,0,890,19,1014,0,151,16,Overcast clouds,804,c04d,180,8.8,6.2
2022-04-25T18:00:00,17,17,100,-6.1,84,740,25.2,393,d,0,890,20,1013,0,123,16,Overcast clouds,804,c04d,190,8,3.6
2022-04-25T19:00:00,16,16,100,-7.6,66,614,15.8,227,d,0,890,19,1013,0,89,16,Overcast clouds,804,c04d,230,6.7,6.7
2022-04-25T20:00:00,15,15,100,-5.4,40,370,6.5,73,d,0,889,24,1012,0,47,16,Overcast clouds,804,c04d,220,5.6,4.1
2022-04-25T21:00:00,13,13,100,-5.1,0,0,-2.3,0,n,0,889,28,1012,0,0,16,Overcast clouds,804,c04n,240,6,2.1
2022-04-25T22:00:00,12,12,100,-5,0,0,-10.4,0,n,0,887,30,1012,0,0,16,Overcast clouds,804,c04n,240,5.6,2.1
2022-04-25T23:00:00,11,11,75,-4.2,0,0,-17.1,0,n,0,888,34,1012,0,0,16,Overcast clouds,804,c04n,220,5.6,2.1
2022-04-26T00:00:00,10,10,75,-3.3,0,0,-22.1,0,n,0,892,39,1011,0,0,16,Overcast clouds,804,c04n,220,5.6,3.1
2022-04-26T01:00:00,10,10,75,-3.3,0,0,-24.8,0,n,0,886,39,1011,0,0,16,Overcast clouds,804,c04n,210,5.2,2.6
2022-04-26T02:00:00,10,10,100,-3.3,0,0,-25,0,n,0,885,39,1010,0,0,16,Overcast clouds,804,c04n,240,5.2,3.6
2022-04-26T03:00:00,10,10,75,-3.3,0,0,-22.5,0,n,3,886,39,1010,0,0,16,Light rain,500,r01n,270,4.8,2.6
2022-04-26T04:00:00,7,5.6,100,-3.2,0,0,-17.8,0,n,0,885,48,1010,0,0,16,Overcast clouds,804,c04n,210,4.8,2.1
2022-04-26T05:00:00,7,5.2,75,-3.2,0,0,-11.2,0,n,0,884,48,1010,0,0,16,Overcast clouds,804,c04n,210,4.4,2.6
2022-04-26T06:00:00,8,8,75,-3.2,0,0,-3.3,0,n,1.25,884,45,1010,0,0,16,Light rain,500,r01n,230,4.4,2.1
2022-04-26T07:00:00,6,3.6,100,-2.1,36,326,5.5,58,d,1.5,884,56,1010,0,36,16,Light rain,500,r01d,180,4.8,3.1
2022-04-26T08:00:00,7,4.8,75,-2.2,64,594,14.8,208,d,0.25,883,52,1010,0,138,16,Overcast clouds,804,c04d,210,5.2,3.1
2022-04-26T09:00:00,8,8,100,-3.2,82,729,24.2,374,d,0,884,45,1009,0,119,16,Overcast clouds,804,c04d,320,7,1.5
2022-04-26T10:00:00,10,10,100,-1.4,95,809,33.3,533,d,0,884,45,1009,0,148,16,Overcast clouds,804,c04d,250,7,4.1
2022-04-26T11:00:00,12,12,100,-2.2,104,859,41.5,667,d,0,884,37,1008,0,171,16,Overcast clouds,804,c04d,130,8.4,2.1
2022-04-26T12:00:00,14,14,75,-2,109,889,48.2,765,d,0,884,33,1007,0,506,16,Overcast clouds,804,c04d,160,13.6,5.1
2022-04-26T13:00:00,14,14,97,-2,112,904,52.1,818,d,0,884,33,1006,0,154,16,Overcast clouds,804,c04d,170,10.4,6.7
2022-04-26T14:00:00,13,13,100,-2.1,112,905,52.4,822,d,0,884,35,1006,0,194,16,Overcast clouds,804,c04d,150,10.4,5.1
2022-04-26T15:00:00,14,14,100,-2,110,892,48.9,775,d,0,883,33,1005,0,188,16,Overcast clouds,804,c04d,150,10.8,4.6
2022-04-26T16:00:00,14,14,100,-1.2,105,864,42.5,683,d,1,883,35,1005,0,173,16,Light rain,500,r01d,130,8.4,4.1
2022-04-26T17:00:00,13,13,100,-1.3,96,817,34.5,552,d,0.5,882,37,1005,0,151,16,Overcast clouds,804,c04d,330,5.2,3.6
2022-04-26T18:00:00,12,12,100,0.8,84,742,25.4,396,d,0,882,46,1005,0,124,16,Overcast clouds,804,c04d,100,9,3.6
2022-04-26T19:00:00,11,11,100,-0.2,67,617,16,230,d,0,881,46,1006,0,90,16,Overcast clouds,804,c04d,310,9,3.1
2022-04-26T20:00:00,8,8,100,2.9,41,379,6.8,77,d,3.75,880,70,1006,0,33,11,Light rain,500,r01d,335,5.1,5.1
2022-04-26T21:00:00,7.5,7.5,75,3.4,0,0,-2.1,0,n,0,880,75,1006,0,0,16,Overcast clouds,804,c04n,360,4.8,3.6
2022-04-26T22:00:00,7,3,75,4,0,0,-10.1,0,n,0,879,81,1006,0,0,16,Overcast clouds,804,c04n,350,11,7.2
2022-04-26T23:00:00,5,0.6,75,2.9,0,0,-16.8,0,n,0,880,86,1007,0,0,11,Overcast clouds,804,c04n,350,11,6.7
2022-04-27T00:00:00,4,-1,75,1.9,0,0,-21.8,0,n,0,879,86,1007,0,0,11,Overcast clouds,804,c04n,340,10,7.7
2022-04-27T01:00:00,4,-1.2,75,0.9,0,0,-24.5,0,n,0,879,80,1007,0,0,16,Overcast clouds,804,c04n,340,11,8.2
2022-04-27T02:00:00,5,0.1,75,0.9,0,0,-24.6,0,n,0.5,879,75,1007,0,0,16,Overcast clouds,804,c04n,320,11,8.2
2022-04-27T03:00:00,5,0.8,75,0.9,0,0,-22.2,0,n,0,880,75,1007,0,0,16,Overcast clouds,804,c04n,330,6.2,6.2
2022-04-27T04:00:00,4,2.8,75,-1.2,0,0,-17.5,0,n,0,880,69,1008,0,0,16,Overcast clouds,804,c04n,300,4.4,1.5
2022-04-27T05:00:00,2,0.5,45,-3.1,0,0,-10.9,0,n,0,880,69,1009,0,0,16,Broken clouds,803,c03n,210,5.2,1.5
2022-04-27T06:00:00,1,-2.8,25,-1.1,0,0,-3,0,n,0,880,86,1009,0,0,16,Scattered clouds,802,c02n,255,6.4,3.6
2022-04-27T07:00:00,2,1.4,25,-2.1,37,338,5.8,62,d,0,879,74,1009,0,61,16,Scattered clouds,802,c02d,295,7.2,1
2022-04-27T08:00:00,4,2.1,15,-4.2,64,599,15,213,d,0,885,55,1009,0,213,16,Few clouds,801,c02d,340,7.6,2.1
2022-04-27T09:00:00,8,8,25,-7.3,82,731,24.4,379,d,0,881,33,1009,0,376,16,Scattered clouds,802,c02d,280,10,4.6
2022-04-27T10:00:00,9,9,25,-8.1,95,811,33.5,537,d,0,883,29,1009,0,533,16,Scattered clouds,802,c02d,300,10,7.7
2022-04-27T11:00:00,10,10,25,-9.1,104,860,41.8,671,d,0,883,25,1009,0,666,16,Scattered clouds,802,c02d,270,10,4.6
2022-04-27T12:00:00,11,11,45,-10.5,110,890,48.5,769,d,0,884,21,1009,0,723,16,Broken clouds,803,c03d,290,10,6.7
2022-04-27T13:00:00,10,10,75,-11.3,112,904,52.4,822,d,0,884,21,1010,0,544,16,Overcast clouds,804,c04d,320,10,6.2
2022-04-27T14:00:00,11,11,75,-12.4,113,905,52.7,825,d,0,884,18,1009,0,546,16,Overcast clouds,804,c04d,280,9,5.1
2022-04-27T15:00:00,10,10,75,-13.2,110,893,49.2,779,d,0,884,18,1010,0,515,16,Overcast clouds,804,c04d,270,8,5.7
2022-04-27T16:00:00,11,11,100,-13.1,105,865,42.8,686,d,0,884,17,1010,0,174,16,Overcast clouds,804,c04d,280,8,4.6
2022-04-27T17:00:00,12,12,100,-12.3,96,819,34.7,556,d,0,884,17,1010,0,152,16,Overcast clouds,804,c04d,290,10,6.7
2022-04-27T18:00:00,11,11,100,-13.1,84,744,25.6,400,d,0,885,17,1010,0,124,16,Overcast clouds,804,c04d,300,10,8.2
2022-04-27T19:00:00,10,10,75,-13.2,67,621,16.3,234,d,0,884,18,1010,0,155,16,Overcast clouds,804,c04d,280,10,7.7
2022-04-27T20:00:00,10,10,75,-13.2,42,387,7,80,d,0,884,18,1011,0,53,16,Overcast clouds,804,c04d,290,11,8.2
2022-04-27T21:00:00,8,8,45,-12.4,0,0,-1.9,0,n,0,885,22,1011,0,0,16,Broken clouds,803,c03n,300,6,5.7
2022-04-27T22:00:00,7,3.8,75,-11.2,0,0,-9.9,0,n,0,884,26,1012,0,0,16,Overcast clouds,804,c04n,290,6,5.1
2022-04-27T23:00:00,6,2.8,75,-11.1,0,0,-16.5,0,n,0,885,28,1012,0,0,16,Overcast clouds,804,c04n,280,6,4.6
2022-04-28T00:00:00,4,2.8,25,-11.2,0,0,-21.5,0,n,0,885,32,1013,0,0,16,Scattered clouds,802,c02n,320,5.6,1.5
2022-04-28T01:00:00,3,1.7,25,-11.3,0,0,-24.2,0,n,0,884,34,1013,0,0,16,Scattered clouds,802,c02n,230,5.2,1.5
2022-04-28T02:00:00,2,-0.2,47,-11.1,0,0,-24.3,0,n,0,884,37,1013,0,0,16,Broken clouds,803,c03n,310,5.2,2.1
2022-04-28T03:00:00,1,0.3,56,-11.1,0,0,-21.9,0,n,0,883,40,1014,0,0,16,Broken clouds,803,c03n,165,5.2,1
2022-04-28T04:00:00,-4,-7.9,66,-11,0,0,-17.2,0,n,0,883,58,1014,0,0,16,Broken clouds,803,c03n,20,5.2,2.6
2022-04-28T05:00:00,-4,-7.9,25,-11,0,0,-10.6,0,n,0,881,58,1014,0,0,16,Scattered clouds,802,c02n,10,4.8,2.6
2022-04-28T06:00:00,-1,-3.7,25,-11.1,0,0,-2.8,0,n,0,881,46,1014,0,0,16,Scattered clouds,802,c02n,320,4.4,2.1
2022-04-28T07:00:00,-1,-4.8,25,-10.1,38,349,6,66,d,0,883,50,1015,0,65,16,Scattered clouds,802,c02d,360,4.4,3.1
2022-04-28T08:00:00,2,0.5,25,-8.1,65,603,15.3,217,d,0,883,47,1015,0,215,16,Scattered clouds,802,c02d,340,4.8,1.5
2022-04-28T09:00:00,5,2.4,45,-7.1,83,734,24.7,383,d,0,884,41,1014,0,360,16,Broken clouds,803,c03d,350,4.4,3.1
2022-04-28T10:00:00,7,5.2,45,-12.2,95,812,33.8,541,d,0,885,24,1014,0,509,16,Broken clouds,803,c03d,340,4.4,2.6
2022-04-28T11:00:00,7,4.3,26,-6,104,861,42.1,676,d,0,889,39,1014,0,670,16,Scattered clouds,802,c02d,80,4.1,4.1
2022-04-28T12:00:00,8,8,75,-10.3,110,891,48.8,773,d,0,886,26,1013,0,511,16,Overcast clouds,804,c04d,85,4.8,3.1
2022-04-28T13:00:00,9,9,45,-11,113,905,52.7,826,d,0,886,23,1013,0,777,16,Broken clouds,803,c03d,85,5.6,2.6
2022-04-28T14:00:00,10,10,45,-10.1,113,906,53,829,d,0,885,23,1012,0,780,16,Broken clouds,803,c03d,90,5.6,1.6
2022-04-28T15:00:00,10,10,45,-12.5,110,893,49.4,782,d,0,885,19,1012,0,735,16,Broken clouds,803,c03d,90,5.6,1
2022-04-28T16:00:00,11,11,45,-13.1,105,866,43,690,d,0,885,17,1012,0,649,16,Broken clouds,803,c03d,95,5.2,2.1
2022-04-28T17:00:00,12,12,75,-11.6,97,820,34.9,560,d,0,885,18,1011,0,370,16,Overcast clouds,804,c04d,95,5.2,2.1
2022-04-28T18:00:00,10,10,75,-12.5,84,745,25.9,404,d,0,885,19,1011,0,267,16,Overcast clouds,804,c04d,100,4.8,2.6
2022-04-28T19:00:00,10,10,75,-12.5,68,624,16.5,238,d,0,885,19,1012,0,157,16,Overcast clouds,804,c04d,130,4.4,3.1
2022-04-28T20:00:00,10,10,75,-12.5,42,395,7.2,83,d,0,885,19,1012,0,55,16,Overcast clouds,804,c04d,210,3.6,1
2022-04-28T21:00:00,9,9,75,-14,0,0,-1.6,0,n,0,885,18,1012,0,0,16,Overcast clouds,804,c04n,290,4.6,4.6
2022-04-28T22:00:00,8,8,75,-14.2,0,0,-9.6,0,n,0,885,19,1013,0,0,16,Overcast clouds,804,c04n,290,5.7,5.7
2022-04-28T23:00:00,7,4.8,75,-12.2,0,0,-16.3,0,n,0,886,24,1013,0,0,16,Overcast clouds,804,c04n,290,3.1,3.1
2022-04-29T00:00:00,7,4.8,75,-10.2,0,0,-21.2,0,n,0,886,28,1014,0,0,16,Overcast clouds,804,c04n,290,3.1,3.1
2022-04-29T01:00:00,6,5.8,75,-9,0,0,-23.9,0,n,0,886,33,1014,0,0,16,Overcast clouds,804,c04n,315,4,1
2022-04-29T02:00:00,5,1.8,75,-10.3,0,0,-24,0,n,0,886,32,1015,0,0,16,Overcast clouds,804,c04n,340,4.8,4.1
2022-04-29T03:00:00,3,-0.7,75,-10.2,0,0,-21.6,0,n,0,886,37,1015,0,0,16,Overcast clouds,804,c04n,340,5.2,4.1
2022-04-29T04:00:00,2,-1.6,75,-11.1,0,0,-16.9,0,n,0,886,37,1016,0,0,16,Overcast clouds,804,c04n,330,5.2,3.6
2022-04-29T05:00:00,2,-1.6,75,-8.1,0,0,-10.4,0,n,0,886,47,1017,0,0,16,Overcast clouds,804,c04n,330,5.2,3.6
2022-04-29T06:00:00,1,-3.1,45,-6.1,0,0,-2.5,0,n,0,886,59,1017,0,0,16,Broken clouds,803,c03n,340,4.8,4.1
2022-04-29T07:00:00,1,-3.4,25,-5,39,360,6.3,70,d,0,886,64,1018,0,69,16,Scattered clouds,802,c02d,350,5.2,4.6
2022-04-29T08:00:00,2,-2.5,75,-4.1,66,608,15.6,222,d,0,887,64,1019,0,147,16,Overcast clouds,804,c04d,350,5.2,5.1
2022-04-29T09:00:00,4,0.3,75,-2.2,83,736,25,388,d,0,888,64,1020,0,257,16,Overcast clouds,804,c04d,350,6,4.6
2022-04-29T10:00:00,5,1.8,75,-2.1,96,814,34.1,546,d,0,890,60,1020,0,361,16,Overcast clouds,804,c04d,30,6,4.1
2022-04-29T11:00:00,7,4.8,75,-2.2,104,862,42.4,679,d,0,890,52,1020,0,449,16,Overcast clouds,804,c04d,60,5.6,3.1
2022-04-29T12:00:00,8,8,45,-3.2,110,891,49.1,777,d,0,891,45,1020,0,731,16,Broken clouds,803,c03d,120,5.2,1.5
2022-04-29T13:00:00,10,10,45,-7.2,113,905,53,829,d,0,892,29,1020,0,780,16,Broken clouds,803,c03d,240,4.8,2.1
2022-04-29T14:00:00,11,11,75,-6.3,113,906,53.3,832,d,0,892,29,1020,0,550,16,Overcast clouds,804,c04d,40,5.2,3.6
2022-04-29T15:00:00,11,11,75,-6.3,110,894,49.7,785,d,0,893,29,1020,0,519,16,Overcast clouds,804,c04d,55,5.2,2.1
2022-04-29T16:00:00,11,11,75,-7.3,105,867,43.3,693,d,0,893,27,1020,0,458,16,Overcast clouds,804,c04d,70,7,2.6
2022-04-29T17:00:00,11,11,75,-7.3,97,821,35.1,563,d,0,893,27,1020,0,372,16,Overcast clouds,804,c04d,170,7,1.5
2022-04-29T18:00:00,11,11,100,-7.3,85,747,26.1,407,d,0,893,27,1020,0,126,16,Overcast clouds,804,c04d,180,4.8,1
2022-04-29T19:00:00,11,11,100,-6.3,68,627,16.7,241,d,0.5,893,29,1020,0,92,16,Overcast clouds,804,c04d,190,8,5.1
2022-04-29T20:00:00,8,8,75,-2,43,403,7.4,86,d,0,893,49,1021,0,57,16,Overcast clouds,804,c04d,170,8,5.7
2022-04-29T21:00:00,7,4.3,75,-3.2,0,0,-1.4,0,n,0,892,48,1022,0,0,16,Overcast clouds,804,c04n,150,4.4,4.1
2022-04-29T22:00:00,6,3,45,-1.2,0,0,-9.4,0,n,0,893,60,1022,0,0,16,Broken clouds,803,c03n,150,4.8,4.1
2022-04-29T23:00:00,6,4.4,45,-2.1,0,0,-16,0,n,0,892,56,1022,0,0,16,Broken clouds,803,c03n,180,5.2,2.1
