Datetime,Temperature,Apparent Temperature,Cloud Cover,Dew Point,DHI,DNI,Solar Zenith Angle,GHI,Pod,Precipitation,Pressure,Relative Humidity,Sea Level Pressure,Snow Depth,Solar Radiation,Visibility,Weather Description,Weather Code,Weather Icon,Wind Direction,Wind Gust Speed,Wind Speed
2022-09-01T00:00:00,24,23.2,55,4.9,0,0,-27.3,0,n,0,894,29,1010,0,0,16,Broken clouds,803,c03n,270,5.2,3.6
2022-09-01T01:00:00,23,22.2,24,5.9,0,0,-30.3,0,n,0,894,33,1009,0,0,16,Scattered clouds,802,c02n,240,6.4,2.1
2022-09-01T02:00:00,18,18,83,6.8,0,0,-30.6,0,n,0,893,48,1010,0,0,16,Overcast clouds,804,c04n,180,6.4,3.1
2022-09-01T03:00:00,20,19.1,1,6,0,0,-28.1,0,n,0,891,40,1009,0,0,16,Clear Sky,800,c01n,230,6,2.1
2022-09-01T04:00:00,20,19.1,0,6,0,0,-23.2,0,n,0,892,40,1009,0,0,16,Clear Sky,800,c01n,220,6,2.6
2022-09-01T05:00:00,18,18,0,5.9,0,0,-16.4,0,n,0,891,45,1009,0,0,16,Clear Sky,800,c01n,210,6,2.1
2022-09-01T06:00:00,20,19.1,50,6,0,0,-8.3,0,n,0,891,40,1009,0,0,16,Broken clouds,803,c03n,240,6,2.6
2022-09-01T07:00:00,18,18,52,6.8,10,38,0.6,4,d,0,891,48,1009,0,14,16,Broken clouds,803,c03n,220,6,2.6
2022-09-01T08:00:00,19,18.1,0,6.8,51,482,10,127,d,0,891,45,1010,0,127,16,Clear Sky,800,c01d,140,6.4,1.5
2022-09-01T09:00:00,21,20.2,86,6.9,73,666,19.3,287,d,0,892,40,1010,0,132,16,Overcast clouds,804,c04d,85,6.8,4
2022-09-01T10:00:00,24,23.4,54,8.8,88,766,28.3,444,d,0,893,38,1011,0,395,16,Broken clouds,803,c03d,30,7,5.7
2022-09-01T11:00:00,25,24.5,1,8.9,98,825,36.2,579,d,0,893,36,1012,0,579,16,Clear Sky,800,c01d,10,7,4.6
2022-09-01T12:00:00,26,25.5,8,7.6,104,860,42.5,679,d,0,895,31,1012,0,679,16,Few clouds,801,c02d,30,7,4.6
2022-09-01T13:00:00,25,24.5,24,8.9,107,877,46.2,733,d,0,895,36,1012,0,728,16,Scattered clouds,802,c02d,40,8,5.1
2022-09-01T14:00:00,26,25.5,25,8.9,107,878,46.5,738,d,0,895,34,1013,0,732,16,Scattered clouds,802,c02d,70,7,4.6
2022-09-01T15:00:00,25,24.5,70,8.9,105,864,43.4,692,d,0,896,36,1013,0,507,16,Broken clouds,803,c03d,60,8,6.2
2022-09-01T16:00:00,25,24.4,93,7.6,99,833,37.5,601,d,0,896,33,1013,0,178,16,Overcast clouds,804,c04d,50,8,4.6
2022-09-01T17:00:00,23,22.4,92,8.7,90,779,29.8,471,d,0.75,896,40,1014,0,152,16,Light rain,500,r01d,30,9.2,8.2
2022-09-01T18:00:00,22,21.3,86,7.8,76,689,21,317,d,0,896,40,1014,0,146,16,Overcast clouds,804,c04d,50,8,6.7
2022-09-01T19:00:00,22,21.3,40,7.8,56,526,11.7,155,d,0,898,40,1015,0,149,16,Scattered clouds,802,c02d,40,7,5.1
2022-09-01T20:00:00,20,19.2,18,6.7,20,150,2.3,18,d,0,899,42,1016,0,38,16,Few clouds,801,c02n,50,9,7.2
2022-09-01T21:00:00,17,17,3,6.8,0,0,-6.8,0,n,0,896,51,1017,0,0,16,Few clouds,801,c02n,50,3.6,2.6
2022-09-01T22:00:00,16,16,0,7,0,0,-15.1,0,n,0,905,55,1018,0,0,16,Clear Sky,800,c01n,80,2.8,2.6
2022-09-01T23:00:00,16,16,0,5.9,0,0,-22.3,0,n,0,895,51,1018,0,0,16,Clear Sky,800,c01n,115,3.2,2
2022-09-02T00:00:00,15,15,0,5.8,0,0,-27.6,0,n,0,896,54,1018,0,0,16,Clear Sky,800,c01n,150,3.6,2.1
2022-09-02T01:00:00,14,14,0,5.9,0,0,-30.7,0,n,0,894,58,1019,0,0,16,Clear Sky,800,c01n,180,4,2.6
2022-09-02T02:00:00,13,13,0,6.8,0,0,-30.9,0,n,0,894,66,1019,0,0,16,Clear Sky,800,c01n,190,4.8,2.6
2022-09-02T03:00:00,13,13,0,6.8,0,0,-28.4,0,n,0,896,66,1019,0,0,16,Clear Sky,800,c01n,190,5.2,3.6
2022-09-02T04:00:00,12,12,0,6.9,0,0,-23.5,0,n,0,896,71,1019,0,0,16,Clear Sky,800,c01n,190,6,3.6
2022-09-02T05:00:00,12,12,0,5.9,0,0,-16.7,0,n,0,895,66,1019,0,0,16,Clear Sky,800,c01n,170,6,2.6
2022-09-02T06:00:00,12,12,0,5.9,0,0,-8.5,0,n,0,895,66,1020,0,0,16,Clear Sky,800,c01n,180,6,3.1
2022-09-02T07:00:00,12,12,0,6.9,8,24,0.4,2,d,0,895,71,1019,0,10,16,Clear Sky,800,c01n,190,5.2,2.6
2022-09-02T08:00:00,12,12,1,6.9,51,476,9.8,123,d,0,895,71,1020,0,123,16,Clear Sky,800,c01d,220,5.2,3.1
2022-09-02T09:00:00,14,14,1,6.8,73,663,19.1,283,d,0,893,62,1020,0,283,16,Clear Sky,800,c01d,240,5.6,3.1
2022-09-02T10:00:00,17,17,1,7.9,87,764,28,440,d,0,896,55,1020,0,440,16,Clear Sky,800,c01d,220,6.4,2.6
2022-09-02T11:00:00,20,19.2,12,7.7,97,824,35.9,575,d,0,896,45,1019,0,575,16,Few clouds,801,c02d,220,6.8,2.6
2022-09-02T12:00:00,23,22.3,14,7.9,104,859,42.2,674,d,0,898,38,1019,0,673,16,Few clouds,801,c02d,170,7.2,2.6
2022-09-02T13:00:00,26,25.4,0,5.6,107,876,45.8,728,d,0,899,27,1018,0,728,16,Clear Sky,800,c01d,160,8.4,4.6
2022-09-02T14:00:00,28,26.8,0,5,107,877,46.1,733,d,0,900,23,1017,0,733,16,Clear Sky,800,c01d,150,8,5.1
2022-09-02T15:00:00,29,27.5,0,3.8,105,863,43,687,d,0,900,20,1017,0,687,16,Clear Sky,800,c01d,180,8,5.7
2022-09-02T16:00:00,30,28.2,0,4.6,99,831,37.2,595,d,0,900,20,1016,0,595,16,Clear Sky,800,c01d,190,9,5.7
2022-09-02T17:00:00,30,28.2,0,4.6,89,776,29.5,465,d,0,900,20,1016,0,465,16,Clear Sky,800,c01d,160,8,5.7
2022-09-02T18:00:00,30,28.3,0,6.6,76,685,20.7,311,d,0,899,23,1015,0,311,16,Clear Sky,800,c01d,170,8,4.1
2022-09-02T19:00:00,29,27.6,0,7,55,518,11.4,149,d,0,899,25,1015,0,149,16,Clear Sky,800,c01d,140,8,6.2
2022-09-02T20:00:00,27,26.3,0,6.9,19,127,2,15,d,0,898,28,1014,0,34,16,Clear Sky,800,c01n,140,8,5.7
2022-09-02T21:00:00,25,24.4,0,7.6,0,0,-7.1,0,n,0,898,33,1015,0,0,16,Clear Sky,800,c01n,160,8,5.7
2022-09-02T22:00:00,22,21.3,0,7.8,0,0,-15.5,0,n,0,897,40,1015,0,0,16,Clear Sky,800,c01n,190,5.2,4.1
2022-09-02T23:00:00,22,21.3,0,7.8,0,0,-22.6,0,n,0,892,40,1015,0,0,16,Clear Sky,800,c01n,210,4.8,2.6
2022-09-03T00:00:00,19,18.3,0,8.9,0,0,-28,0,n,0,892,52,1015,0,0,16,Clear Sky,800,c01n,320,4.4,2.1
2022-09-03T01:00:00,19,18.2,0,7.8,0,0,-31,0,n,0,895,48,1014,0,0,16,Clear Sky,800,c01n,200,4.4,2.1
2022-09-03T02:00:00,16,16,0,9,0,0,-31.3,0,n,0,895,63,1014,0,0,16,Clear Sky,800,c01n,220,4.4,2.6
2022-09-03T03:00:00,15,15,0,7.8,0,0,-28.8,0,n,0,894,62,1014,0,0,16,Clear Sky,800,c01n,200,4,2.1
2022-09-03T04:00:00,15,15,0,6.8,0,0,-23.8,0,n,0,893,58,1014,0,0,16,Clear Sky,800,c01n,210,4,1
2022-09-03T05:00:00,13,13,0,7.9,0,0,-17,0,n,0,893,71,1014,0,0,11,Clear Sky,800,c01n,220,4,1.5
2022-09-03T06:00:00,14,14,0,6.8,0,0,-8.8,0,n,0,892,62,1014,0,0,11,Clear Sky,800,c01n,220,4.4,1
2022-09-03T07:00:00,12,12,0,6.9,6,12,0.2,1,d,0,893,71,1015,0,7,10,Clear Sky,800,c01n,200,4.4,2.1
2022-09-03T08:00:00,13,13,0,6.8,50,470,9.5,119,d,0,892,66,1015,0,119,14,Clear Sky,800,c01d,210,5.2,2.8
2022-09-03T09:00:00,16,16,0,9,72,660,18.9,279,d,0,893,63,1015,0,279,10,Clear Sky,800,c01d,220,5.2,1.5
2022-09-03T10:00:00,18,18,0,8,87,762,27.8,436,d,0,892,52,1015,0,436,10,Clear Sky,800,c01d,160,4,1.5
2022-09-03T11:00:00,21,20.4,0,8.9,97,822,35.7,571,d,0,895,46,1015,0,571,10,Clear Sky,800,c01d,210,3.6,1
2022-09-03T12:00:00,25,24.6,0,10.8,104,858,41.9,670,d,0,896,41,1014,0,649,10,Clear Sky,800,c01d,220,4.8,3.1
2022-09-03T13:00:00,29,27.5,0,3.8,107,875,45.5,724,d,0,897,20,1013,0,724,14,Clear Sky,800,c01d,100,6.8,4.6
2022-09-03T14:00:00,31,29.1,0,5.4,107,876,45.7,728,d,0,897,20,1012,0,728,14,Clear Sky,800,c01d,180,8,3.6
2022-09-03T15:00:00,31,29,0,2.3,104,862,42.7,682,d,0,898,16,1011,0,682,14,Clear Sky,800,c01d,190,8.4,3.6
2022-09-03T16:00:00,33,30.7,0,3.9,98,830,36.8,589,d,0,897,16,1011,0,589,10,Clear Sky,800,c01d,170,8.8,4.1
2022-09-03T17:00:00,31,29.1,0,5.4,89,774,29.1,460,d,0,897,20,1010,0,460,10,Clear Sky,800,c01d,170,8.8,3.1
2022-09-03T18:00:00,31,29,1,4.7,75,680,20.3,305,d,0,896,19,1010,0,305,10,Clear Sky,800,c01d,190,7.6,3.1
2022-09-03T19:00:00,28,26.8,1,3.7,54,510,11,144,d,0,895,21,1010,0,144,10,Clear Sky,800,c01d,180,6,3.6
2022-09-03T20:00:00,28,26.7,16,3,16,104,1.6,11,d,0,894,20,1010,0,27,8,Few clouds,801,c02n,160,4.4,1
2022-09-03T21:00:00,24,23.2,25,4.9,0,0,-7.5,0,n,0,894,29,1010,0,0,8,Scattered clouds,802,c02n,140,4.4,2.6
2022-09-03T22:00:00,22,21.2,91,6.7,0,0,-15.8,0,n,0,896,37,1010,0,0,8,Overcast clouds,804,c04n,40,4.4,1
2022-09-03T23:00:00,20,19.2,96,7.7,0,0,-23,0,n,0,892,45,1010,0,0,10,Overcast clouds,804,c04n,135,6,2.8
2022-09-04T00:00:00,21,20.4,93,8.9,0,0,-28.4,0,n,0,891,46,1009,0,0,10,Overcast clouds,804,c04n,230,9.2,3.6
2022-09-04T01:00:00,20,19.2,86,7.7,0,0,-31.4,0,n,0,891,45,1008,0,0,10,Overcast clouds,804,c04n,215,6.4,1.5
2022-09-04T02:00:00,23,22.2,85,5,0,0,-31.7,0,n,0,890,31,1008,0,0,10,Overcast clouds,804,c04n,195,5.6,1
2022-09-04T03:00:00,19,18.1,1,6.8,0,0,-29.1,0,n,0,892,45,1008,0,0,10,Clear Sky,800,c01n,180,6,2.1
2022-09-04T04:00:00,24,23.2,1,4.9,0,0,-24.1,0,n,0,890,29,1007,0,0,10,Clear Sky,800,c01n,300,6,5.1
2022-09-04T05:00:00,24,23.2,1,4.9,0,0,-17.2,0,n,0,888,29,1008,0,0,8,Clear Sky,800,c01n,290,8,3.1
2022-09-04T06:00:00,24,23.2,25,3.9,0,0,-9,0,n,0,888,27,1008,0,0,8,Scattered clouds,802,c02n,340,8,2.6
2022-09-04T07:00:00,17,17,24,5.9,4,3,-0.1,1,d,0,887,48,1009,0,5,6,Scattered clouds,802,c02n,30,6.4,4.1
2022-09-04T08:00:00,18,18,22,6.8,49,463,9.3,116,d,0,889,48,1009,0,115,6,Scattered clouds,802,c02d,50,9,2.6
2022-09-04T09:00:00,24,23.2,84,4.9,72,657,18.6,275,d,0,890,29,1009,0,138,6,Overcast clouds,804,c04d,165,10,5.1
2022-09-04T10:00:00,26,25.3,82,4.5,87,760,27.5,432,d,0,893,25,1009,0,234,6,Overcast clouds,804,c04d,280,11,7.7
2022-09-04T11:00:00,27,26.2,3,4.7,97,821,35.4,566,d,0,893,24,1009,0,566,6,Few clouds,801,c02d,280,11,6.2
2022-09-04T12:00:00,28,26.9,20,5.6,103,857,41.5,665,d,0,893,24,1008,0,662,6,Few clouds,801,c02d,260,8,6.2
2022-09-04T13:00:00,29,27.6,1,5.8,106,873,45.1,719,d,0,893,23,1008,0,719,6,Clear Sky,800,c01d,280,10,6.2
2022-09-04T14:00:00,31,29,1,2.3,107,875,45.4,723,d,0,893,16,1007,0,723,8,Clear Sky,800,c01d,290,8.8,4.6
2022-09-04T15:00:00,31,28.9,0,1.4,104,860,42.3,676,d,0,894,15,1006,0,676,8,Clear Sky,800,c01d,290,9.2,2.1
2022-09-04T16:00:00,31,28.9,0,0.4,98,828,36.4,584,d,0,894,14,1006,0,584,10,Clear Sky,800,c01d,270,9.6,6.2
2022-09-04T17:00:00,31,28.9,0,0.4,89,771,28.8,454,d,0,893,14,1006,0,454,10,Clear Sky,800,c01d,280,9.2,6.7
2022-09-04T18:00:00,31,28.9,0,1.4,74,676,20,299,d,0,893,15,1006,0,299,10,Clear Sky,800,c01d,290,8,7.2
2022-09-04T19:00:00,29,27.4,19,1.5,53,502,10.7,138,d,0,893,17,1006,0,138,10,Few clouds,801,c02d,280,8,5.7
2022-09-04T20:00:00,28,26.8,25,3.7,14,80,1.3,8,d,0,893,21,1007,0,22,10,Scattered clouds,802,c02n,270,3.6,3.6
2022-09-04T21:00:00,26,25.3,95,3.9,0,0,-7.8,0,n,0,892,24,1006,0,0,10,Overcast clouds,804,c04n,250,4,1.5
2022-09-04T22:00:00,25,24.3,90,4.7,0,0,-16.2,0,n,0,891,27,1007,0,0,10,Overcast clouds,804,c04n,270,5.6,4.6
2022-09-04T23:00:00,24,23.2,93,4.9,0,0,-23.4,0,n,0,891,29,1007,0,0,10,Overcast clouds,804,c04n,300,6.4,4.6
2022-09-05T00:00:00,24,23.2,25,4.9,0,0,-28.8,0,n,0,891,29,1007,0,0,10,Scattered clouds,802,c02n,290,7.2,4.1
2022-09-05T01:00:00,22,21,1,3.6,0,0,-31.8,0,n,0,891,30,1007,0,0,16,Clear Sky,800,c01n,260,5.2,2.6
2022-09-05T02:00:00,22,21,1,3.6,0,0,-32,0,n,0,890,30,1006,0,0,16,Clear Sky,800,c01n,260,5.2,3.1
2022-09-05T03:00:00,22,21,0,2.7,0,0,-29.4,0,n,0,890,28,1007,0,0,16,Clear Sky,800,c01n,260,7,4.1
2022-09-05T04:00:00,20,18.9,0,3.7,0,0,-24.4,0,n,0,891,34,1007,0,0,16,Clear Sky,800,c01n,220,7,4.1
2022-09-05T05:00:00,19,17.9,0,4,0,0,-17.5,0,n,0,890,37,1007,0,0,16,Clear Sky,800,c01n,230,11,3.6
2022-09-05T06:00:00,17,17,94,6.8,0,0,-9.3,0,n,0,889,51,1009,0,0,11,Overcast clouds,804,c04n,350,14,11.8
2022-09-05T07:00:00,14,14,93,8,1,0,-0.3,0,n,0,892,67,1011,0,0,8,Overcast clouds,804,c04n,350,9,6.7
2022-09-05T08:00:00,14,14,100,8,48,456,9.1,112,d,0,889,67,1011,0,59,8,Overcast clouds,804,c04d,340,9,7.2
2022-09-05T09:00:00,16,16,100,5.9,71,653,18.4,271,d,0,890,51,1012,0,98,10,Overcast clouds,804,c04d,360,7.6,6.7
2022-09-05T10:00:00,17,17,0,5,86,758,27.2,427,d,0,892,45,1012,0,427,10,Clear Sky,800,c01d,360,9,7.7
2022-09-05T11:00:00,18,18,0,3.9,97,819,35.1,562,d,0,905,39,1013,0,562,11,Clear Sky,800,c01d,20,8,5.7
2022-09-05T12:00:00,18,18,0,4.9,103,855,41.2,660,d,0,893,42,1013,0,660,11,Clear Sky,800,c01d,340,8,5.1
2022-09-05T13:00:00,19,18,77,4.7,106,872,44.8,714,d,0,893,39,1013,0,450,16,Overcast clouds,804,c04d,20,8,4.1
2022-09-05T14:00:00,19,18,6,4.7,106,873,45,718,d,0,894,39,1013,0,718,16,Few clouds,801,c02d,20,10,5.7
2022-09-05T15:00:00,19,18,20,4.7,104,859,41.9,671,d,0,894,39,1014,0,668,16,Few clouds,801,c02d,10,10,5.7
2022-09-05T16:00:00,19,18,3,4.7,98,826,36.1,578,d,0,894,39,1014,0,578,16,Few clouds,801,c02d,350,9,1.5
2022-09-05T17:00:00,19,17.9,50,4,88,768,28.4,448,d,0.5,894,37,1015,0,410,16,Broken clouds,803,c03d,40,8,3.6
2022-09-05T18:00:00,19,17.9,5,4,74,672,19.6,293,d,0,894,37,1016,0,293,16,Few clouds,801,c02d,30,7.6,4.1
2022-09-05T19:00:00,18,18,9,3.9,52,493,10.3,133,d,0,895,39,1017,0,133,16,Few clouds,801,c02d,50,6.8,4.1
2022-09-05T20:00:00,16,16,0,3.8,12,57,0.9,6,d,0,895,44,1018,0,18,16,Clear Sky,800,c01n,60,4,3.6
2022-09-05T21:00:00,14,14,0,3.8,0,0,-8.2,0,n,0,899,50,1019,0,0,16,Clear Sky,800,c01n,60,4.1,4.1
2022-09-05T22:00:00,14,14,30,3.8,0,0,-16.6,0,n,0,894,50,1020,0,0,16,Scattered clouds,802,c02n,30,4.1,4.1
2022-09-05T23:00:00,11,11,61,2.8,0,0,-23.7,0,n,0,896,57,1021,0,0,16,Broken clouds,803,c03n,360,3.6,2.6
2022-09-06T00:00:00,12,12,97,4,0,0,-29.1,0,n,0,900,58,1021,0,0,16,Overcast clouds,804,c04n,330,2.4,2.1
2022-09-06T01:00:00,13,13,3,2.8,0,0,-32.2,0,n,0,901,50,1022,0,0,16,Few clouds,801,c02n,240,1.6,1.5
2022-09-06T02:00:00,10,10,1,2.8,0,0,-32.4,0,n,0,897,61,1022,0,0,16,Clear Sky,800,c01n,100,2,1
2022-09-06T03:00:00,7,4.8,18,2.9,0,0,-29.8,0,n,0,897,75,1024,0,0,16,Few clouds,801,c02n,360,3.1,3.1
2022-09-06T04:00:00,7,6.2,3,2.9,0,0,-24.7,0,n,0,896,75,1024,0,0,16,Few clouds,801,c02n,350,1.5,1.5
2022-09-06T05:00:00,7,6.2,4,2.9,0,0,-17.8,0,n,0,901,75,1025,0,0,16,Few clouds,801,c02n,360,1.5,1.5
2022-09-06T06:00:00,6,5.8,9,1.9,0,0,-9.6,0,n,0,902,75,1026,0,0,16,Few clouds,801,c02n,350,1.2,1
2022-09-06T07:00:00,6,5.5,100,1.9,0,0,-0.6,0,n,0,902,75,1026,0,0,16,Overcast clouds,804,c04n,285,2,1.2
2022-09-06T08:00:00,9,9,84,3,48,449,8.8,108,d,0,897,66,1026,0,54,16,Overcast clouds,804,c04d,215,2.8,1.2
2022-09-06T09:00:00,12,12,89,1.9,71,650,18.1,267,d,0,896,50,1026,0,105,16,Overcast clouds,804,c04d,150,5.2,4.6
2022-09-06T10:00:00,14,14,5,1,86,756,27,423,d,0,900,41,1026,0,423,16,Few clouds,801,c02d,150,8,5.7
2022-09-06T11:00:00,16,16,5,2.8,96,818,34.8,557,d,0,901,41,1025,0,557,16,Few clouds,801,c02d,140,8,5.7
2022-09-06T12:00:00,17,17,4,0.6,103,854,40.9,656,d,0,902,33,1024,0,656,16,Few clouds,801,c02d,140,11,5.7
2022-09-06T13:00:00,19,17.8,0,2.8,106,871,44.4,709,d,0,902,34,1023,0,709,16,Clear Sky,800,c01d,140,11,7.7
2022-09-06T14:00:00,20,18.9,0,3.7,106,872,44.6,712,d,0,901,34,1022,0,712,16,Clear Sky,800,c01d,140,10,6.7
2022-09-06T15:00:00,21,20.1,5,5,103,857,41.5,665,d,0,901,35,1022,0,665,16,Few clouds,801,c02d,180,11,6.7
2022-09-06T16:00:00,22,21.1,24,5,97,824,35.7,572,d,0,900,33,1021,0,568,16,Scattered clouds,802,c02d,170,10,6.7
2022-09-06T17:00:00,23,22.2,1,5,88,766,28,442,d,0,900,31,1020,0,442,11,Clear Sky,800,c01d,180,9,6.2
2022-09-06T18:00:00,22,21.2,2,5.8,73,667,19.3,287,d,0,899,35,1019,0,287,11,Few clouds,801,c02d,170,9,6.2
2022-09-06T19:00:00,22,21.2,1,5.8,51,484,10,127,d,0,899,35,1019,0,127,11,Clear Sky,800,c01d,150,10,7.7
2022-09-06T20:00:00,20,19.1,0,6,9,34,0.6,3,d,0,898,40,1019,0,12,16,Clear Sky,800,c01n,160,8,5.1
2022-09-06T21:00:00,19,18.1,2,5.8,0,0,-8.5,0,n,0,897,42,1019,0,0,16,Few clouds,801,c02n,140,7.2,3.1
2022-09-06T22:00:00,17,17,25,5.9,0,0,-16.9,0,n,0,897,48,1018,0,0,16,Scattered clouds,802,c02n,170,6.8,3.6
2022-09-06T23:00:00,16,16,25,5.9,0,0,-24.1,0,n,0,900,51,1018,0,0,16,Scattered clouds,802,c02n,170,6,3.1
2022-09-07T00:00:00,16,16,80,5.9,0,0,-29.5,0,n,0,895,51,1017,0,0,16,Overcast clouds,804,c04n,170,4.8,1.5
2022-09-07T01:00:00,15,15,25,5.8,0,0,-32.5,0,n,0,895,54,1016,0,0,16,Scattered clouds,802,c02n,200,3.6,2.1
2022-09-07T02:00:00,13,13,52,6.8,0,0,-32.8,0,n,0,894,66,1015,0,0,16,Broken clouds,803,c03n,190,3.6,2.1
2022-09-07T03:00:00,13,13,80,6.8,0,0,-30.1,0,n,0,892,66,1015,0,0,16,Overcast clouds,804,c04n,140,4,1
2022-09-07T04:00:00,12,12,19,6.9,0,0,-25,0,n,0,892,71,1014,0,0,16,Few clouds,801,c02n,230,4.4,2.6
2022-09-07T05:00:00,11,11,13,6.9,0,0,-18,0,n,0,891,76,1014,0,0,16,Few clouds,801,c02n,215,4.4,1
2022-09-07T06:00:00,10,10,1,6,0,0,-9.8,0,n,0,890,76,1014,0,0,16,Clear Sky,800,c01n,200,4.4,2.6
2022-09-07T07:00:00,11,11,3,6,0,0,-0.8,0,n,0,889,71,1013,0,0,16,Few clouds,801,c02n,200,4.4,1.5
2022-09-07T08:00:00,12,12,29,5.9,47,442,8.6,105,d,0,889,66,1012,0,104,16,Scattered clouds,802,c02d,210,4.8,2.1
2022-09-07T09:00:00,15,15,2,5.8,70,647,17.9,262,d,0,889,54,1011,0,262,16,Few clouds,801,c02d,190,5.2,2.6
2022-09-07T10:00:00,19,18.1,18,5.8,86,754,26.7,419,d,0,890,42,1011,0,418,13,Few clouds,801,c02d,200,5.2,3.6
2022-09-07T11:00:00,21,20.1,100,5.8,96,816,34.5,553,d,0,891,37,1010,0,151,13,Overcast clouds,804,c04d,220,6,2.6
2022-09-07T12:00:00,23,22.2,94,5.9,102,853,40.6,651,d,0,891,33,1009,0,176,13,Overcast clouds,804,c04d,230,7.2,3.1
2022-09-07T13:00:00,25,24.3,85,5.7,106,870,44,704,d,0,891,29,1008,0,339,16,Overcast clouds,804,c04d,210,8.8,2.6
2022-09-07T14:00:00,28,26.7,45,0.7,106,871,44.2,707,d,0,891,17,1008,0,665,16,Broken clouds,803,c03d,300,12,8.2
2022-09-07T15:00:00,25,24.4,24,6.7,103,856,41.1,660,d,0,893,31,1010,0,655,16,Scattered clouds,802,c02d,360,12,10.3
2022-09-07T16:00:00,25,24.4,92,7.6,97,822,35.3,566,d,0,892,33,1010,0,182,16,Overcast clouds,804,c04d,360,9,6.2
2022-09-07T17:00:00,24,23.3,83,6.7,87,763,27.7,436,d,0,892,33,1010,0,228,16,Overcast clouds,804,c04d,10,10,7.2
2022-09-07T18:00:00,21,20.1,60,5.8,73,663,18.9,281,d,0,892,37,1011,0,236,16,Broken clouds,803,c03d,30,11,8.2
2022-09-07T19:00:00,20,19.1,82,6,50,474,9.6,122,d,0,891,40,1013,0,66,16,Overcast clouds,804,c04d,20,12,8.8
2022-09-07T20:00:00,17,17,3,5.9,6,15,0.2,2,d,0,892,48,1013,0,8,16,Few clouds,801,c02n,30,8,5.1
2022-09-07T21:00:00,15,15,0,5.8,0,0,-8.9,0,n,0,896,54,1014,0,0,16,Clear Sky,800,c01n,40,7.2,3.6
2022-09-07T22:00:00,13,13,0,5.9,0,0,-17.3,0,n,0,896,62,1015,0,0,16,Clear Sky,800,c01n,10,9,6.2
2022-09-07T23:00:00,13,13,56,4.9,0,0,-24.5,0,n,0,896,58,1017,0,0,16,Broken clouds,803,c03n,10,10,6.7
2022-09-08T00:00:00,12,12,4,5,0,0,-29.9,0,n,0,897,62,1017,0,0,16,Few clouds,801,c02n,280,3.2,2.1
2022-09-08T01:00:00,11,11,89,4,0,0,-32.9,0,n,0,892,62,1018,0,0,16,Overcast clouds,804,c04n,285,1.6,1
2022-09-08T02:00:00,11,11,88,4.9,0,0,-33.1,0,n,0,891,66,1018,0,0,16,Overcast clouds,804,c04n,290,3.1,3.1
2022-09-08T03:00:00,11,11,94,4.9,0,0,-30.5,0,n,0,894,66,1019,0,0,16,Overcast clouds,804,c04n,325,3.6,1
2022-09-08T04:00:00,12,12,94,4,0,0,-25.3,0,n,0,893,58,1020,0,0,16,Overcast clouds,804,c04n,360,4.8,2.6
2022-09-08T05:00:00,12,12,94,1.9,0,0,-18.3,0,n,0,899,50,1020,0,0,16,Overcast clouds,804,c04n,20,4.4,1.5
2022-09-08T06:00:00,11,11,94,2.8,0,0,-10.1,0,n,0,894,57,1021,0,0,16,Overcast clouds,804,c04n,10,4.4,2.6
2022-09-08T07:00:00,9,9,94,1.9,0,0,-1,0,n,0,900,61,1022,0,0,16,Overcast clouds,804,c04n,10,5.6,2.6
2022-09-08T08:00:00,10,10,94,1.9,46,434,8.3,101,d,0,895,57,1023,0,73,16,Overcast clouds,804,c04d,320,6.8,2.1
2022-09-08T09:00:00,10,10,94,1.9,70,643,17.6,258,d,0,901,57,1023,0,140,16,Overcast clouds,804,c04d,350,10.4,5.7
2022-09-08T10:00:00,11,11,94,1.8,85,752,26.5,414,d,0,897,53,1024,0,112,16,Overcast clouds,804,c04d,350,10.8,5.7
2022-09-08T11:00:00,12,12,94,1.9,96,815,34.2,548,d,0,897,50,1024,0,148,16,Overcast clouds,804,c04d,360,8,5.7
2022-09-08T12:00:00,13,13,94,2.8,102,851,40.2,646,d,0,898,50,1024,0,175,16,Overcast clouds,804,c04d,350,8,5.7
2022-09-08T13:00:00,13,13,94,2,105,869,43.7,699,d,0,898,47,1024,0,189,16,Overcast clouds,804,c04d,350,9,5.1
2022-09-08T14:00:00,14,14,94,1,106,870,43.8,702,d,0,898,41,1023,0,190,16,Overcast clouds,804,c04d,340,8,5.1
2022-09-08T15:00:00,14,14,94,1,103,854,40.7,654,d,0.25,898,41,1023,0,177,16,Overcast clouds,804,c04d,330,8,4.6
2022-09-08T16:00:00,15,15,94,0.8,97,820,35,560,d,0,898,38,1022,0,152,16,Overcast clouds,804,c04d,20,7,4.6
2022-09-08T17:00:00,13,13,94,2,87,760,27.3,430,d,0,898,47,1023,0,116,16,Overcast clouds,804,c04d,320,7.2,5.1
2022-09-08T18:00:00,14,14,94,2,72,658,18.6,275,d,0,897,44,1022,0,74,16,Overcast clouds,804,c04d,240,6.8,1
2022-09-08T19:00:00,13,13,94,3.9,49,464,9.3,116,d,0,897,54,1023,0,80,16,Overcast clouds,804,c04d,160,4.8,1
2022-09-08T20:00:00,12,12,94,1.9,3,2,-0.1,0,n,0,897,50,1023,0,0,16,Overcast clouds,804,c04n,350,2.8,2.1
2022-09-08T21:00:00,11,11,94,2.8,0,0,-9.2,0,n,0,902,57,1024,0,0,16,Overcast clouds,804,c04n,345,3.2,1.6
2022-09-08T22:00:00,11,11,85,2.8,0,0,-17.6,0,n,0,895,57,1024,0,0,16,Overcast clouds,804,c04n,335,4.8,2.4
2022-09-08T23:00:00,11,11,85,4,0,0,-24.9,0,n,0.25,897,62,1024,0,0,16,Overcast clouds,804,c04n,330,10,1.5
2022-09-09T00:00:00,8,8,85,6,0,0,-30.3,0,n,0,897,87,1025,0,0,8,Overcast clouds,804,c04n,310,10,6.7
2022-09-09T01:00:00,8,8,85,6,0,0,-33.3,0,n,0.25,903,87,1025,0,0,10,Overcast clouds,804,c04n,300,6,3.1
2022-09-09T02:00:00,8,8,85,6,0,0,-33.5,0,n,0.5,897,87,1025,0,0,11,Overcast clouds,804,c04n,280,7.2,4.1
2022-09-09T03:00:00,7,4,85,5,0,0,-30.8,0,n,0.5,897,87,1025,0,0,16,Overcast clouds,804,c04n,280,7.2,4.6
2022-09-09T04:00:00,8,8,85,4.9,0,0,-25.6,0,n,0.5,897,81,1025,0,0,16,Overcast clouds,804,c04n,280,6.8,3.6
2022-09-09T05:00:00,8,8,85,3.8,0,0,-18.6,0,n,0.5,897,75,1026,0,0,16,Overcast clouds,804,c04n,310,7.2,5.1
2022-09-09T06:00:00,8,8,85,3.8,0,0,-10.3,0,n,0,898,75,1026,0,0,16,Overcast clouds,804,c04n,310,6.8,4.1
2022-09-09T07:00:00,7,4,85,2.9,0,0,-1.3,0,n,0,898,75,1026,0,0,16,Overcast clouds,804,c04n,330,6,4.6
2022-09-09T08:00:00,7,4.5,85,2.9,45,427,8.1,97,d,0,897,75,1027,0,47,16,Overcast clouds,804,c04d,350,6.8,3.6
2022-09-09T09:00:00,9,9,85,3,70,640,17.4,254,d,0,898,66,1027,0,122,16,Overcast clouds,804,c04d,330,7.2,4.1
2022-09-09T10:00:00,11,11,85,2.8,85,749,26.2,410,d,0,899,57,1027,0,198,16,Overcast clouds,804,c04d,330,8,6.2
2022-09-09T11:00:00,13,13,85,3.9,95,813,33.9,544,d,0,900,54,1027,0,262,16,Overcast clouds,804,c04d,350,8,5.1
2022-09-09T12:00:00,13,13,85,2,102,850,39.9,641,d,0,900,47,1027,0,309,16,Overcast clouds,804,c04d,320,8,5.7
2022-09-09T13:00:00,14,14,85,1,105,867,43.3,694,d,0,900,41,1026,0,335,16,Overcast clouds,804,c04d,340,9,3.6
2022-09-09T14:00:00,15,15,85,0.8,105,868,43.5,696,d,0,900,38,1025,0,336,16,Overcast clouds,804,c04d,300,7.6,4.1
2022-09-09T15:00:00,15,15,85,-1.1,102,853,40.4,648,d,0,900,33,1024,0,312,16,Overcast clouds,804,c04d,280,6.8,3.6
2022-09-09T16:00:00,16,16,89,-0.2,96,818,34.6,554,d,0,899,33,1023,0,219,16,Overcast clouds,804,c04d,260,5.6,2.6
2022-09-09T17:00:00,16,16,44,-0.2,86,757,27,423,d,0,899,33,1023,0,400,16,Broken clouds,803,c03d,160,4.4,0.8
2022-09-09T18:00:00,16,16,13,-0.2,71,653,18.2,269,d,0,898,33,1022,0,269,16,Few clouds,801,c02d,60,3.2,2.1
2022-09-09T19:00:00,16,16,1,-1.1,48,454,8.9,111,d,0,898,31,1022,0,111,16,Clear Sky,800,c01d,60,3.2,1.5
2022-09-09T20:00:00,14,14,0,-2.8,0,0,-0.5,0,n,0,898,31,1022,0,0,16,Clear Sky,800,c01n,130,4.1,4.1
2022-09-09T21:00:00,11,11,0,1,0,0,-9.6,0,n,0,896,50,1022,0,0,16,Clear Sky,800,c01n,160,4.4,2.1
2022-09-09T22:00:00,10,10,0,0.9,0,0,-18,0,n,0,896,53,1022,0,0,16,Clear Sky,800,c01n,180,5.2,3.6
2022-09-09T23:00:00,8,8,1,1.8,0,0,-25.3,0,n,0,895,65,1021,0,0,16,Clear Sky,800,c01n,180,5.2,3.6
2022-09-10T00:00:00,10,10,0,1.9,0,0,-30.7,0,n,0,894,57,1021,0,0,16,Clear Sky,800,c01n,200,4.4,3.1
2022-09-10T01:00:00,8,8,0,1,0,0,-33.7,0,n,0,895,61,1021,0,0,16,Clear Sky,800,c01n,190,4,3.1
2022-09-10T02:00:00,7,5.2,0,1.9,0,0,-33.9,0,n,0,894,70,1021,0,0,16,Clear Sky,800,c01n,190,3.6,2.6
2022-09-10T03:00:00,7,5.2,0,1.9,0,0,-31.1,0,n,0,893,70,1021,0,0,16,Clear Sky,800,c01n,200,3.6,2.6
2022-09-10T04:00:00,6,3.6,0,1.9,0,0,-25.9,0,n,0,893,75,1020,0,0,16,Clear Sky,800,c01n,210,3.6,3.1
2022-09-10T05:00:00,6,4,1,1,0,0,-18.9,0,n,0,892,70,1020,0,0,16,Clear Sky,800,c01n,220,3.6,2.6
2022-09-10T06:00:00,5,3.9,0,0.9,0,0,-10.6,0,n,0,892,75,1020,0,0,16,Clear Sky,800,c01n,230,4,1.5
2022-09-10T07:00:00,4,2.1,0,0,0,0,-1.5,0,n,0,891,75,1020,0,0,16,Clear Sky,800,c01n,210,4.4,2.1
2022-09-10T08:00:00,6,4.4,0,1,45,419,7.9,94,d,0,891,70,1020,0,94,16,Clear Sky,800,c01d,190,5.2,2.1
2022-09-10T09:00:00,11,11,0,1,69,636,17.1,250,d,0,892,50,1020,0,250,16,Clear Sky,800,c01d,190,5.2,1.5
2022-09-10T10:00:00,15,15,0,1.9,85,747,25.9,405,d,0,891,41,1020,0,405,16,Clear Sky,800,c01d,220,4.8,1.5
2022-09-10T11:00:00,17,17,0,1.8,95,812,33.6,539,d,0,896,36,1020,0,539,16,Clear Sky,800,c01d,220,4.8,2.6
2022-09-10T12:00:00,18,18,0,2.7,102,849,39.6,636,d,0,896,36,1019,0,636,16,Clear Sky,800,c01d,240,5.6,2.1
2022-09-10T13:00:00,20,18.8,0,1,105,866,42.9,689,d,0,897,28,1019,0,689,16,Clear Sky,800,c01d,200,5.6,3.6
2022-09-10T14:00:00,22,20.9,0,0.5,105,867,43.1,691,d,0,897,24,1018,0,691,14,Clear Sky,800,c01d,220,5.2,3.1
2022-09-10T15:00:00,24,23.1,0,2.2,102,851,40,642,d,0,898,24,1018,0,642,14,Clear Sky,800,c01d,215,4.4,1.5
2022-09-10T16:00:00,25,24.1,0,1.8,96,816,34.2,548,d,0,898,22,1017,0,548,14,Clear Sky,800,c01d,210,4.4,3.1
2022-09-10T17:00:00,26,25.2,0,2,86,754,26.6,417,d,0,898,21,1017,0,417,14,Clear Sky,800,c01d,180,4.8,2.6
2022-09-10T18:00:00,26,25.2,0,0.6,71,648,17.9,263,d,0,898,19,1017,0,263,14,Clear Sky,800,c01d,190,5.2,3.6
2022-09-10T19:00:00,23,22,0,0.8,47,443,8.6,105,d,0,898,23,1017,0,105,8,Clear Sky,800,c01d,180,5.6,4.6
2022-09-10T20:00:00,21,19.8,0,0.8,0,0,-0.8,0,n,0,896,26,1017,0,0,8,Clear Sky,800,c01n,190,6,2.6
2022-09-10T21:00:00,19,17.7,0,0.6,0,0,-9.9,0,n,0,896,29,1017,0,0,6,Clear Sky,800,c01n,180,5.6,3.6
2022-09-10T22:00:00,18,18,0,2.7,0,0,-18.4,0,n,0,895,36,1016,0,0,8,Clear Sky,800,c01n,190,5.2,2.6
2022-09-10T23:00:00,16,16,0,2.8,0,0,-25.6,0,n,0,895,41,1016,0,0,8,Clear Sky,800,c01n,210,4.8,1.5
2022-09-11T00:00:00,14,14,0,3.8,0,0,-31.1,0,n,0,894,50,1016,0,0,10,Clear Sky,800,c01n,220,4.8,1
2022-09-11T01:00:00,15,15,0,2.9,0,0,-34.1,0,n,0,893,44,1016,0,0,10,Clear Sky,800,c01n,230,5.2,3.6
2022-09-11T02:00:00,14,14,0,3.8,0,0,-34.2,0,n,0,897,50,1015,0,0,10,Clear Sky,800,c01n,210,5.2,3.6
2022-09-11T03:00:00,15,15,0,1.9,0,0,-31.5,0,n,0,893,41,1015,0,0,8,Clear Sky,800,c01n,220,5.6,3.6
2022-09-11T04:00:00,14,14,0,2,0,0,-26.3,0,n,0,893,44,1014,0,0,8,Clear Sky,800,c01n,220,5.6,5.1
2022-09-11T05:00:00,13,13,0,2,0,0,-19.2,0,n,0,893,47,1015,0,0,10,Clear Sky,800,c01n,210,5.6,3.6
2022-09-11T06:00:00,12,12,0,1.9,0,0,-10.8,0,n,0,892,50,1015,0,0,10,Clear Sky,800,c01n,230,5.6,3.6
2022-09-11T07:00:00,11,11,0,1.8,0,0,-1.8,0,n,0,892,53,1016,0,0,10,Clear Sky,800,c01n,200,6,2.1
2022-09-11T08:00:00,12,12,0,1.9,44,411,7.6,90,d,0,892,50,1016,0,90,13,Clear Sky,800,c01d,205,6.4,3.6
2022-09-11T09:00:00,15,15,0,1.9,69,632,16.9,246,d,0,892,41,1016,0,246,13,Clear Sky,800,c01d,205,6.4,1
2022-09-11T10:00:00,19,17.8,1,2.8,84,745,25.7,401,d,0,893,34,1015,0,401,13,Clear Sky,800,c01d,210,6,2.4
2022-09-11T11:00:00,23,22.2,1,5,95,810,33.3,534,d,0,895,31,1015,0,534,13,Clear Sky,800,c01d,210,6,2.1
2022-09-11T12:00:00,25,24.3,1,4.7,101,847,39.3,631,d,0,899,27,1014,0,631,8,Clear Sky,800,c01d,190,5.6,1.5
2022-09-11T13:00:00,27,26,25,0.7,105,865,42.6,683,d,0,897,18,1013,0,677,8,Scattered clouds,802,c02d,170,5.2,1.5
2022-09-11T14:00:00,28,26.6,89,-4,105,865,42.7,685,d,0,897,12,1013,0,270,10,Overcast clouds,804,c04d,180,6,1.5
2022-09-11T15:00:00,28,26.7,82,1.5,102,849,39.6,637,d,0,897,18,1012,0,345,8,Overcast clouds,804,c04d,175,6.8,3.1
2022-09-11T16:00:00,27,26,94,0.7,95,813,33.8,542,d,0,896,18,1012,0,147,8,Overcast clouds,804,c04d,170,8,3.1
2022-09-11T17:00:00,27,26.1,86,1.4,85,751,26.2,411,d,0,895,19,1012,0,189,8,Overcast clouds,804,c04d,260,8.4,2.1
2022-09-11T18:00:00,26,25.1,91,-1.7,70,643,17.5,257,d,0,895,16,1012,0,89,6,Overcast clouds,804,c04d,260,7.6,3.6
2022-09-11T19:00:00,25,24,92,-2.5,46,432,8.2,100,d,0,895,16,1012,0,78,5,Overcast clouds,804,c04d,270,11,6.2
2022-09-11T20:00:00,24,22.9,80,-2.5,0,0,-1.2,0,n,0,894,17,1012,0,0,4,Overcast clouds,804,c04n,280,11,7.7
2022-09-11T21:00:00,23,21.8,3,-2.6,0,0,-10.3,0,n,0,894,18,1012,0,0,8,Few clouds,801,c02n,280,6.8,6.7
2022-09-11T22:00:00,21,19.7,5,-2.1,0,0,-18.8,0,n,0,894,21,1013,0,0,8,Few clouds,801,c02n,330,7.6,4.6
2022-09-11T23:00:00,19,17.6,5,-1.4,0,0,-26,0,n,0,894,25,1013,0,0,8,Few clouds,801,c02n,320,8,3.6
2022-09-12T00:00:00,18,18,5,-2.3,0,0,-31.5,0,n,0,894,25,1014,0,0,8,Few clouds,801,c02n,330,7.6,3.1
2022-09-12T01:00:00,18,18,0,-0.3,0,0,-34.5,0,n,0,894,29,1014,0,0,8,Clear Sky,800,c01n,330,7.6,5.7
2022-09-12T02:00:00,16,16,0,1.7,0,0,-34.6,0,n,0,897,38,1015,0,0,8,Clear Sky,800,c01n,340,7.2,4.1
2022-09-12T03:00:00,15,15,0,2.9,0,0,-31.8,0,n,0,895,44,1017,0,0,8,Clear Sky,800,c01n,330,8.4,6.2
2022-09-12T04:00:00,14,14,1,4.8,0,0,-26.6,0,n,0,894,54,1018,0,0,8,Clear Sky,800,c01n,340,10,6.7
2022-09-12T05:00:00,13,13,89,5.9,0,0,-19.4,0,n,0,896,62,1019,0,0,8,Overcast clouds,804,c04n,340,10,6.2
2022-09-12T06:00:00,13,13,88,5.9,0,0,-11.1,0,n,0,899,62,1020,0,0,10,Overcast clouds,804,c04n,330,8.8,5.1
2022-09-12T07:00:00,12,12,80,5,0,0,-2,0,n,0,900,62,1021,0,0,10,Overcast clouds,804,c04n,340,7.6,5.1
2022-09-12T08:00:00,12,12,45,5.9,43,403,7.4,86,d,0,897,66,1021,0,81,10,Broken clouds,803,c03d,330,6.8,4.6
2022-09-12T09:00:00,13,13,52,5.9,68,628,16.6,241,d,0,897,62,1022,0,218,10,Broken clouds,803,c03d,340,7.6,4.6
2022-09-12T10:00:00,13,13,92,5.9,84,743,25.4,396,d,0,902,62,1022,0,128,10,Overcast clouds,804,c04d,330,6.8,3.6
2022-09-12T11:00:00,15,15,94,5,95,808,33,529,d,0,898,51,1022,0,143,10,Overcast clouds,804,c04d,20,5.6,3.1
2022-09-12T12:00:00,16,16,94,5,101,846,38.9,626,d,0,899,48,1022,0,169,10,Overcast clouds,804,c04d,50,5.2,2.1
2022-09-12T13:00:00,16,16,82,2.8,104,863,42.2,678,d,0,899,41,1021,0,367,10,Overcast clouds,804,c04d,100,6.8,1
2022-09-12T14:00:00,18,18,92,2.7,104,864,42.3,680,d,0,898,36,1020,0,219,10,Overcast clouds,804,c04d,150,8.4,2.6
2022-09-12T15:00:00,20,18.8,85,1,101,847,39.2,631,d,0,899,28,1019,0,304,10,Overcast clouds,804,c04d,170,9.2,4.1
2022-09-12T16:00:00,19,17.8,91,2.8,95,811,33.4,536,d,0,898,34,1019,0,186,10,Overcast clouds,804,c04d,150,10,6.2
2022-09-12T17:00:00,20,18.9,95,3.7,85,747,25.9,405,d,0,897,34,1018,0,99,8,Overcast clouds,804,c04d,170,10,6.7
2022-09-12T18:00:00,18,18,95,3.9,69,637,17.2,251,d,0,897,39,1017,0,130,10,Overcast clouds,804,c04d,160,9.6,8.8
2022-09-12T19:00:00,16,16,89,5.9,45,421,7.9,94,d,0,895,51,1017,0,82,10,Overcast clouds,804,c04d,160,8.4,6.2
2022-09-12T20:00:00,16,16,90,5.9,0,0,-1.5,0,n,0,898,51,1017,0,0,13,Overcast clouds,804,c04n,170,7.6,5.7
2022-09-12T21:00:00,16,16,93,5.9,0,0,-10.7,0,n,0,894,51,1016,0,0,14,Overcast clouds,804,c04n,170,7.2,6.7
2022-09-12T22:00:00,15,15,91,6.8,0,0,-19.1,0,n,0,893,58,1016,0,0,14,Overcast clouds,804,c04n,160,7.2,5.7
2022-09-12T23:00:00,15,15,89,7.8,0,0,-26.4,0,n,0,893,62,1015,0,0,13,Overcast clouds,804,c04n,150,7.2,4.6
2022-09-13T00:00:00,15,15,93,7.8,0,0,-31.9,0,n,0,892,62,1014,0,0,14,Overcast clouds,804,c04n,190,8,4.6
2022-09-13T01:00:00,15,15,93,7.8,0,0,-34.9,0,n,0,892,62,1014,0,0,14,Overcast clouds,804,c04n,190,8,5.1
2022-09-13T02:00:00,15,15,88,8.9,0,0,-35,0,n,0,892,67,1013,0,0,13,Overcast clouds,804,c04n,220,6.8,4.1
2022-09-13T03:00:00,15,15,89,8.9,0,0,-32.2,0,n,0,891,67,1013,0,0,13,Overcast clouds,804,c04n,200,6,5.7
2022-09-13T04:00:00,15,15,87,7.8,0,0,-26.9,0,n,0,891,62,1012,0,0,13,Overcast clouds,804,c04n,200,4.8,3.1
2022-09-13T05:00:00,15,15,91,7.8,0,0,-19.7,0,n,0,890,62,1012,0,0,13,Overcast clouds,804,c04n,190,4.8,3.6
2022-09-13T06:00:00,14,14,90,8,0,0,-11.3,0,n,0,890,67,1012,0,0,13,Overcast clouds,804,c04n,180,4,3.1
2022-09-13T07:00:00,14,14,90,8,0,0,-2.2,0,n,0,889,67,1012,0,0,10,Overcast clouds,804,c04n,180,3.6,2.6
2022-09-13T08:00:00,14,14,72,8,42,394,7.1,83,d,0,889,67,1012,0,59,8,Overcast clouds,804,c04d,130,3.2,1
2022-09-13T09:00:00,14,14,85,8.8,68,625,16.4,237,d,0,890,71,1012,0,114,8,Overcast clouds,804,c04d,80,3.6,2.1
2022-09-13T10:00:00,13,13,40,6.8,84,740,25.1,392,d,0,890,66,1013,0,376,8,Scattered clouds,802,c02d,10,4.6,4.6
2022-09-13T11:00:00,14,14,56,6.8,94,807,32.7,525,d,0,889,62,1013,0,459,8,Broken clouds,803,c03d,10,4.8,3.1
2022-09-13T12:00:00,16,16,13,7,101,844,38.6,621,d,0,890,55,1012,0,620,8,Few clouds,801,c02d,20,5.2,2.1
2022-09-13T13:00:00,18,18,50,8,104,862,41.8,673,d,0,890,52,1011,0,616,8,Broken clouds,803,c03d,20,6,2.6
2022-09-13T14:00:00,19,18.1,39,6.8,104,862,41.9,674,d,0,891,45,1011,0,649,6,Scattered clouds,802,c02d,50,6.8,2.1
2022-09-13T15:00:00,19,18.1,57,6.8,101,846,38.8,625,d,0,887,45,1011,0,542,6,Broken clouds,803,c03d,40,6.8,3.6
2022-09-13T16:00:00,19,18.1,85,5.8,95,809,33.1,530,d,0,887,42,1011,0,256,6,Overcast clouds,804,c04d,50,4.8,2.1
2022-09-13T17:00:00,18,18,13,6.8,84,744,25.5,398,d,1,887,48,1011,0,398,6,Light rain,500,r01d,30,4.8,1
2022-09-13T18:00:00,18,18,93,6.8,69,632,16.8,244,d,0,887,48,1011,0,72,8,Overcast clouds,804,c04d,10,4.8,2.6
2022-09-13T19:00:00,18,18,89,5.9,44,409,7.5,89,d,0,887,45,1011,0,79,8,Overcast clouds,804,c04d,50,3.6,2.6
2022-09-13T20:00:00,15,15,26,6.8,0,0,-1.9,0,n,0,887,58,1012,0,0,10,Scattered clouds,802,c02n,360,4.1,4.1
2022-09-13T21:00:00,14,14,40,6.8,0,0,-11,0,n,0,887,62,1012,0,0,10,Scattered clouds,802,c02n,360,3.1,3.1
2022-09-13T22:00:00,12,12,83,6.9,0,0,-19.5,0,n,0,887,71,1013,0,0,10,Overcast clouds,804,c04n,350,2.8,2.1
2022-09-13T23:00:00,12,12,23,6.9,0,0,-26.8,0,n,0,887,71,1013,0,0,13,Scattered clouds,802,c02n,360,3.2,1.5
2022-09-14T00:00:00,11,11,32,6.9,0,0,-32.3,0,n,0,887,76,1013,0,0,13,Scattered clouds,802,c02n,330,3.2,2.1
2022-09-14T01:00:00,11,11,56,6.9,0,0,-35.3,0,n,0,887,76,1013,0,0,13,Broken clouds,803,c03n,340,3.2,2.1
2022-09-14T02:00:00,13,13,79,7.9,0,0,-35.3,0,n,0,887,71,1013,0,0,13,Overcast clouds,804,c04n,320,3.6,3.1
2022-09-14T03:00:00,11.7,11.7,5,7.8,0,0,-32.5,0,n,0,887,77,1012,0,0,12,Few clouds,801,c02n,340,4,3.1
2022-09-14T04:00:00,12,12,80,7.9,0,0,-27.2,0,n,0,887,76,1013,0,0,13,Overcast clouds,804,c04n,280,4,3.1
2022-09-14T05:00:00,11,11,54,7.9,0,0,-20,0,n,0,887,81,1013,0,0,13,Broken clouds,803,c03n,360,4.4,3.1
2022-09-14T06:00:00,12,12,44,7.9,0,0,-11.6,0,n,0,887,76,1014,0,0,13,Broken clouds,803,c03n,330,4.8,2.6
2022-09-14T07:00:00,12,12,82,7.9,0,0,-2.5,0,n,0,887,76,1014,0,0,13,Overcast clouds,804,c04n,330,4.8,4.1
2022-09-14T08:00:00,12,12,82,6.9,41,385,6.9,79,d,0,887,71,1015,0,43,10,Overcast clouds,804,c04d,340,5.2,4.1
2022-09-14T09:00:00,13,13,40,7.9,67,621,16.1,233,d,0,887,71,1015,0,224,14,Scattered clouds,802,c02d,330,7,3.6
2022-09-14T10:00:00,15,15,97,7.8,83,738,24.9,387,d,0,887,62,1016,0,156,13,Overcast clouds,804,c04d,350,7,4.6
2022-09-14T11:00:00,16,16,87,8,94,805,32.4,520,d,0,887,59,1016,0,229,13,Overcast clouds,804,c04d,350,8.4,3.6
2022-09-14T12:00:00,18,18,84,8,101,843,38.2,616,d,0,887,52,1016,0,310,13,Overcast clouds,804,c04d,20,8,3.6
2022-09-14T13:00:00,19,18.1,5,6.8,104,861,41.5,667,d,0,887,45,1016,0,667,10,Few clouds,801,c02d,30,8,4.1
2022-09-14T14:00:00,20,19.1,5,6,104,861,41.5,668,d,0,887,40,1015,0,668,6,Few clouds,801,c02d,20,8,6.2
2022-09-14T15:00:00,21,20.1,5,5,101,844,38.4,619,d,0,887,35,1015,0,619,6,Few clouds,801,c02d,10,7,4.6
2022-09-14T16:00:00,20,18.9,5,3.7,94,807,32.7,524,d,0,887,34,1015,0,524,8,Few clouds,801,c02d,20,7.6,4.6
2022-09-14T17:00:00,20,18.9,11,3.7,84,741,25.1,392,d,0,887,34,1015,0,392,6,Few clouds,801,c02d,40,7.2,4.1
2022-09-14T18:00:00,19,17.9,16,4,68,626,16.5,238,d,0,887,37,1015,0,238,8,Few clouds,801,c02d,50,5.6,3.6
2022-09-14T19:00:00,19,18,74,4.7,42,396,7.2,83,d,0,887,39,1015,0,56,10,Overcast clouds,804,c04d,50,3.6,3.1
2022-09-14T20:00:00,17,17,44,4,0,0,-2.2,0,n,0,887,42,1016,0,0,13,Broken clouds,803,c03n,60,3.1,3.1
2022-09-14T21:00:00,15,15,24,3.8,0,0,-11.4,0,n,0,887,47,1016,0,0,13,Scattered clouds,802,c02n,80,3.6,3.6
2022-09-14T22:00:00,14,14,24,4.8,0,0,-19.9,0,n,0,887,54,1016,0,0,13,Scattered clouds,802,c02n,70,3.2,3.1
2022-09-14T23:00:00,13,13,91,4.9,0,0,-27.2,0,n,0,887,58,1016,0,0,13,Overcast clouds,804,c04n,350,3.2,1.5
2022-09-15T00:00:00,12,12,91,5,0,0,-32.6,0,n,0,887,62,1016,0,0,13,Overcast clouds,804,c04n,265,3.2,1
2022-09-15T01:00:00,12,12,4,5,0,0,-35.7,0,n,0,887,62,1016,0,0,13,Few clouds,801,c02n,175,2.8,2
2022-09-15T02:00:00,10,10,2,5,0,0,-35.7,0,n,0,887,71,1016,0,0,13,Few clouds,801,c02n,90,3.1,3.1
2022-09-15T03:00:00,10,10,2,5,0,0,-32.9,0,n,0,887,71,1016,0,0,13,Few clouds,801,c02n,10,2.4,1.5
2022-09-15T04:00:00,9,9,5,5,0,0,-27.5,0,n,0,887,76,1016,0,0,13,Few clouds,801,c02n,350,2.4,1.5
2022-09-15T05:00:00,9,9,83,5,0,0,-20.3,0,n,0,887,76,1016,0,0,13,Overcast clouds,804,c04n,305,3.2,1
2022-09-15T06:00:00,9,9,0,3.8,0,0,-11.9,0,n,0,887,70,1016,0,0,13,Clear Sky,800,c01n,255,3.2,1
2022-09-15T07:00:00,10,10,81,6,0,0,-2.7,0,n,0,887,76,1016,0,0,13,Overcast clouds,804,c04n,210,3.2,1.5
2022-09-15T08:00:00,10,10,3,6,41,376,6.7,75,d,0,887,76,1016,0,75,10,Few clouds,801,c02d,210,3.2,2.1
2022-09-15T09:00:00,10,10,84,6.9,67,616,15.9,229,d,0,887,81,1016,0,115,10,Overcast clouds,804,c04d,200,4.4,1.5
2022-09-15T10:00:00,13,13,0,6.8,83,735,24.6,383,d,0,887,66,1016,0,383,10,Clear Sky,800,c01d,180,6,2.6
2022-09-15T11:00:00,16,16,0,8,94,803,32.1,515,d,0,887,59,1015,0,515,10,Clear Sky,800,c01d,180,7.6,3.1
2022-09-15T12:00:00,19,18.2,0,7.8,100,841,37.9,611,d,0,887,48,1015,0,611,10,Clear Sky,800,c01d,180,8.8,4.1
2022-09-15T13:00:00,20,19.2,0,7.7,103,859,41.1,662,d,0,887,45,1014,0,662,14,Clear Sky,800,c01d,190,8,3.1
2022-09-15T14:00:00,20,19.1,0,6,103,859,41.1,662,d,0,887,40,1014,0,662,14,Clear Sky,800,c01d,200,8,2.1
2022-09-15T15:00:00,22,21,12,3.6,100,842,38,613,d,0,887,30,1013,0,613,13,Few clouds,801,c02d,230,7.6,4.1
2022-09-15T16:00:00,22,21,33,3.6,94,804,32.3,517,d,0,887,30,1013,0,506,13,Scattered clouds,802,c02d,280,8,4.1
2022-09-15T17:00:00,22,21,80,2.7,83,737,24.8,386,d,0,887,28,1013,0,223,14,Overcast clouds,804,c04d,290,8,5.1
2022-09-15T18:00:00,22,20.9,78,0.5,67,620,16.1,232,d,0,887,24,1013,0,142,14,Overcast clouds,804,c04d,270,4.1,4.1
2022-09-15T19:00:00,21,19.8,76,0.8,41,383,6.8,78,d,0,887,26,1013,0,50,16,Overcast clouds,804,c04d,290,4.1,4.1
2022-09-15T20:00:00,19,17.8,38,1.9,0,0,-2.6,0,n,0,887,32,1013,0,0,16,Scattered clouds,802,c02n,260,2.1,2.1
2022-09-15T21:00:00,16,16,6,2.8,0,0,-11.8,0,n,0,887,41,1014,0,0,16,Few clouds,801,c02n,285,2.8,2.8
2022-09-15T22:00:00,16,16,5,2.8,0,0,-20.3,0,n,0,887,41,1014,0,0,16,Few clouds,801,c02n,310,5.1,5.1
2022-09-15T23:00:00,12,12,4,4,0,0,-27.5,0,n,0,887,58,1014,0,0,16,Few clouds,801,c02n,30,3.6,3.1
2022-09-16T00:00:00,15,15,2,5,0,0,-33,0,n,0,887,51,1014,0,0,16,Few clouds,801,c02n,280,3.6,2.6
2022-09-16T01:00:00,13,13,25,4.9,0,0,-36,0,n,0,887,58,1013,0,0,16,Scattered clouds,802,c02n,260,4.8,3.1
2022-09-16T02:00:00,13,13,24,5.9,0,0,-36.1,0,n,0,887,62,1013,0,0,16,Scattered clouds,802,c02n,300,4.4,3.6
2022-09-16T03:00:00,11,11,82,6,0,0,-33.2,0,n,0,887,71,1013,0,0,16,Overcast clouds,804,c04n,265,4.4,2.4
2022-09-16T04:00:00,10,10,96,5,0,0,-27.8,0,n,0,890,71,1013,0,0,16,Overcast clouds,804,c04n,230,4.4,1.5
2022-09-16T05:00:00,10,10,94,4,0,0,-20.6,0,n,0.25,889,66,1013,0,0,16,Overcast clouds,804,c04n,215,4.4,1
2022-09-16T06:00:00,10,10,93,5,0,0,-12.1,0,n,0.75,889,71,1013,0,0,16,Light rain,500,r01n,195,4.4,1
2022-09-16T07:00:00,9,9,92,5,0,0,-3,0,n,0,889,76,1013,0,0,16,Overcast clouds,804,c04n,180,4,1.5
2022-09-16T08:00:00,9,9,92,3.8,40,366,6.4,72,d,0,888,70,1013,0,63,16,Overcast clouds,804,c04d,190,4,2.4
2022-09-16T09:00:00,10,10,91,5,66,612,15.6,224,d,0,888,71,1013,0,78,16,Overcast clouds,804,c04d,200,4,1.5
2022-09-16T10:00:00,13,13,94,4.9,82,733,24.3,378,d,0,889,58,1013,0,102,16,Overcast clouds,804,c04d,210,3.6,2.1
2022-09-16T11:00:00,16,16,54,5,93,801,31.8,510,d,0,889,48,1013,0,454,16,Broken clouds,803,c03d,250,3.2,2.6
2022-09-16T12:00:00,18,18,88,3.9,100,840,37.6,606,d,0,890,39,1011,0,253,16,Overcast clouds,804,c04d,200,3.6,2.1
2022-09-16T13:00:00,19,17.8,83,2.8,103,858,40.7,656,d,0,891,34,1011,0,343,16,Overcast clouds,804,c04d,180,5.6,2.6
2022-09-16T14:00:00,20,18.9,2,2.8,103,858,40.7,657,d,0,890,32,1010,0,657,16,Few clouds,801,c02d,170,6.4,2.1
2022-09-16T15:00:00,21,19.9,2,1.8,100,840,37.6,607,d,0,890,28,1009,0,607,16,Few clouds,801,c02d,130,6,2.6
2022-09-16T16:00:00,21,19.9,5,1.8,93,802,31.9,511,d,0,890,28,1009,0,511,16,Few clouds,801,c02d,130,6.4,2.6
2022-09-16T17:00:00,20,18.8,12,1.9,83,734,24.4,379,d,0,889,30,1008,0,379,16,Few clouds,801,c02d,140,6,1.5
2022-09-16T18:00:00,20,18.8,13,1.9,66,614,15.7,226,d,0,889,30,1008,0,226,16,Few clouds,801,c02d,165,5.6,1
2022-09-16T19:00:00,20,18.9,6,2.8,40,369,6.5,73,d,0,888,32,1008,0,73,16,Few clouds,801,c02d,190,3.6,2.6
2022-09-16T20:00:00,18,18,46,2.7,0,0,-3,0,n,0,888,36,1008,0,0,16,Broken clouds,803,c03n,290,6.2,6.2
2022-09-16T21:00:00,15,15,1,2.9,0,0,-12.1,0,n,0,887,44,1008,0,0,16,Clear Sky,800,c01n,275,4.4,2.8
2022-09-16T22:00:00,16,16,0,2.8,0,0,-20.6,0,n,0,886,41,1008,0,0,16,Clear Sky,800,c01n,260,5.6,2.6
2022-09-16T23:00:00,13,13,0,3.9,0,0,-27.9,0,n,0,886,54,1007,0,0,16,Clear Sky,800,c01n,210,6,2.6
2022-09-17T00:00:00,12,12,1,3,0,0,-33.4,0,n,0,885,54,1007,0,0,16,Clear Sky,800,c01n,220,5.6,2.1
2022-09-17T01:00:00,12,12,1,3,0,0,-36.4,0,n,0,884,54,1007,0,0,16,Clear Sky,800,c01n,240,4.4,2.6
2022-09-17T02:00:00,12,12,1,3,0,0,-36.5,0,n,0,884,54,1007,0,0,16,Clear Sky,800,c01n,280,9,1.5
2022-09-17T03:00:00,13,13,1,0.7,0,0,-33.5,0,n,0,885,43,1007,0,0,16,Clear Sky,800,c01n,320,9,5.7
2022-09-17T04:00:00,13,13,16,0.7,0,0,-28.1,0,n,0,885,43,1008,0,0,16,Few clouds,801,c02n,310,8,5.7
2022-09-17T05:00:00,13,13,23,-2.1,0,0,-20.8,0,n,0,886,35,1008,0,0,16,Scattered clouds,802,c02n,300,9,5.7
2022-09-17T06:00:00,9,9,44,-5.6,0,0,-12.4,0,n,0,886,35,1010,0,0,16,Broken clouds,803,c03n,350,5.2,4.1
2022-09-17T07:00:00,7,4,44,4,0,0,-3.2,0,n,0,885,81,1011,0,0,16,Broken clouds,803,c03n,330,4.8,4.6
2022-09-17T08:00:00,7,4,58,4,39,357,6.2,68,d,0,885,81,1011,0,58,16,Broken clouds,803,c03d,340,5.2,4.6
2022-09-17T09:00:00,9,9,5,3,66,608,15.4,220,d,0,890,66,1012,0,220,16,Few clouds,801,c02d,360,6.8,5.1
2022-09-17T10:00:00,10,10,21,2.8,82,730,24,373,d,0,887,61,1012,0,371,16,Scattered clouds,802,c02d,340,8,4.6
2022-09-17T11:00:00,11,11,25,1.8,93,799,31.5,505,d,0,887,53,1012,0,501,16,Scattered clouds,802,c02d,40,7.6,2.6
2022-09-17T12:00:00,13,13,20,2,100,838,37.2,601,d,0,887,47,1012,0,599,16,Few clouds,801,c02d,60,6.8,2.1
2022-09-17T13:00:00,14,14,31,2,103,856,40.3,651,d,0,888,44,1012,0,640,16,Scattered clouds,802,c02d,90,4.8,2.1
2022-09-17T14:00:00,16,16,64,1.7,103,856,40.3,651,d,0,888,38,1011,0,523,16,Broken clouds,803,c03d,120,5.2,1.2
2022-09-17T15:00:00,17,17,69,0.6,100,838,37.2,601,d,0,889,33,1011,0,448,16,Broken clouds,803,c03d,150,6,2.1
2022-09-17T16:00:00,18,18,94,0.6,93,799,31.5,505,d,0,889,31,1011,0,137,16,Overcast clouds,804,c04d,130,7.2,4.6
2022-09-17T17:00:00,17,17,79,0.6,82,730,24,373,d,0,890,33,1010,0,222,16,Overcast clouds,804,c04d,180,8.4,2.1
2022-09-17T18:00:00,17,17,100,0.6,65,608,15.4,219,d,0,889,33,1011,0,87,16,Overcast clouds,804,c04d,110,8,2.6
2022-09-17T19:00:00,16,16,81,1,39,355,6.1,67,d,0,889,36,1011,0,77,16,Overcast clouds,804,c04d,100,6.4,4.6
2022-09-17T20:00:00,13,13,23,0.7,0,0,-3.3,0,n,0,888,43,1012,0,0,16,Scattered clouds,802,c02n,100,5.2,3.6
2022-09-17T21:00:00,12,12,51,0.8,0,0,-12.5,0,n,0,888,46,1012,0,0,16,Broken clouds,803,c03n,110,4,3.1
2022-09-17T22:00:00,11,11,17,-0.2,0,0,-21,0,n,0,888,46,1013,0,0,16,Few clouds,801,c02n,100,3.6,3.6
2022-09-17T23:00:00,11,11,52,-1.1,0,0,-28.3,0,n,0,886,43,1013,0,0,16,Broken clouds,803,c03n,140,3.2,2.6
2022-09-18T00:00:00,10,10,25,-1.1,0,0,-33.8,0,n,0,888,46,1013,0,0,16,Scattered clouds,802,c02n,240,3.2,1
2022-09-18T01:00:00,8,8,46,-2.9,0,0,-36.8,0,n,0,888,46,1014,0,0,16,Broken clouds,803,c03n,340,2.6,2.6
2022-09-18T02:00:00,6,3,47,-1.9,0,0,-36.8,0,n,0,892,57,1014,0,0,16,Broken clouds,803,c03n,10,4.1,4.1
2022-09-18T03:00:00,5,2.1,92,-1,0,0,-33.9,0,n,0,887,65,1014,0,0,16,Overcast clouds,804,c04n,340,3.6,3.6
2022-09-18T04:00:00,5,2.8,44,0,0,0,-28.4,0,n,0,885,70,1014,0,0,16,Broken clouds,803,c03n,350,2.6,2.6
2022-09-18T05:00:00,4,1.2,51,-1,0,0,-21.1,0,n,0,886,70,1015,0,0,16,Broken clouds,803,c03n,350,3.6,3.1
2022-09-18T06:00:00,4,1.6,80,0,0,0,-12.6,0,n,0,884,75,1015,0,0,16,Overcast clouds,804,c04n,350,3.6,2.6
2022-09-18T07:00:00,3,0.4,80,-1,0,0,-3.5,0,n,0,886,75,1015,0,0,16,Overcast clouds,804,c04n,350,3.2,2.6
2022-09-18T08:00:00,4,2.2,50,0.9,38,346,5.9,65,d,0,886,80,1016,0,59,16,Broken clouds,803,c03d,305,4,2
2022-09-18T09:00:00,7,5.7,95,1.9,65,604,15.1,216,d,0,887,70,1016,0,118,16,Overcast clouds,804,c04d,255,5.2,2
2022-09-18T10:00:00,10,10,41,1.9,82,727,23.8,369,d,0,888,57,1015,0,353,16,Broken clouds,803,c03d,210,6,1.5
2022-09-18T11:00:00,12,12,19,1.9,93,797,31.2,500,d,0,889,50,1014,0,498,16,Few clouds,801,c02d,265,6.4,1.6
2022-09-18T12:00:00,14,14,20,1,99,837,36.9,595,d,0,890,41,1014,0,593,16,Few clouds,801,c02d,320,6.8,1.5
2022-09-18T13:00:00,15,15,79,0.8,103,855,40,645,d,0,890,38,1014,0,385,16,Overcast clouds,804,c04d,225,4.8,1.2
2022-09-18T14:00:00,17,17,93,2.6,102,854,39.9,645,d,0,890,38,1013,0,191,16,Overcast clouds,804,c04d,135,4.4,2.6
2022-09-18T15:00:00,18,18,92,0.6,99,836,36.8,594,d,0,890,31,1012,0,191,16,Overcast clouds,804,c04d,40,7,2.1
2022-09-18T16:00:00,18,18,83,0.6,92,797,31.1,498,d,0,890,31,1011,0,260,16,Overcast clouds,804,c04d,130,7,4.1
2022-09-18T17:00:00,17,17,87,0.6,81,726,23.6,366,d,0,889,33,1011,0,161,16,Overcast clouds,804,c04d,180,6.4,3.1
2022-09-18T18:00:00,17,17,86,0.6,65,601,15,213,d,0,888,33,1010,0,98,16,Overcast clouds,804,c04d,130,6.8,3.6
2022-09-18T19:00:00,16,16,91,1,37,340,5.8,62,d,0,887,36,1010,0,59,16,Overcast clouds,804,c04d,120,4.8,3.6
2022-09-18T20:00:00,15,15,95,1.9,0,0,-3.7,0,n,0,887,41,1010,0,0,16,Overcast clouds,804,c04n,110,4,3.6
2022-09-18T21:00:00,14,14,94,2,0,0,-12.9,0,n,0,886,44,1010,0,0,16,Overcast clouds,804,c04n,120,4,2.6
2022-09-18T22:00:00,14,14,93,2,0,0,-21.4,0,n,0,886,44,1009,0,0,16,Overcast clouds,804,c04n,110,3.6,3.1
2022-09-18T23:00:00,14,14,94,2,0,0,-28.7,0,n,0,886,44,1009,0,0,16,Overcast clouds,804,c04n,130,3.2,2.6
2022-09-19T00:00:00,12,12,94,1.9,0,0,-34.2,0,n,0,886,50,1008,0,0,16,Overcast clouds,804,c04n,90,2.8,1.5
2022-09-19T01:00:00,11,11,90,1.8,0,0,-37.2,0,n,0.25,885,53,1008,0,0,16,Overcast clouds,804,c04n,360,2.1,2.1
2022-09-19T02:00:00,10,10,86,1.9,0,0,-37.2,0,n,0,884,57,1007,0,0,16,Overcast clouds,804,c04n,360,1.6,0.8
2022-09-19T03:00:00,9,9,93,1.9,0,0,-34.2,0,n,0,883,61,1007,0,0,16,Overcast clouds,804,c04n,360,2.1,2.1
2022-09-19T04:00:00,9,9,91,1.9,0,0,-28.7,0,n,0,883,61,1007,0,0,16,Overcast clouds,804,c04n,330,2.6,2.6
2022-09-19T05:00:00,9,9,86,1.9,0,0,-21.4,0,n,0,883,61,1007,0,0,16,Overcast clouds,804,c04n,330,12,3.1
2022-09-19T06:00:00,9,9,91,1.9,0,0,-12.9,0,n,0,883,61,1008,0,0,16,Overcast clouds,804,c04n,340,13,9.3
2022-09-19T07:00:00,8,8,94,4.9,0,0,-3.7,0,n,0,883,81,1010,0,0,11,Overcast clouds,804,c04n,350,16,11.3
2022-09-19T08:00:00,8,8,90,6,37,336,5.7,61,d,0,884,87,1011,0,60,6,Overcast clouds,804,c04d,350,14,11.8
2022-09-19T09:00:00,8,8,93,6,64,599,14.9,211,d,0,890,87,1012,0,127,16,Overcast clouds,804,c04d,350,12,8.2
2022-09-19T10:00:00,7,3,94,5.9,81,725,23.5,364,d,0,891,93,1012,0,99,16,Overcast clouds,804,c04d,340,9,7.2
2022-09-19T11:00:00,8,8,82,4.9,92,795,30.9,495,d,0,885,81,1013,0,268,16,Overcast clouds,804,c04d,340,13,9.8
2022-09-19T12:00:00,8,8,84,4.9,99,835,36.5,590,d,0,887,81,1014,0,296,16,Overcast clouds,804,c04d,360,11,8.2
2022-09-19T13:00:00,7,3,90,5,102,853,39.6,640,d,0,886,87,1015,0,237,8,Overcast clouds,804,c04d,340,10,7.2
2022-09-19T14:00:00,7,3,90,5,102,853,39.5,639,d,0.25,888,87,1016,0,237,8,Overcast clouds,804,c04d,320,9,7.2
2022-09-19T15:00:00,6,2.8,90,5,99,834,36.4,588,d,0,894,93,1017,0,218,8,Overcast clouds,804,c04d,310,8,4.6
2022-09-19T16:00:00,8,8,92,4.9,92,794,30.8,492,d,0,889,81,1018,0,159,10,Overcast clouds,804,c04d,340,8,5.1
2022-09-19T17:00:00,9,9,84,5,81,722,23.3,360,d,0,897,76,1018,0,181,16,Overcast clouds,804,c04d,350,8,5.7
2022-09-19T18:00:00,10,10,87,2.8,64,595,14.6,207,d,0,891,61,1019,0,91,16,Overcast clouds,804,c04d,350,8,5.7
2022-09-19T19:00:00,8,8,48,1.8,36,324,5.4,57,d,0,892,65,1020,0,53,16,Broken clouds,803,c03d,340,8.4,4.6
2022-09-19T20:00:00,8,8,91,1.8,0,0,-4,0,n,0,892,65,1021,0,0,16,Overcast clouds,804,c04n,330,6,3.1
2022-09-19T21:00:00,7,3.8,44,1.9,0,0,-13.2,0,n,0,893,70,1022,0,0,16,Broken clouds,803,c03n,330,5.6,5.1
2022-09-19T22:00:00,6,3.6,46,1.9,0,0,-21.8,0,n,0,893,75,1023,0,0,16,Broken clouds,803,c03n,330,6.8,3.1
2022-09-19T23:00:00,5,2.1,84,0.9,0,0,-29.1,0,n,0,893,75,1024,0,0,16,Overcast clouds,804,c04n,320,7.6,3.6
2022-09-20T00:00:00,4,0.3,80,0.9,0,0,-34.6,0,n,0,894,80,1024,0,0,16,Overcast clouds,804,c04n,320,8.4,4.6
2022-09-20T01:00:00,4,1.2,47,0.9,0,0,-37.6,0,n,0,893,80,1025,0,0,16,Broken clouds,803,c03n,330,6.8,3.1
2022-09-20T02:00:00,4,0.6,46,0,0,0,-37.6,0,n,0,894,75,1026,0,0,16,Broken clouds,803,c03n,330,6.4,4.1
2022-09-20T03:00:00,3,-0.7,45,-1,0,0,-34.6,0,n,0,894,75,1026,0,0,16,Broken clouds,803,c03n,350,5.6,4.1
2022-09-20T04:00:00,4,0.6,46,0.9,0,0,-29,0,n,0,894,80,1026,0,0,16,Broken clouds,803,c03n,340,5.2,4.1
2022-09-20T05:00:00,4,1.2,46,0,0,0,-21.7,0,n,0,895,75,1026,0,0,16,Broken clouds,803,c03n,340,4.8,3.1
2022-09-20T06:00:00,2,-1.6,47,-1.1,0,0,-13.1,0,n,0,895,80,1026,0,0,16,Broken clouds,803,c03n,340,4.4,3.6
2022-09-20T07:00:00,3,-0.3,48,-1.2,0,0,-4,0,n,0,894,74,1027,0,0,16,Broken clouds,803,c03n,330,4.4,3.6
2022-09-20T08:00:00,4,0.9,49,-1.2,36,325,5.4,58,d,0,895,69,1028,0,53,16,Broken clouds,803,c03d,320,4.8,3.6
2022-09-20T09:00:00,5,2.1,42,-0.2,64,595,14.6,207,d,0,896,69,1028,0,197,16,Broken clouds,803,c03d,330,6,3.6
2022-09-20T10:00:00,7,4.3,5,0.9,81,722,23.2,359,d,0,897,65,1028,0,359,16,Few clouds,801,c02d,340,7,4.1
2022-09-20T11:00:00,9,9,5,1,92,793,30.6,490,d,0,898,57,1028,0,490,16,Few clouds,801,c02d,350,7,4.6
2022-09-20T12:00:00,10,10,5,1.9,99,833,36.2,585,d,0,899,57,1028,0,585,16,Few clouds,801,c02d,350,8,5.1
2022-09-20T13:00:00,11,11,5,1,102,851,39.2,634,d,0,899,50,1027,0,634,16,Few clouds,801,c02d,350,6.8,4.1
2022-09-20T14:00:00,12,12,5,-1.2,102,851,39.2,633,d,0,899,40,1027,0,633,16,Few clouds,801,c02d,320,6.8,2.1
2022-09-20T15:00:00,12,12,5,-2.2,98,832,36,582,d,0,899,37,1026,0,582,16,Few clouds,801,c02d,290,6,4.1
2022-09-20T16:00:00,13,13,5,-1.3,91,791,30.4,486,d,0,899,37,1026,0,486,16,Few clouds,801,c02d,30,4.8,1.5
2022-09-20T17:00:00,13,13,0,-2.1,80,718,22.9,354,d,0,899,35,1026,0,354,16,Clear Sky,800,c01d,120,3.6,1.5
2022-09-20T18:00:00,13,13,0,-3.3,63,588,14.3,201,d,0,899,32,1026,0,201,16,Clear Sky,800,c01d,50,3.2,2.1
2022-09-20T19:00:00,13,13,0,-3.3,34,307,5,52,d,0,899,32,1026,0,52,16,Clear Sky,800,c01d,140,2.8,2.1
2022-09-20T20:00:00,10,10,0,-1.1,0,0,-4.4,0,n,0,899,46,1027,0,0,16,Clear Sky,800,c01n,160,4.1,4.1
2022-09-20T21:00:00,8,8,0,-1,0,0,-13.6,0,n,0,898,53,1027,0,0,16,Clear Sky,800,c01n,160,3.6,3.6
2022-09-20T22:00:00,8,8,0,-1,0,0,-22.1,0,n,0,898,53,1027,0,0,16,Clear Sky,800,c01n,160,3.6,2.6
2022-09-20T23:00:00,6,4,0,-1.2,0,0,-29.5,0,n,0,898,60,1027,0,0,16,Clear Sky,800,c01n,170,3.6,2.6
2022-09-21T00:00:00,6,4.4,0,-1.2,0,0,-35,0,n,0,897,60,1027,0,0,16,Clear Sky,800,c01n,170,3.6,2.1
2022-09-21T01:00:00,6,4.4,0,-0.5,0,0,-38,0,n,0,1000,63,1027,0,0,16,Clear Sky,800,c01n,170,3.6,2.1
2022-09-21T02:00:00,4,2.8,0,-2,0,0,-38,0,n,0,1000,65,1027,0,0,16,Clear Sky,800,c01n,180,3.6,1.5
2022-09-21T03:00:00,4,1.6,0,-1.6,0,0,-34.9,0,n,0,1000,67,1027,0,0,16,Clear Sky,800,c01n,210,3.6,2.6
2022-09-21T04:00:00,3,0.4,0,-2.3,0,0,-29.4,0,n,0,1000,68,1027,0,0,16,Clear Sky,800,c01n,210,3.6,2.6
2022-09-21T05:00:00,1,-1.4,46,-1.1,0,0,-22,0,n,0,896,86,1027,0,0,16,Broken clouds,803,c03n,210,3.6,2.1
2022-09-21T06:00:00,1,-1.4,48,-1.1,0,0,-13.4,0,n,0,895,86,1027,0,0,16,Broken clouds,803,c03n,210,3.6,2.1
2022-09-21T07:00:00,2,-0.7,49,-1.1,0,0,-4.2,0,n,0,895,80,1027,0,0,16,Broken clouds,803,c03n,220,4,2.6
2022-09-21T08:00:00,1,-1.4,50,-1.1,35,314,5.2,54,d,0,895,86,1027,0,49,16,Broken clouds,803,c03d,200,5.2,2.1
2022-09-21T09:00:00,4,2.1,44,1.9,63,590,14.4,202,d,0,895,86,1027,0,191,16,Broken clouds,803,c03d,190,6.8,2.1
2022-09-21T10:00:00,7,4.3,0,0.9,80,719,22.9,354,d,0,896,65,1027,0,354,16,Clear Sky,800,c01d,180,8.4,4.1
2022-09-21T11:00:00,10,10,0,0.9,91,791,30.3,485,d,0,897,53,1026,0,485,16,Clear Sky,800,c01d,180,10.4,5.7
2022-09-21T12:00:00,13,13,0,0.7,98,832,35.8,579,d,0,898,43,1025,0,579,16,Clear Sky,800,c01d,180,11,7.2
2022-09-21T13:00:00,15,15,0,0.8,102,850,38.8,628,d,0,899,38,1024,0,628,16,Clear Sky,800,c01d,180,11,8.8
2022-09-21T14:00:00,16,16,0,1.7,101,849,38.8,627,d,0,899,38,1024,0,627,16,Clear Sky,800,c01d,180,12,8.8
2022-09-21T15:00:00,16,16,0,1,98,830,35.6,576,d,0,899,36,1023,0,576,16,Clear Sky,800,c01d,170,12,8.2
2022-09-21T16:00:00,16,16,0,1,91,789,30,479,d,0,898,36,1023,0,479,16,Clear Sky,800,c01d,180,13,10.3
2022-09-21T17:00:00,16,16,0,1,80,714,22.5,347,d,0,898,36,1022,0,347,16,Clear Sky,800,c01d,170,13,10.3
2022-09-21T18:00:00,16,16,0,1.7,62,581,13.9,195,d,0,897,38,1022,0,195,16,Clear Sky,800,c01d,170,10,7.2
2022-09-21T19:00:00,14,14,0,1,33,290,4.7,47,d,0,897,41,1021,0,47,16,Clear Sky,800,c01n,160,11,8.2
2022-09-21T20:00:00,13,13,0,0.7,0,0,-4.7,0,n,0,895,43,1021,0,0,16,Clear Sky,800,c01n,170,8,5.7
2022-09-21T21:00:00,11,11,0,1,0,0,-13.9,0,n,0,895,50,1021,0,0,16,Clear Sky,800,c01n,170,7.2,5.1
2022-09-21T22:00:00,10,10,2,0.9,0,0,-22.5,0,n,0,894,53,1020,0,0,16,Few clouds,801,c02n,180,7.6,5.7
2022-09-21T23:00:00,9,9,1,1,0,0,-29.9,0,n,0,893,57,1019,0,0,16,Clear Sky,800,c01n,180,6.8,5.1
2022-09-22T00:00:00,9,9,5,1.9,0,0,-35.4,0,n,0,892,61,1018,0,0,16,Few clouds,801,c02n,170,6.8,6.2
2022-09-22T01:00:00,9,9,6,1.9,0,0,-38.4,0,n,0,892,61,1017,0,0,16,Few clouds,801,c02n,180,7,5.7
2022-09-22T02:00:00,8,8,18,1.8,0,0,-38.4,0,n,0,891,65,1016,0,0,16,Few clouds,801,c02n,180,7,5.1
2022-09-22T03:00:00,6,3,25,1,0,0,-35.3,0,n,0,890,70,1016,0,0,16,Scattered clouds,802,c02n,180,6,4.1
2022-09-22T04:00:00,5,2.4,93,0.9,0,0,-29.7,0,n,0,888,75,1015,0,0,16,Overcast clouds,804,c04n,180,5.6,3.1
2022-09-22T05:00:00,6,5.8,94,1,0,0,-22.2,0,n,0,887,70,1014,0,0,16,Overcast clouds,804,c04n,230,6,1
2022-09-22T06:00:00,6,4,95,1.9,0,0,-13.7,0,n,0,887,75,1014,0,0,16,Overcast clouds,804,c04n,200,5.2,2.6
2022-09-22T07:00:00,5,3.3,88,1.8,0,0,-4.5,0,n,0,887,80,1014,0,0,16,Overcast clouds,804,c04n,180,3.6,2.1
2022-09-22T08:00:00,5,2.8,53,1.8,34,302,4.9,51,d,0,886,80,1013,0,46,16,Broken clouds,803,c03d,170,4.8,2.6
2022-09-22T09:00:00,6,4,84,3,63,585,14.1,198,d,0,885,81,1013,0,99,16,Overcast clouds,804,c04d,150,5.6,2.6
2022-09-22T10:00:00,7,5.2,90,2.9,80,716,22.6,349,d,0,885,75,1012,0,129,16,Overcast clouds,804,c04d,180,5.2,2.6
2022-09-22T11:00:00,9,9,88,3,91,789,30,480,d,0,885,66,1011,0,200,16,Overcast clouds,804,c04d,220,5.2,2.1
2022-09-22T12:00:00,11,11,84,2.8,98,830,35.5,574,d,0,885,57,1010,0,288,16,Overcast clouds,804,c04d,210,5.2,3.6
2022-09-22T13:00:00,14,14,42,3.8,101,848,38.5,622,d,0,885,50,1009,0,593,16,Broken clouds,803,c03d,260,5.6,2.6
2022-09-22T14:00:00,16,16,86,3.8,101,847,38.4,621,d,0,886,44,1008,0,286,16,Overcast clouds,804,c04d,200,5.2,2.6
2022-09-22T15:00:00,15,15,94,3.8,98,828,35.2,569,d,0,886,47,1008,0,154,16,Overcast clouds,804,c04d,150,6,1.5
2022-09-22T16:00:00,16,16,92,3.8,91,786,29.6,473,d,0,886,44,1008,0,152,16,Overcast clouds,804,c04d,180,6.8,2.1
2022-09-22T17:00:00,16,16,91,5,79,710,22.1,341,d,0,884,48,1007,0,118,16,Overcast clouds,804,c04d,120,6.8,2.6
2022-09-22T18:00:00,15,15,90,5,61,574,13.5,188,d,0,885,51,1007,0,70,16,Overcast clouds,804,c04d,140,5.6,4.1
2022-09-22T19:00:00,14,14,87,4.8,31,272,4.3,43,d,0,885,54,1008,0,50,16,Overcast clouds,804,c04n,150,4.1,4.1
2022-09-22T20:00:00,11,11,82,4.9,0,0,-5.1,0,n,0,884,66,1008,0,0,16,Overcast clouds,804,c04n,180,3.2,3.1
2022-09-22T21:00:00,10,10,93,5,0,0,-14.3,0,n,0,883,71,1008,0,0,16,Overcast clouds,804,c04n,180,3.2,2.6
2022-09-22T22:00:00,9,9,83,5,0,0,-22.9,0,n,0,883,76,1008,0,0,16,Overcast clouds,804,c04n,180,3.2,3.1
2022-09-22T23:00:00,7,4.8,42,5,0,0,-30.3,0,n,0,882,87,1008,0,0,16,Broken clouds,803,c03n,190,3.2,3.1
2022-09-23T00:00:00,9,9,80,5,0,0,-35.8,0,n,0,881,76,1007,0,0,16,Overcast clouds,804,c04n,220,3.6,2.6
2022-09-23T01:00:00,8,8,11,3.8,0,0,-38.8,0,n,0,882,75,1007,0,0,16,Few clouds,801,c02n,200,6,1.5
2022-09-23T02:00:00,8,8,17,1.8,0,0,-38.7,0,n,0,882,65,1007,0,0,16,Few clouds,801,c02n,235,7.2,1
2022-09-23T03:00:00,11,11,14,-1.1,0,0,-35.6,0,n,0,882,43,1007,0,0,16,Few clouds,801,c02n,265,9,4.4
2022-09-23T04:00:00,15,15,0,-2,0,0,-30,0,n,0,883,31,1007,0,0,16,Clear Sky,800,c01n,300,9,5.7
2022-09-23T05:00:00,14,14,1,-2,0,0,-22.5,0,n,0,886,33,1008,0,0,16,Clear Sky,800,c01n,310,9,4.6
2022-09-23T06:00:00,15,15,0,-1.1,0,0,-13.9,0,n,0,886,33,1009,0,0,16,Clear Sky,800,c01n,310,9,6.7
2022-09-23T07:00:00,14,14,1,-1.2,0,0,-4.7,0,n,0,887,35,1010,0,0,16,Clear Sky,800,c01n,300,7.2,4.6
2022-09-23T08:00:00,12,12,1,-3,33,290,4.7,47,d,0,887,35,1011,0,47,16,Clear Sky,800,c01n,360,6.4,2.1
2022-09-23T09:00:00,17,17,0,4.3,62,580,13.8,194,d,0,887,43,1011,0,194,16,Clear Sky,800,c01d,310,6.2,6.2
2022-09-23T10:00:00,19,17.9,8,3.6,79,713,22.4,345,d,0,889,36,1012,0,345,16,Few clouds,801,c02d,330,5.1,5.1
2022-09-23T11:00:00,18,18,77,-1.3,91,787,29.7,474,d,0,891,27,1013,0,299,16,Overcast clouds,804,c04d,330,5.7,5.7
2022-09-23T12:00:00,19,17.8,81,1.9,98,828,35.2,568,d,0,891,32,1013,0,318,16,Overcast clouds,804,c04d,90,4.8,2.6
2022-09-23T13:00:00,19,17.8,85,1.9,101,846,38.1,617,d,0,892,32,1012,0,297,16,Overcast clouds,804,c04d,270,12,4.6
2022-09-23T14:00:00,18,18,94,0.6,101,846,38,615,d,0,891,31,1013,0,167,16,Overcast clouds,804,c04d,300,12,8.8
2022-09-23T15:00:00,18,18,85,0.6,97,826,34.8,563,d,0,890,31,1012,0,271,16,Overcast clouds,804,c04d,270,8,5.7
2022-09-23T16:00:00,19,17.8,51,1.5,90,783,29.2,466,d,0,891,31,1011,0,424,16,Broken clouds,803,c03d,280,11,6.7
2022-09-23T17:00:00,19,17.7,45,-0.4,78,706,21.8,334,d,0,891,27,1011,0,314,16,Broken clouds,803,c03d,270,12,6.2
2022-09-23T18:00:00,18,18,11,-1.3,61,567,13.2,182,d,0,891,27,1012,0,182,16,Few clouds,801,c02d,280,12,8.2
2022-09-23T19:00:00,16,16,8,-2,29,253,4,38,d,0,891,29,1012,0,38,16,Few clouds,801,c02n,270,12,7.2
2022-09-23T20:00:00,14,14,3,-2,0,0,-5.5,0,n,0,890,33,1013,0,0,16,Few clouds,801,c02n,280,6.8,6.2
2022-09-23T21:00:00,14,14,86,-0.1,0,0,-14.7,0,n,0,889,38,1013,0,0,16,Overcast clouds,804,c04n,280,10,6.7
2022-09-23T22:00:00,14,14,90,-0.1,0,0,-23.3,0,n,0,890,38,1013,0,0,16,Overcast clouds,804,c04n,280,8,6.2
2022-09-23T23:00:00,13,13,47,-1.3,0,0,-30.6,0,n,0,891,37,1014,0,0,16,Broken clouds,803,c03n,280,9,6.2
2022-09-24T00:00:00,13,13,100,-1.3,0,0,-36.2,0,n,0,890,37,1014,0,0,16,Overcast clouds,804,c04n,280,10,5.7
2022-09-24T01:00:00,14,14,86,0.6,0,0,-39.2,0,n,0,891,40,1014,0,0,16,Overcast clouds,804,c04n,280,10,6.7
2022-09-24T02:00:00,13,13,86,0.7,0,0,-39.1,0,n,0,891,43,1014,0,0,16,Overcast clouds,804,c04n,270,5.1,5.1
2022-09-24T03:00:00,13,13,49,0.7,0,0,-36,0,n,0,891,43,1015,0,0,16,Broken clouds,803,c03n,280,8,4.6
2022-09-24T04:00:00,14,14,84,1.6,0,0,-30.3,0,n,0,889,43,1015,0,0,16,Overcast clouds,804,c04n,290,8,5.7
2022-09-24T05:00:00,14,14,42,1,0,0,-22.8,0,n,0,893,41,1016,0,0,16,Broken clouds,803,c03n,280,5.6,4.6
2022-09-24T06:00:00,13,13,46,0.7,0,0,-14.2,0,n,0,893,43,1016,0,0,16,Broken clouds,803,c03n,280,8,5.1
2022-09-24T07:00:00,14,14,0,1.6,0,0,-5,0,n,0,893,43,1018,0,0,16,Clear Sky,800,c01n,280,9,5.1
2022-09-24T08:00:00,13,13,0,0.7,32,278,4.4,44,d,0,896,43,1019,0,44,16,Clear Sky,800,c01n,280,6,4.6
2022-09-24T09:00:00,14,14,0,1,62,575,13.6,189,d,0,894,41,1019,0,189,16,Clear Sky,800,c01d,280,6.4,5.7
2022-09-24T10:00:00,17,17,0,0.6,79,710,22.1,340,d,0,897,33,1020,0,340,16,Clear Sky,800,c01d,290,8.2,8.2
2022-09-24T11:00:00,18,18,0,1.9,90,785,29.4,469,d,0,897,34,1021,0,469,16,Clear Sky,800,c01d,20,8,5.7
2022-09-24T12:00:00,19,17.7,0,0.6,97,826,34.8,563,d,0,899,29,1021,0,563,16,Clear Sky,800,c01d,360,8,5.7
2022-09-24T13:00:00,19,17.7,1,0.6,100,845,37.7,611,d,0,899,29,1021,0,611,16,Clear Sky,800,c01d,315,12,3.6
2022-09-24T14:00:00,20,18.8,6,0.5,100,844,37.6,609,d,0,899,27,1021,0,609,16,Few clouds,801,c02d,275,6,1.5
2022-09-24T15:00:00,21,19.7,4,-2.1,97,824,34.4,557,d,0,900,21,1021,0,557,16,Few clouds,801,c02d,230,5.6,4.1
2022-09-24T16:00:00,21,19.7,12,-2.1,90,780,28.8,460,d,0,900,21,1021,0,460,16,Few clouds,801,c02d,300,8,5.7
2022-09-24T17:00:00,21,19.7,3,-3.5,78,702,21.4,327,d,0,904,19,1021,0,327,16,Few clouds,801,c02d,280,7,3.1
2022-09-24T18:00:00,21,19.7,3,-2.1,60,559,12.8,176,d,0,900,21,1021,0,176,16,Few clouds,801,c02d,290,6.2,6.2
2022-09-24T19:00:00,19,17.6,1,-2,28,233,3.6,33,d,0,901,24,1022,0,33,16,Clear Sky,800,c01n,300,4.6,4.6
2022-09-24T20:00:00,17,17,1,-1.1,0,0,-5.8,0,n,0,904,29,1023,0,0,16,Clear Sky,800,c01n,290,3.6,3.6
2022-09-24T21:00:00,15,15,1,-1.1,0,0,-15,0,n,0,904,33,1024,0,0,16,Clear Sky,800,c01n,290,3.2,1.5
2022-09-24T22:00:00,15,15,1,-1.1,0,0,-23.6,0,n,0,900,33,1024,0,0,16,Clear Sky,800,c01n,310,5.1,5.1
2022-09-24T23:00:00,12,12,1,-1.2,0,0,-31,0,n,0,904,40,1025,0,0,16,Clear Sky,800,c01n,30,3.2,2.1
2022-09-25T00:00:00,10,10,1,-1.1,0,0,-36.6,0,n,0,899,46,1025,0,0,16,Clear Sky,800,c01n,340,2.8,1
2022-09-25T01:00:00,9,9,0,-1.1,0,0,-39.6,0,n,0,899,49,1025,0,0,16,Clear Sky,800,c01n,360,5.2,2.6
2022-09-25T02:00:00,8,8,1,-2,0,0,-39.5,0,n,0,898,49,1025,0,0,16,Clear Sky,800,c01n,340,4.8,1
2022-09-25T03:00:00,8,8,24,-1,0,0,-36.3,0,n,0,898,53,1025,0,0,16,Scattered clouds,802,c02n,340,4.8,1.5
2022-09-25T04:00:00,5,3.3,5,-1,0,0,-30.6,0,n,0,898,65,1025,0,0,16,Few clouds,801,c02n,340,4.4,2.1
2022-09-25T05:00:00,8,8,7,1.8,0,0,-23.1,0,n,0,897,65,1025,0,0,16,Few clouds,801,c02n,330,4.4,3.1
2022-09-25T06:00:00,7,5,4,-0.9,0,0,-14.4,0,n,0,898,57,1026,0,0,16,Few clouds,801,c02n,335,4,2.8
2022-09-25T07:00:00,6,3.9,4,-0.9,0,0,-5.2,0,n,0,898,61,1026,0,0,16,Few clouds,801,c02n,335,4,2.8
2022-09-25T08:00:00,7,6.9,47,0.9,31,265,4.2,41,d,0,897,65,1026,0,38,16,Broken clouds,803,c03n,340,4.4,1
2022-09-25T09:00:00,9,9,80,1,61,570,13.3,185,d,0,897,57,1026,0,107,16,Overcast clouds,804,c04d,340,4.8,2.1
2022-09-25T10:00:00,13,13,10,-1.3,79,707,21.8,335,d,0,899,37,1025,0,335,16,Few clouds,801,c02d,340,4.4,3.1
2022-09-25T11:00:00,15,15,4,0.4,90,783,29,464,d,0,900,37,1025,0,464,16,Few clouds,801,c02d,275,4,1
2022-09-25T12:00:00,17,17,3,1.4,97,824,34.5,557,d,0,900,35,1024,0,557,16,Few clouds,801,c02d,205,4.4,0.4
2022-09-25T13:00:00,19,17.8,1,1.5,100,843,37.3,605,d,0,901,31,1024,0,605,16,Clear Sky,800,c01d,140,4,2.6
2022-09-25T14:00:00,20,18.8,1,0.5,100,842,37.2,603,d,0,906,27,1023,0,603,16,Clear Sky,800,c01d,190,4,2.1
2022-09-25T15:00:00,21,19.8,1,0.8,96,821,34,550,d,0,901,26,1022,0,550,16,Clear Sky,800,c01d,130,4,1.5
2022-09-25T16:00:00,22,20.9,1,0.5,89,777,28.4,453,d,0,901,24,1022,0,453,16,Clear Sky,800,c01d,150,4.4,2.1
2022-09-25T17:00:00,23,22,90,0.8,77,697,21,321,d,0,901,23,1022,0,119,16,Overcast clouds,804,c04d,50,5.2,1.5
2022-09-25T18:00:00,22,20.8,1,-1.3,59,551,12.4,170,d,0,901,21,1022,0,170,16,Clear Sky,800,c01d,150,7,2.6
2022-09-25T19:00:00,20,18.7,42,-1.7,26,213,3.2,29,d,0,901,23,1022,0,28,16,Broken clouds,803,c03n,130,7,3.6
2022-09-25T20:00:00,18,18,9,-1.8,0,0,-6.2,0,n,0,899,26,1022,0,0,16,Few clouds,801,c02n,130,4.8,4.1
2022-09-25T21:00:00,17,17,2,-1.1,0,0,-15.4,0,n,0,899,29,1022,0,0,16,Few clouds,801,c02n,200,4.4,2.1
2022-09-25T22:00:00,16,16,1,-1.1,0,0,-24,0,n,0,899,31,1022,0,0,16,Clear Sky,800,c01n,190,3.6,2.1
2022-09-25T23:00:00,14,14,5,1,0,0,-31.4,0,n,0,898,41,1022,0,0,16,Few clouds,801,c02n,180,3.2,1.5
2022-09-26T00:00:00,10,10,3,0.9,0,0,-37,0,n,0,902,53,1023,0,0,16,Few clouds,801,c02n,330,2.8,1.5
2022-09-26T01:00:00,9,9,1,1,0,0,-40,0,n,0,901,57,1023,0,0,16,Clear Sky,800,c01n,285,4.4,2.4
2022-09-26T02:00:00,8,8,1,1,0,0,-39.9,0,n,0,896,61,1023,0,0,16,Clear Sky,800,c01n,240,4.8,2.8
2022-09-26T03:00:00,8,8,1,1,0,0,-36.7,0,n,0,901,61,1023,0,0,16,Clear Sky,800,c01n,195,5.2,1
2022-09-26T04:00:00,9,9,1,1,0,0,-30.9,0,n,0,901,57,1023,0,0,16,Clear Sky,800,c01n,150,4.8,2.8
2022-09-26T05:00:00,8,8,1,1.8,0,0,-23.4,0,n,0,901,65,1023,0,0,16,Clear Sky,800,c01n,105,4.4,2.8
2022-09-26T06:00:00,7,6.9,1,2.9,0,0,-14.7,0,n,0,896,75,1023,0,0,16,Clear Sky,800,c01n,60,4,1
2022-09-26T07:00:00,8,8,1,2.9,0,0,-5.5,0,n,0,896,70,1024,0,0,16,Clear Sky,800,c01n,115,3.6,2.4
2022-09-26T08:00:00,9,9,1,3.8,29,251,3.9,37,d,0,901,70,1024,0,37,16,Clear Sky,800,c01n,170,3.2,1.5
2022-09-26T09:00:00,12,12,3,5,60,565,13.1,180,d,0,896,62,1024,0,180,16,Few clouds,801,c02d,185,3.6,1
2022-09-26T10:00:00,15,15,10,5,78,704,21.5,330,d,0,898,51,1024,0,330,16,Few clouds,801,c02d,200,3.2,1.5
2022-09-26T11:00:00,18,18,10,4.9,90,780,28.7,459,d,0,899,42,1024,0,459,16,Few clouds,801,c02d,210,4,1.5
2022-09-26T12:00:00,20,19,13,4.9,97,822,34.1,552,d,0,901,37,1024,0,552,16,Few clouds,801,c02d,190,5.2,1.5
2022-09-26T13:00:00,22,21.1,8,5,100,841,36.9,599,d,0,902,33,1023,0,599,16,Few clouds,801,c02d,190,6,1
2022-09-26T14:00:00,23,22.1,19,3.5,100,840,36.8,596,d,0,902,28,1023,0,594,16,Few clouds,801,c02d,190,7.6,3.6
2022-09-26T15:00:00,24,23.2,15,4.9,96,819,33.6,544,d,0,902,29,1022,0,543,16,Few clouds,801,c02d,190,8.4,4.6
2022-09-26T16:00:00,25,24.2,1,3.6,89,774,28,446,d,0,902,25,1021,0,446,16,Clear Sky,800,c01d,190,8,4.6
2022-09-26T17:00:00,25,24.2,1,2.4,77,693,20.6,314,d,0,901,23,1020,0,314,16,Clear Sky,800,c01d,190,8,5.7
2022-09-26T18:00:00,24,23.1,23,2.8,58,543,12.1,164,d,0,901,25,1020,0,163,16,Scattered clouds,802,c02d,170,7.2,5.1
2022-09-26T19:00:00,22,21,23,2.7,24,191,2.9,25,d,0,900,28,1019,0,25,16,Scattered clouds,802,c02n,160,5.6,5.1
2022-09-26T20:00:00,20,18.9,15,3.7,0,0,-6.5,0,n,0,899,34,1020,0,0,16,Few clouds,801,c02n,150,5.2,4.1
2022-09-26T21:00:00,18,18,1,3.9,0,0,-15.8,0,n,0,898,39,1019,0,0,16,Clear Sky,800,c01n,140,5.2,4.6
2022-09-26T22:00:00,16,16,25,3.8,0,0,-24.4,0,n,0,897,44,1019,0,0,16,Scattered clouds,802,c02n,190,5.2,2.6
2022-09-26T23:00:00,16,16,84,2.8,0,0,-31.8,0,n,0,896,41,1019,0,0,16,Overcast clouds,804,c04n,170,4.8,4.1
2022-09-27T00:00:00,16,16,72,2.8,0,0,-37.4,0,n,0,896,41,1018,0,0,16,Overcast clouds,804,c04n,150,4.6,4.6
2022-09-27T01:00:00,15,15,46,2.9,0,0,-40.4,0,n,0,896,44,1017,0,0,16,Broken clouds,803,c03n,150,3.6,3.6
2022-09-27T02:00:00,13,13,91,2.8,0,0,-40.2,0,n,0,895,50,1017,0,0,16,Overcast clouds,804,c04n,160,2.8,1.6
2022-09-27T03:00:00,12,12,0,3,0,0,-37,0,n,0,894,54,1017,0,0,16,Clear Sky,800,c01n,170,3.2,1.6
2022-09-27T04:00:00,11,11,0,4,0,0,-31.2,0,n,0,893,62,1016,0,0,16,Clear Sky,800,c01n,180,3.6,1
2022-09-27T05:00:00,9,9,0,3.8,0,0,-23.6,0,n,0,892,70,1016,0,0,16,Clear Sky,800,c01n,190,4.4,2.1
2022-09-27T06:00:00,12,12,1,5,0,0,-15,0,n,0,891,62,1016,0,0,16,Clear Sky,800,c01n,240,4.8,2.1
2022-09-27T07:00:00,13,13,0,4.9,0,0,-5.7,0,n,0,892,58,1016,0,0,16,Clear Sky,800,c01n,220,5.6,3.1
2022-09-27T08:00:00,15,15,0,3.8,28,238,3.7,34,d,0,893,47,1016,0,34,16,Clear Sky,800,c01n,250,6,2.1
2022-09-27T09:00:00,16,16,0,3.8,60,559,12.8,176,d,0,892,44,1016,0,176,16,Clear Sky,800,c01d,220,6.8,3.1
2022-09-27T10:00:00,18,18,0,5.9,78,701,21.2,325,d,0,894,45,1016,0,325,16,Clear Sky,800,c01d,190,6.4,2.6
2022-09-27T11:00:00,23,22.1,0,3.5,89,778,28.4,453,d,0,895,28,1016,0,453,16,Clear Sky,800,c01d,280,8,3.1
2022-09-27T12:00:00,24,23,0,1,96,820,33.8,546,d,0,897,22,1016,0,546,16,Clear Sky,800,c01d,280,8,5.1
2022-09-27T13:00:00,26,25.1,0,-1.7,99,839,36.6,593,d,0,897,16,1015,0,593,16,Clear Sky,800,c01d,290,6.8,4.6
2022-09-27T14:00:00,26,25.1,20,-1.7,99,838,36.4,590,d,0,898,16,1015,0,588,16,Few clouds,801,c02d,300,8,4.6
2022-09-27T15:00:00,26,25.1,9,-1.7,96,817,33.3,537,d,0,898,16,1014,0,537,16,Few clouds,801,c02d,310,8,5.7
2022-09-27T16:00:00,27,26,1,-1.8,88,771,27.6,440,d,0,897,15,1014,0,440,16,Clear Sky,800,c01d,270,8,4.1
2022-09-27T17:00:00,27,26,6,-1.8,76,688,20.3,308,d,0,897,15,1014,0,308,16,Few clouds,801,c02d,300,7.2,7.2
2022-09-27T18:00:00,26,25,8,-2.6,57,535,11.7,158,d,0,897,15,1013,0,158,16,Few clouds,801,c02d,290,3.1,3.1
2022-09-27T19:00:00,24,23,5,0.4,22,168,2.5,21,d,0,896,21,1014,0,43,16,Few clouds,801,c02n,230,3.6,2.9
2022-09-27T20:00:00,22,20.9,1,0.5,0,0,-6.9,0,n,0,896,24,1014,0,0,16,Clear Sky,800,c01n,170,4,2.6
2022-09-27T21:00:00,20,18.8,1,1,0,0,-16.1,0,n,0,895,28,1015,0,0,16,Clear Sky,800,c01n,190,4.4,2.1
2022-09-27T22:00:00,18,18,2,1.9,0,0,-24.7,0,n,0,898,34,1015,0,0,16,Few clouds,801,c02n,200,4.4,2.1
2022-09-27T23:00:00,16,16,6,2.8,0,0,-32.2,0,n,0,894,41,1015,0,0,16,Few clouds,801,c02n,180,4,2.6
2022-09-28T00:00:00,15,15,5,2.9,0,0,-37.8,0,n,0,893,44,1015,0,0,16,Few clouds,801,c02n,185,4,1
2022-09-28T01:00:00,14,14,0,2,0,0,-40.8,0,n,0,893,44,1014,0,0,16,Clear Sky,800,c01n,190,4.8,2.6
2022-09-28T02:00:00,13,13,0,2,0,0,-40.6,0,n,0,893,47,1014,0,0,16,Clear Sky,800,c01n,220,4.8,1.5
2022-09-28T03:00:00,11,11,0,1.8,0,0,-37.3,0,n,0,892,53,1014,0,0,16,Clear Sky,800,c01n,220,4.8,2.6
2022-09-28T04:00:00,9,9,0,1.9,0,0,-31.5,0,n,0,891,61,1015,0,0,16,Clear Sky,800,c01n,200,4.8,2.1
2022-09-28T05:00:00,10,10,20,1.9,0,0,-23.9,0,n,0,890,57,1014,0,0,16,Few clouds,801,c02n,200,5.2,3.1
2022-09-28T06:00:00,11,11,5,1.8,0,0,-15.2,0,n,0,891,53,1014,0,0,16,Few clouds,801,c02n,210,5.2,3.1
2022-09-28T07:00:00,10,10,8,1.9,0,0,-6,0,n,0,891,57,1015,0,0,16,Few clouds,801,c02n,210,5.6,2.1
2022-09-28T08:00:00,10,10,1,1.9,27,223,3.4,31,d,0,890,57,1015,0,31,16,Clear Sky,800,c01n,220,5.6,2.1
2022-09-28T09:00:00,12,12,24,3,59,554,12.5,172,d,0,890,54,1015,0,171,16,Scattered clouds,802,c02d,210,6,1.5
2022-09-28T10:00:00,16,16,1,3.8,77,698,20.9,320,d,0,891,44,1015,0,320,16,Clear Sky,800,c01d,130,5.6,1.5
2022-09-28T11:00:00,19,17.9,1,4,89,776,28.1,448,d,0,893,37,1015,0,448,16,Clear Sky,800,c01d,140,4.4,1.5
2022-09-28T12:00:00,23,22.1,0,3.5,96,818,33.4,540,d,0,894,28,1015,0,540,16,Clear Sky,800,c01d,135,3.6,1
2022-09-28T13:00:00,24,23.1,1,2.8,99,837,36.2,587,d,0,896,25,1014,0,587,16,Clear Sky,800,c01d,135,3.6,1
2022-09-28T14:00:00,26,25.2,8,2,99,836,36,584,d,0,896,21,1014,0,584,16,Few clouds,801,c02d,130,3.6,2.6
2022-09-28T15:00:00,28,26.7,25,1.5,95,814,32.8,531,d,0,896,18,1013,0,527,16,Scattered clouds,802,c02d,90,3.6,3.1
2022-09-28T16:00:00,28,26.7,24,0.7,88,768,27.3,433,d,0,897,17,1013,0,430,16,Scattered clouds,802,c02d,50,3.6,1.5
2022-09-28T17:00:00,26,25.1,2,-1.7,75,684,19.9,301,d,0,896,16,1013,0,301,16,Few clouds,801,c02d,50,3.6,1.5
2022-09-28T18:00:00,26,25.2,13,2,56,526,11.4,152,d,0,895,21,1013,0,152,16,Few clouds,801,c02d,80,3.2,3.1
2022-09-28T19:00:00,22,20.9,24,1.6,20,145,2.2,17,d,0,895,26,1013,0,37,16,Scattered clouds,802,c02n,90,4.1,4.1
2022-09-28T20:00:00,22,20.9,25,0.5,0,0,-7.2,0,n,0,894,24,1014,0,0,16,Scattered clouds,802,c02n,100,4.1,4.1
2022-09-28T21:00:00,18,18,82,1.9,0,0,-16.5,0,n,0,894,34,1014,0,0,16,Overcast clouds,804,c04n,70,4,1.5
2022-09-28T22:00:00,16,16,23,2.8,0,0,-25.1,0,n,0,893,41,1014,0,0,16,Scattered clouds,802,c02n,10,3.6,1.5
2022-09-28T23:00:00,18,18,83,2.7,0,0,-32.6,0,n,0,892,36,1013,0,0,16,Overcast clouds,804,c04n,170,2.8,1
2022-09-29T00:00:00,15,15,93,2.9,0,0,-38.2,0,n,0,891,44,1013,0,0,16,Overcast clouds,804,c04n,330,2,1
2022-09-29T01:00:00,14,14,94,3.8,0,0,-41.2,0,n,0,892,50,1013,0,0,16,Overcast clouds,804,c04n,10,3.1,3.1
2022-09-29T02:00:00,13,13,89,3.9,0,0,-41,0,n,0,891,54,1013,0,0,16,Overcast clouds,804,c04n,330,2.4,2.1
2022-09-29T03:00:00,12,12,42,4,0,0,-37.7,0,n,0,891,58,1013,0,0,16,Broken clouds,803,c03n,275,2.8,1
2022-09-29T04:00:00,12,12,87,4,0,0,-31.8,0,n,0,890,58,1013,0,0,16,Overcast clouds,804,c04n,220,12,2.1
2022-09-29T05:00:00,21,20.1,95,5,0,0,-24.2,0,n,0,891,35,1011,0,0,16,Overcast clouds,804,c04n,245,12,5.1
2022-09-29T06:00:00,17,17,95,3,0,0,-15.5,0,n,0,892,39,1011,0,0,16,Overcast clouds,804,c04n,270,11,4.1
2022-09-29T07:00:00,20,18.9,93,3.7,0,0,-6.2,0,n,0,891,34,1012,0,0,16,Overcast clouds,804,c04n,270,9,5.1
2022-09-29T08:00:00,19,18,95,4.7,26,208,3.2,28,d,0,893,39,1012,0,33,14,Overcast clouds,804,c04n,320,6.8,2.6
2022-09-29T09:00:00,16,16,93,3.8,58,548,12.3,167,d,0,892,44,1013,0,108,14,Overcast clouds,804,c04d,220,8,1
2022-09-29T10:00:00,16,16,96,5,77,694,20.6,315,d,0,895,48,1016,0,145,10,Overcast clouds,804,c04d,120,7,5.1
2022-09-29T11:00:00,14,14,92,8,88,773,27.8,443,d,0,898,67,1016,0,143,16,Overcast clouds,804,c04d,40,4.1,4.1
2022-09-29T12:00:00,16,16,94,9,95,816,33,535,d,0.25,893,63,1016,0,145,14,Overcast clouds,804,c04d,280,5.2,3.1
2022-09-29T13:00:00,14,14,93,8.8,99,835,35.8,581,d,0.25,894,71,1017,0,172,16,Overcast clouds,804,c04d,320,11,3.1
2022-09-29T14:00:00,15,15,90,7.8,98,834,35.6,578,d,0,893,62,1016,0,214,16,Overcast clouds,804,c04d,330,12,9.3
2022-09-29T15:00:00,17,17,48,7.9,95,812,32.5,524,d,0,893,55,1016,0,485,16,Broken clouds,803,c03d,320,10.4,9.3
2022-09-29T16:00:00,17,17,93,7.9,87,765,26.9,427,d,0,893,55,1017,0,127,16,Overcast clouds,804,c04d,340,12,6.2
2022-09-29T17:00:00,15,15,5,8.9,75,679,19.5,295,d,0,893,67,1017,0,295,16,Few clouds,801,c02d,360,11,7.2
2022-09-29T18:00:00,15,15,32,8.9,55,517,11,146,d,0,898,67,1017,0,143,14,Scattered clouds,802,c02d,340,11,8.8
2022-09-29T19:00:00,14,14,46,8,18,120,1.8,13,d,0,898,67,1017,0,30,14,Broken clouds,803,c03n,350,11,8.2
2022-09-29T20:00:00,13,13,81,7.9,0,0,-7.6,0,n,0,898,71,1018,0,0,16,Overcast clouds,804,c04n,340,9,6.7
2022-09-29T21:00:00,13,13,84,7.9,0,0,-16.8,0,n,0,899,71,1019,0,0,16,Overcast clouds,804,c04n,330,10,7.7
2022-09-29T22:00:00,12,12,42,7.9,0,0,-25.5,0,n,0,895,76,1020,0,0,16,Broken clouds,803,c03n,330,11,8.8
2022-09-29T23:00:00,13,13,87,7.9,0,0,-33,0,n,0,899,71,1020,0,0,16,Overcast clouds,804,c04n,340,12,8.8
