Datetime,Temperature,Apparent Temperature,Cloud Cover,Dew Point,DHI,DNI,Solar Zenith Angle,GHI,Pod,Precipitation,Pressure,Relative Humidity,Sea Level Pressure,Snow Depth,Solar Radiation,Visibility,Weather Description,Weather Code,Weather Icon,Wind Direction,Wind Gust Speed,Wind Speed
2022-06-01T00:00:00,12,12,75,-4.2,0,0,-13.9,0,n,0,899,32,1024,0,0,16,Overcast clouds,804,c04n,90,3.6,3.6
2022-06-01T01:00:00,11,11,89,-5,0,0,-16.4,0,n,0,900,32,1024,0,0,16,Overcast clouds,804,c04n,110,3.6,3.6
2022-06-01T02:00:00,10,10,75,-5.1,0,0,-16.5,0,n,0,898,34,1024,0,0,16,Overcast clouds,804,c04n,60,3.2,2.1
2022-06-01T03:00:00,10,10,45,-4,0,0,-14.4,0,n,0,897,37,1024,0,0,16,Broken clouds,803,c03n,200,3.2,1
2022-06-01T04:00:00,10,10,75,-4,0,0,-10,0,n,0,897,37,1024,0,0,16,Overcast clouds,804,c04n,340,3.2,2.1
2022-06-01T05:00:00,11,11,75,-6.3,0,0,-3.9,0,n,0,897,29,1024,0,0,16,Overcast clouds,804,c04n,130,5.1,5.1
2022-06-01T06:00:00,11,11,75,-6.3,27,224,3.5,32,d,0,898,29,1024,0,48,16,Overcast clouds,804,c04n,60,2.8,1
2022-06-01T07:00:00,10,10,75,-2,56,527,12,158,d,0,898,43,1025,0,105,16,Overcast clouds,804,c04d,340,3.6,1.5
2022-06-01T08:00:00,12,12,75,-3,75,682,21.1,314,d,0,898,35,1024,0,208,16,Overcast clouds,804,c04d,320,3.6,2.1
2022-06-01T09:00:00,12,12,75,-3,90,776,30.4,477,d,0,899,35,1025,0,316,16,Overcast clouds,804,c04d,250,3.6,2.1
2022-06-01T10:00:00,14,14,75,-3.3,100,837,39.8,629,d,0,899,30,1024,0,416,16,Overcast clouds,804,c04d,220,4.8,0.8
2022-06-01T11:00:00,15,15,75,-3.3,108,877,48.5,758,d,0,899,28,1024,0,501,16,Overcast clouds,804,c04d,190,6.4,2.6
2022-06-01T12:00:00,16,16,75,-3,113,901,55.8,851,d,0,900,27,1024,0,563,16,Overcast clouds,804,c04d,280,6,3.6
2022-06-01T13:00:00,16,16,75,-3,115,913,60.3,901,d,0,900,27,1024,0,596,16,Overcast clouds,804,c04d,210,4,1.5
2022-06-01T14:00:00,18,18,75,-2.3,116,914,60.6,905,d,0,900,25,1023,0,599,16,Overcast clouds,804,c04d,100,4,1.5
2022-06-01T15:00:00,17,17,45,-2.1,113,904,56.6,861,d,0,900,27,1023,0,810,16,Broken clouds,803,c03d,330,4.4,2.1
2022-06-01T16:00:00,18,18,75,-3.4,109,881,49.6,773,d,0,899,23,1022,0,511,16,Overcast clouds,804,c04d,195,4.4,0.4
2022-06-01T17:00:00,18,18,45,-3.4,102,843,41,649,d,0,899,23,1022,0,610,16,Broken clouds,803,c03d,60,4,2.6
2022-06-01T18:00:00,19,17.5,45,-5.1,91,785,31.7,499,d,0,899,19,1022,0,469,16,Broken clouds,803,c03d,320,4,2.6
2022-06-01T19:00:00,18,18,45,-6.6,78,697,22.4,337,d,0,899,18,1021,0,317,16,Broken clouds,803,c03d,340,3.1,3.1
2022-06-01T20:00:00,18,18,75,-6.6,59,554,13.2,179,d,0,898,18,1021,0,118,16,Overcast clouds,804,c04d,60,3.6,3.6
2022-06-01T21:00:00,16,16,75,-5.1,32,284,4.7,46,d,0,898,23,1021,0,62,16,Overcast clouds,804,c04n,100,3.6,3.6
2022-06-01T22:00:00,13,13,75,-3.3,0,0,-2.9,0,n,0,898,32,1022,0,0,16,Overcast clouds,804,c04n,100,4,3.6
2022-06-01T23:00:00,12,12,45,-3,0,0,-9.2,0,n,0,897,35,1022,0,0,16,Broken clouds,803,c03n,110,3.6,3.1
2022-06-02T00:00:00,12,12,25,-2.2,0,0,-13.8,0,n,0,897,37,1022,0,0,16,Scattered clouds,802,c02n,120,3.6,3.6
2022-06-02T01:00:00,9,9,25,-2,0,0,-16.3,0,n,0,897,46,1023,0,0,16,Scattered clouds,802,c02n,360,2.8,2.6
2022-06-02T02:00:00,7,6.2,94,-2.2,0,0,-16.4,0,n,0,896,52,1023,0,0,16,Overcast clouds,804,c04n,10,2.4,1.5
2022-06-02T03:00:00,5,2.8,53,-2.1,0,0,-14.2,0,n,0,895,60,1023,0,0,16,Broken clouds,803,c03n,360,2.6,2.6
2022-06-02T04:00:00,5,3.9,47,-2.1,0,0,-9.9,0,n,0.5,894,60,1023,0,0,16,Broken clouds,803,c03n,340,1.5,1.5
2022-06-02T05:00:00,4,2.8,25,-2.2,0,0,-3.8,0,n,0.5,894,64,1023,0,0,16,Scattered clouds,802,c02n,360,1.5,1.5
2022-06-02T06:00:00,4,3.6,75,-2.2,27,229,3.6,33,d,0.25,893,64,1024,0,49,16,Overcast clouds,804,c04n,10,1.6,1
2022-06-02T07:00:00,6,5.8,45,-1.2,56,529,12.1,159,d,0,894,60,1023,0,150,16,Broken clouds,803,c03d,10,2.4,1
2022-06-02T08:00:00,10,10,25,-1.1,76,682,21.1,315,d,0,895,46,1023,0,312,16,Scattered clouds,802,c02d,105,2.4,1
2022-06-02T09:00:00,14,14,25,-2,90,776,30.5,478,d,0,896,33,1022,0,474,16,Scattered clouds,802,c02d,200,4.4,3.1
2022-06-02T10:00:00,16,16,25,-2,100,837,39.8,630,d,0,898,29,1022,0,625,16,Scattered clouds,802,c02d,190,6.8,4.6
2022-06-02T11:00:00,17,17,25,-3.1,108,877,48.6,759,d,0,899,25,1022,0,753,16,Scattered clouds,802,c02d,150,7,3.1
2022-06-02T12:00:00,18,18,25,-3.4,113,901,55.9,852,d,0,899,23,1021,0,845,16,Scattered clouds,802,c02d,190,7,3.1
2022-06-02T13:00:00,19,17.5,25,-3.2,115,913,60.4,902,d,0,899,22,1020,0,895,16,Scattered clouds,802,c02d,150,7,4.1
2022-06-02T14:00:00,18,18,45,-4,116,914,60.8,906,d,0,898,22,1020,0,852,16,Broken clouds,803,c03d,170,8,5.1
2022-06-02T15:00:00,19,17.5,75,-4.4,113,904,56.7,862,d,0,897,20,1020,0,570,16,Overcast clouds,804,c04d,170,8,2.6
2022-06-02T16:00:00,20,18.6,75,-3,109,881,49.7,774,d,0,897,21,1019,0,512,16,Overcast clouds,804,c04d,170,8,4.1
2022-06-02T17:00:00,21,19.7,75,-3.5,102,844,41.1,650,d,0,897,19,1019,0,430,16,Overcast clouds,804,c04d,190,8.8,6.2
2022-06-02T18:00:00,20,18.6,75,-3,91,786,31.9,501,d,0,897,21,1018,0,331,16,Overcast clouds,804,c04d,190,8.8,5.7
2022-06-02T19:00:00,19,17.5,75,-3.2,78,698,22.5,339,d,0,896,22,1018,0,224,16,Overcast clouds,804,c04d,170,8,7.2
2022-06-02T20:00:00,18,18,75,-4,59,557,13.3,181,d,0,895,22,1017,0,120,16,Overcast clouds,804,c04d,170,8,5.1
2022-06-02T21:00:00,17,17,75,-4.3,33,290,4.8,48,d,0,894,23,1016,0,65,16,Overcast clouds,804,c04n,140,5.7,5.7
2022-06-02T22:00:00,16,16,45,-3,0,0,-2.8,0,n,0,894,27,1016,0,0,16,Broken clouds,803,c03n,140,4.6,4.6
2022-06-02T23:00:00,15,15,75,-3.3,0,0,-9.1,0,n,0,894,28,1016,0,0,16,Overcast clouds,804,c04n,140,4.1,4.1
2022-06-03T00:00:00,14,14,75,-3.3,0,0,-13.6,0,n,0,897,30,1016,0,0,16,Overcast clouds,804,c04n,170,4.1,4.1
2022-06-03T01:00:00,11,11,75,-4.2,0,0,-16.1,0,n,0,893,34,1016,0,0,16,Overcast clouds,804,c04n,170,4.4,3.1
2022-06-03T02:00:00,11,11,25,-3.1,0,0,-16.3,0,n,0,891,37,1015,0,0,16,Scattered clouds,802,c02n,200,4.4,3.1
2022-06-03T03:00:00,10,10,25,-3.3,0,0,-14.1,0,n,0.25,891,39,1015,0,0,16,Scattered clouds,802,c02n,200,4,2.1
2022-06-03T04:00:00,10,10,25,-4,0,0,-9.8,0,n,0.25,890,37,1015,0,0,16,Scattered clouds,802,c02n,160,3.6,2.1
2022-06-03T05:00:00,8,8,25,-3.2,0,0,-3.8,0,n,0.5,890,45,1015,0,0,16,Scattered clouds,802,c02n,250,3.2,2
2022-06-03T06:00:00,7,6.9,25,-2.2,28,233,3.7,34,d,0.25,889,52,1015,0,34,16,Scattered clouds,802,c02n,340,3.6,1
2022-06-03T07:00:00,10,10,75,-3.3,56,530,12.1,160,d,0,889,39,1015,0,106,16,Overcast clouds,804,c04d,140,4.8,1.5
2022-06-03T08:00:00,13,13,45,-4.1,76,683,21.2,316,d,0,890,30,1014,0,297,16,Broken clouds,803,c03d,160,5.6,4.1
2022-06-03T09:00:00,15,15,45,-5.4,90,776,30.6,479,d,0,891,24,1013,0,450,16,Broken clouds,803,c03d,160,7.6,6.7
2022-06-03T10:00:00,18,18,75,-5.3,100,837,39.9,631,d,0,891,20,1013,0,417,16,Overcast clouds,804,c04d,160,11,8.2
2022-06-03T11:00:00,19,17.5,75,-5.1,108,877,48.6,759,d,0,892,19,1012,0,502,16,Overcast clouds,804,c04d,180,11,9.3
2022-06-03T12:00:00,20,18.5,75,-5,113,901,56,853,d,0,892,18,1012,0,564,16,Overcast clouds,804,c04d,150,11,8.2
2022-06-03T13:00:00,21,19.5,75,-6.6,115,913,60.5,903,d,0,892,15,1012,0,597,16,Overcast clouds,804,c04d,140,13,9.8
2022-06-03T14:00:00,22,20.6,75,-5.8,116,914,60.9,907,d,0,892,15,1011,0,600,16,Overcast clouds,804,c04d,150,12,7.7
2022-06-03T15:00:00,21,19.6,75,-5.7,113,904,56.9,863,d,0,892,16,1011,0,571,16,Overcast clouds,804,c04d,190,12,9.3
2022-06-03T16:00:00,21,19.5,75,-6.6,109,881,49.8,776,d,0,891,15,1010,0,513,16,Overcast clouds,804,c04d,150,12,8.2
2022-06-03T17:00:00,21,19.6,100,-5.7,102,844,41.2,652,d,0,891,16,1010,0,167,16,Overcast clouds,804,c04d,150,11,7.2
2022-06-03T18:00:00,22,20.6,100,-5.8,92,787,32,502,d,0,891,15,1010,0,142,16,Overcast clouds,804,c04d,170,11,8.8
2022-06-03T19:00:00,20,18.8,100,1,78,700,22.6,341,d,0,890,28,1010,0,112,16,Overcast clouds,804,c04d,190,14,10.3
2022-06-03T20:00:00,19,17.7,100,0.1,60,559,13.5,183,d,0,890,28,1009,0,78,16,Overcast clouds,804,c04d,180,11,7.2
2022-06-03T21:00:00,18,18,100,0.6,33,295,4.9,50,d,0,889,31,1009,0,38,16,Overcast clouds,804,c04n,190,9,6.2
2022-06-03T22:00:00,16,16,75,1.7,0,0,-2.7,0,n,0,889,38,1009,0,0,16,Overcast clouds,804,c04n,190,6,3.6
2022-06-03T23:00:00,15,15,75,2.9,0,0,-9,0,n,0,888,44,1009,0,0,16,Overcast clouds,804,c04n,170,4.8,3.1
2022-06-04T00:00:00,15,15,75,3.8,0,0,-13.5,0,n,0,887,47,1008,0,0,16,Overcast clouds,804,c04n,150,4.4,3.6
2022-06-04T01:00:00,14,14,100,4.8,0,0,-16,0,n,0,886,54,1008,0,0,16,Overcast clouds,804,c04n,160,4.4,4.1
2022-06-04T02:00:00,13,13,75,5.9,0,0,-16.2,0,n,0,886,62,1008,0,0,16,Overcast clouds,804,c04n,170,4.1,4.1
2022-06-04T03:00:00,11,11,75,6,0,0,-14,0,n,0,886,71,1008,0,0,16,Overcast clouds,804,c04n,170,4,3.6
2022-06-04T04:00:00,10,10,45,6,0,0,-9.7,0,n,0,885,76,1008,0,0,16,Broken clouds,803,c03n,180,4,3.1
2022-06-04T05:00:00,10,10,75,6,0,0,-3.7,0,n,0,884,76,1008,0,0,16,Overcast clouds,804,c04n,170,3.6,3.6
2022-06-04T06:00:00,10,10,75,6,28,237,3.8,35,d,0,884,76,1009,0,51,16,Overcast clouds,804,c04n,180,3.2,2.1
2022-06-04T07:00:00,11,11,100,6,57,532,12.2,161,d,0,885,71,1009,0,73,16,Overcast clouds,804,c04d,170,4,1.5
2022-06-04T08:00:00,12,12,100,6.9,76,684,21.3,317,d,0,885,71,1009,0,108,16,Overcast clouds,804,c04d,175,4.4,1
2022-06-04T09:00:00,13,13,100,6.8,90,776,30.6,480,d,0,882,66,1008,0,138,16,Overcast clouds,804,c04d,180,6,2.6
2022-06-04T10:00:00,15,15,100,7.8,100,837,40,632,d,0,882,62,1008,0,163,16,Overcast clouds,804,c04d,170,7.2,2.1
2022-06-04T11:00:00,16,16,100,7,108,877,48.7,760,d,0,882,55,1008,0,184,16,Overcast clouds,804,c04d,170,9.2,4.1
2022-06-04T12:00:00,18,18,100,6.8,113,901,56,854,d,0,882,48,1008,0,198,16,Overcast clouds,804,c04d,180,9.2,3.1
2022-06-04T13:00:00,18,18,100,6.8,115,913,60.7,904,d,0,882,48,1008,0,205,16,Overcast clouds,804,c04d,160,7,4.1
2022-06-04T14:00:00,19,18.1,100,5.8,116,914,61,908,d,0,882,42,1008,0,207,16,Overcast clouds,804,c04d,130,7,5.1
2022-06-04T15:00:00,20,19.2,100,6.7,113,904,57,864,d,0,882,42,1008,0,199,16,Overcast clouds,804,c04d,160,8,4.6
2022-06-04T16:00:00,20,19.2,75,6.7,109,881,49.9,777,d,0,882,42,1007,0,514,16,Overcast clouds,804,c04d,130,9,3.6
2022-06-04T17:00:00,20,19.2,75,6.7,102,844,41.3,653,d,0,882,42,1007,0,432,16,Overcast clouds,804,c04d,100,9.6,6.2
2022-06-04T18:00:00,18,18,75,8.8,92,787,32.1,504,d,0,882,55,1007,0,333,16,Overcast clouds,804,c04d,110,10,8.2
2022-06-04T19:00:00,18,18,75,8.8,78,701,22.7,342,d,0,882,55,1007,0,226,16,Overcast clouds,804,c04d,120,11,8.2
2022-06-04T20:00:00,17,17,75,8.9,60,561,13.6,184,d,0,882,59,1007,0,122,16,Overcast clouds,804,c04d,140,11,9.3
2022-06-04T21:00:00,15.8,15.8,75,9,34,301,5,51,d,0,882,64,1007,0,68,16,Overcast clouds,804,c04d,130,9,7.2
2022-06-04T22:00:00,15,15,100,8.9,0,0,-2.6,0,n,0.5,882,67,1007,0,0,16,Overcast clouds,804,c04n,130,7,5.1
2022-06-04T23:00:00,13,13,100,10,0,0,-8.8,0,n,1,882,82,1008,0,0,8,Light rain,500,r01n,140,9,5.7
2022-06-05T00:00:00,12,12,100,10.9,0,0,-13.4,0,n,0.5,882,93,1008,0,0,8,Overcast clouds,804,c04n,120,5.7,5.7
2022-06-05T01:00:00,11,11,100,11,0,0,-15.9,0,n,2,882,100,1008,0,0,8,Light rain,500,r01n,120,6,3.1
2022-06-05T02:00:00,11,11,100,11,0,0,-16.1,0,n,2,882,100,1007,0,0,8,Light rain,500,r01n,50,6.8,2.6
2022-06-05T03:00:00,11,11,100,9.9,0,0,-13.9,0,n,2.5,882,93,1007,0,0,8,Light rain,500,r01n,70,8,6.2
2022-06-05T04:00:00,11,11,75,9.9,0,0,-9.6,0,n,2.5,882,93,1007,0,0,6,Light rain,500,r01n,60,8,5.7
2022-06-05T05:00:00,11,11,100,9.9,0,0,-3.6,0,n,1.5,882,93,1007,0,0,3,Light rain,500,r01n,50,9,6.7
2022-06-05T06:00:00,9,9,100,7.9,28,240,3.8,35,d,1,882,93,1007,0,32,6,Light rain,500,r01n,80,10,7.2
2022-06-05T07:00:00,9,9,100,7.9,57,533,12.2,162,d,0.5,882,93,1007,0,73,2,Haze,721,a03d,30,8,6.2
2022-06-05T08:00:00,8,8,100,6.9,76,684,21.3,318,d,1,882,93,1007,0,108,2,Light rain,500,r01d,30,6.4,4.6
2022-06-05T09:00:00,8,8,100,8,90,777,30.7,480,d,1,882,100,1007,0,138,8,Light rain,500,r01d,340,5.6,5.1
2022-06-05T10:00:00,9,9,100,7.9,100,837,40,633,d,1,882,93,1007,0,163,16,Light rain,500,r01d,340,5.6,3.6
2022-06-05T11:00:00,11,11,100,7.9,108,877,48.8,761,d,0.5,882,81,1007,0,184,16,Overcast clouds,804,c04d,330,5.2,3.6
2022-06-05T12:00:00,11,11,75,7.9,113,901,56.1,854,d,0.5,882,81,1007,0,565,16,Overcast clouds,804,c04d,310,5.2,3.1
2022-06-05T13:00:00,13,13,100,7.9,115,913,60.8,905,d,0,882,71,1008,0,206,16,Overcast clouds,804,c04d,360,4,3.1
2022-06-05T14:00:00,13,13,75,7.9,116,914,61.1,909,d,0,882,71,1008,0,601,16,Overcast clouds,804,c04d,70,4.4,2.6
2022-06-05T15:00:00,15,15,75,8.9,114,904,57.1,865,d,0,882,67,1008,0,572,16,Overcast clouds,804,c04d,80,5.2,2.1
2022-06-05T16:00:00,15,15,100,8.9,109,882,50,778,d,0.25,882,67,1008,0,187,16,Overcast clouds,804,c04d,130,6.4,4.1
2022-06-05T17:00:00,15,15,100,10,102,845,41.5,655,d,0.5,882,72,1008,0,168,16,Overcast clouds,804,c04d,140,9,5.7
2022-06-05T18:00:00,14,14,100,11.9,92,788,32.2,506,d,1.5,882,87,1008,0,111,8,Light rain,500,r01d,150,9,5.7
2022-06-05T19:00:00,13,13,96,11.9,78,702,22.8,344,d,2,882,93,1008,0,124,6,Light rain,500,r01d,130,7.6,5.1
2022-06-05T20:00:00,12,12,93,10.9,60,563,13.7,186,d,1.75,882,93,1009,0,98,8,Light rain,500,r01d,120,5.6,3.6
2022-06-05T21:00:00,11,11,95,9.9,34,306,5.1,53,d,1,882,93,1010,0,45,5,Light rain,500,r01d,170,5.2,3.6
2022-06-05T22:00:00,11,11,92,9.9,0,0,-2.5,0,n,0.25,882,93,1010,0,0,5,Overcast clouds,804,c04n,110,4.4,2.1
2022-06-05T23:00:00,11,11,96,9.9,0,0,-8.7,0,n,0,882,93,1010,0,0,11,Overcast clouds,804,c04n,170,4,1.5
2022-06-06T00:00:00,11,11,94,9.9,0,0,-13.3,0,n,0.5,882,93,1010,0,0,11,Overcast clouds,804,c04n,180,3.2,2.1
2022-06-06T01:00:00,11,11,100,9.9,0,0,-15.8,0,n,0,882,93,1010,0,0,10,Overcast clouds,804,c04n,160,3.1,3.1
2022-06-06T02:00:00,11,11,95,9.9,0,0,-16,0,n,0,882,93,1009,0,0,8,Overcast clouds,804,c04n,150,2.6,2.6
2022-06-06T03:00:00,10,10,95,8.9,0,0,-13.8,0,n,0,882,93,1009,0,0,8,Overcast clouds,804,c04n,160,2.4,1.5
2022-06-06T04:00:00,10,10,93,10,0,0,-9.6,0,n,0,882,100,1009,0,0,8,Fog,741,a05n,190,1.6,1.5
2022-06-06T05:00:00,11,11,94,9.9,0,0,-3.5,0,n,0,882,93,1009,0,0,8,Overcast clouds,804,c04n,245,2.4,1
2022-06-06T06:00:00,11,11,81,9.9,28,243,3.9,36,d,0,882,93,1010,0,47,6,Overcast clouds,804,c04n,305,3.2,1
2022-06-06T07:00:00,11,11,41,9.9,57,534,12.3,163,d,0,882,93,1010,0,151,4,Broken clouds,803,c03d,360,4,2.1
2022-06-06T08:00:00,11,11,38,8.9,76,684,21.4,319,d,0,882,87,1011,0,308,6,Scattered clouds,802,c02d,350,4.4,2.1
2022-06-06T09:00:00,12,12,78,9.9,90,777,30.7,481,d,0,882,87,1011,0,281,8,Overcast clouds,804,c04d,10,5.6,2.6
2022-06-06T10:00:00,12,12,87,8.8,100,837,40,633,d,0,882,81,1012,0,278,16,Overcast clouds,804,c04d,25,6.4,1
2022-06-06T11:00:00,14,14,79,8.8,108,877,48.8,761,d,0,882,71,1012,0,454,16,Overcast clouds,804,c04d,40,6.8,3.6
2022-06-06T12:00:00,16,16,85,9.9,113,901,56.2,855,d,0,882,67,1011,0,412,16,Overcast clouds,804,c04d,50,7.2,5.1
2022-06-06T13:00:00,15,15,84,10,116,913,60.8,906,d,1,882,72,1012,0,455,11,Light rain,500,r01d,40,8,4.6
2022-06-06T14:00:00,16,16,92,9,116,914,61.2,909,d,1,882,63,1012,0,293,16,Light rain,500,r01d,40,8,4.1
2022-06-06T15:00:00,17,17,88,8.9,114,904,57.2,866,d,1,882,59,1012,0,361,16,Light rain,500,r01d,350,5.2,3.1
2022-06-06T16:00:00,10,10,91,6,109,882,50.2,779,d,1,882,76,1015,0,270,8,Light rain,500,r01d,20,7.2,7.2
2022-06-06T17:00:00,11,11,95,8.9,102,845,41.6,656,d,1,882,87,1015,0,160,6,Light rain,500,r01d,330,10,5.1
2022-06-06T18:00:00,10,10,96,8.9,92,788,32.3,507,d,1,882,93,1015,0,110,6,Light rain,500,r01d,340,11,7.2
2022-06-06T19:00:00,10,10,95,7.9,79,703,22.9,346,d,1,882,87,1015,0,84,6,Light rain,500,r01d,330,9,6.2
2022-06-06T20:00:00,11,11,96,7.9,60,565,13.8,188,d,1.5,882,81,1015,0,92,16,Light rain,500,r01d,330,8,7.2
2022-06-06T21:00:00,10,10,96,7.9,34,310,5.3,54,d,1.5,882,87,1015,0,41,16,Light rain,500,r01d,330,7,5.1
2022-06-06T22:00:00,10,10,95,7.9,0,0,-2.3,0,n,1.5,890,87,1016,0,0,10,Light rain,500,r01n,330,6,3.6
2022-06-06T23:00:00,10,10,93,7.9,0,0,-8.6,0,n,1.5,890,87,1016,0,0,8,Light rain,500,r01n,330,9,4.6
2022-06-07T00:00:00,10,10,90,8.9,0,0,-13.2,0,n,1.5,890,93,1016,0,0,10,Light rain,500,r01n,330,10,6.2
2022-06-07T01:00:00,10,10,86,8.9,0,0,-15.7,0,n,1.5,890,93,1016,0,0,8,Light rain,500,r01n,50,10,6.7
2022-06-07T02:00:00,9,9,86,9,0,0,-15.9,0,n,0.75,890,100,1016,0,0,8,Light rain,500,r01n,50,8.8,3.6
2022-06-07T03:00:00,9,9,90,7.9,0,0,-13.8,0,n,0.5,890,93,1017,0,0,10,Overcast clouds,804,c04n,50,8.4,6.2
2022-06-07T04:00:00,9,9,87,7.9,0,0,-9.5,0,n,0.5,891,93,1019,0,0,10,Overcast clouds,804,c04n,10,8.4,6.2
2022-06-07T05:00:00,9,9,87,7.9,0,0,-3.5,0,n,0.5,891,93,1019,0,0,16,Overcast clouds,804,c04n,360,7.6,6.2
2022-06-07T06:00:00,9,9,88,7.9,29,246,3.9,37,d,0.5,892,93,1020,0,44,16,Overcast clouds,804,c04n,10,7.2,5.1
2022-06-07T07:00:00,9,9,89,7.9,57,535,12.3,164,d,0.25,892,93,1020,0,65,16,Overcast clouds,804,c04d,360,7.2,4.6
2022-06-07T08:00:00,10,10,89,7.9,76,685,21.4,320,d,0,893,87,1021,0,126,16,Overcast clouds,804,c04d,340,6.8,4.1
2022-06-07T09:00:00,11,11,82,6.9,90,777,30.8,482,d,0,894,76,1021,0,261,16,Overcast clouds,804,c04d,340,6,2.6
2022-06-07T10:00:00,13,13,80,6.8,100,837,40.1,634,d,0,895,66,1021,0,367,16,Overcast clouds,804,c04d,20,5.6,4.1
2022-06-07T11:00:00,13,13,81,5.9,108,877,48.9,762,d,0,896,62,1021,0,427,16,Overcast clouds,804,c04d,340,5.6,4.6
2022-06-07T12:00:00,14,14,82,5.9,113,901,56.3,855,d,0,896,58,1021,0,463,16,Overcast clouds,804,c04d,310,5.2,4.1
2022-06-07T13:00:00,14,14,45,4.8,116,913,60.9,906,d,0,896,54,1021,0,852,16,Broken clouds,803,c03d,330,5.2,3.1
2022-06-07T14:00:00,15,15,83,5,116,914,61.3,910,d,0,896,51,1021,0,475,16,Overcast clouds,804,c04d,350,5.6,1.5
2022-06-07T15:00:00,15,15,76,3.8,114,904,57.3,867,d,0,897,47,1021,0,560,16,Overcast clouds,804,c04d,90,5.2,2.1
2022-06-07T16:00:00,15,15,82,5.8,109,882,50.3,781,d,0,897,54,1021,0,423,16,Overcast clouds,804,c04d,110,5.6,3.6
2022-06-07T17:00:00,15,15,22,7.8,102,845,41.7,658,d,0,897,62,1021,0,655,16,Scattered clouds,802,c02d,120,6.4,5.1
2022-06-07T18:00:00,16,16,79,7,92,789,32.4,509,d,0,897,55,1021,0,303,16,Overcast clouds,804,c04d,130,6.4,5.7
2022-06-07T19:00:00,16,16,79,5.9,79,704,23,348,d,0,897,51,1020,0,207,16,Overcast clouds,804,c04d,160,6.4,5.7
2022-06-07T20:00:00,14,14,80,6.8,61,567,13.9,190,d,0,897,62,1020,0,110,16,Overcast clouds,804,c04d,170,8,7.2
2022-06-07T21:00:00,13,13,78,6.8,35,315,5.3,55,d,0,896,66,1020,0,69,16,Overcast clouds,804,c04d,180,8,5.1
2022-06-07T22:00:00,12,12,5,6.9,0,0,-2.3,0,n,0,895,71,1020,0,0,16,Few clouds,801,c02n,180,4.6,4.6
2022-06-07T23:00:00,11,11,5,6.9,0,0,-8.5,0,n,0,895,76,1020,0,0,16,Few clouds,801,c02n,170,4.8,4.6
2022-06-08T00:00:00,10,10,23,6,0,0,-13.1,0,n,0,894,76,1020,0,0,16,Scattered clouds,802,c02n,180,5.2,4.1
2022-06-08T01:00:00,9,9,25,5.9,0,0,-15.6,0,n,0,893,81,1019,0,0,16,Scattered clouds,802,c02n,180,5.6,4.1
2022-06-08T02:00:00,8,8,82,4.9,0,0,-15.8,0,n,0,893,81,1019,0,0,16,Overcast clouds,804,c04n,180,6,3.6
2022-06-08T03:00:00,8,8,92,4.9,0,0,-13.7,0,n,0,892,81,1018,0,0,16,Overcast clouds,804,c04n,180,6,4.1
2022-06-08T04:00:00,7,5.2,83,4,0,0,-9.4,0,n,0,891,81,1018,0,0,16,Overcast clouds,804,c04n,190,6,2.6
2022-06-08T05:00:00,7,5.2,81,4,0,0,-3.4,0,n,0,890,81,1017,0,0,16,Overcast clouds,804,c04n,210,5.6,2.6
2022-06-08T06:00:00,8,8,87,3.8,29,248,4,37,d,0,890,75,1017,0,45,16,Overcast clouds,804,c04n,180,5.6,2.6
2022-06-08T07:00:00,9,9,92,5,57,535,12.4,164,d,0,890,76,1016,0,110,16,Overcast clouds,804,c04d,210,6,3.6
2022-06-08T08:00:00,10,10,89,5,76,685,21.4,320,d,0,890,71,1016,0,126,16,Overcast clouds,804,c04d,180,6.8,4.1
2022-06-08T09:00:00,12,12,86,5.9,90,777,30.8,482,d,0,890,66,1015,0,222,16,Overcast clouds,804,c04d,170,7.6,3.6
2022-06-08T10:00:00,14,14,83,5.9,100,837,40.1,634,d,0,891,58,1014,0,331,16,Overcast clouds,804,c04d,190,8.4,3.6
2022-06-08T11:00:00,17,17,81,6.8,108,877,48.9,762,d,0,891,51,1014,0,427,16,Overcast clouds,804,c04d,180,10,4.6
2022-06-08T12:00:00,18,18,9,6.8,113,901,56.3,856,d,0,892,48,1013,0,856,16,Few clouds,801,c02d,170,10,4.1
2022-06-08T13:00:00,20,18.9,5,3.7,116,913,61,907,d,0,888,34,1012,0,907,16,Few clouds,801,c02d,190,10,6.7
2022-06-08T14:00:00,21,20.1,21,5,116,914,61.4,911,d,0,891,35,1011,0,907,16,Scattered clouds,802,c02d,180,8,6.2
2022-06-08T15:00:00,21,20,78,3.7,114,904,57.4,868,d,0,891,32,1011,0,532,16,Overcast clouds,804,c04d,210,10,5.7
2022-06-08T16:00:00,22,21.1,95,5,109,882,50.4,782,d,0,891,33,1010,0,191,16,Overcast clouds,804,c04d,210,9,6.7
2022-06-08T17:00:00,22,20.9,94,1.6,102,846,41.8,659,d,0,890,26,1010,0,178,16,Overcast clouds,804,c04d,300,9,6.7
2022-06-08T18:00:00,21,19.8,50,0.8,92,789,32.5,510,d,0,890,26,1010,0,467,16,Broken clouds,803,c03d,280,12,7.2
2022-06-08T19:00:00,20,18.8,87,1,79,704,23.1,349,d,0,890,28,1010,0,153,16,Overcast clouds,804,c04d,270,9,5.7
2022-06-08T20:00:00,20,18.8,94,1,61,569,14,191,d,0,890,28,1010,0,113,16,Overcast clouds,804,c04d,270,10,4.1
2022-06-08T21:00:00,19,17.7,91,0.6,35,319,5.4,57,d,0,890,29,1010,0,55,16,Overcast clouds,804,c04d,280,10,7.2
2022-06-08T22:00:00,18,18,49,0.6,0,0,-2.2,0,n,0,889,31,1011,0,0,16,Broken clouds,803,c03n,300,6.2,6.2
2022-06-08T23:00:00,15,15,78,6.8,0,0,-8.4,0,n,0,890,58,1011,0,0,16,Overcast clouds,804,c04n,310,6,2.1
2022-06-09T00:00:00,12,12,7,6.9,0,0,-13,0,n,0,889,71,1012,0,0,16,Few clouds,801,c02n,335,6,2.8
2022-06-09T01:00:00,11,11,34,4.9,0,0,-15.5,0,n,0,888,66,1012,0,0,16,Scattered clouds,802,c02n,360,4.8,2.1
2022-06-09T02:00:00,11,11,85,4,0,0,-15.7,0,n,0,888,62,1012,0,0,16,Overcast clouds,804,c04n,360,5.2,2.6
2022-06-09T03:00:00,10,10,83,5,0,0,-13.6,0,n,0,892,71,1012,0,0,16,Overcast clouds,804,c04n,350,5.2,2.1
2022-06-09T04:00:00,9,9,87,3.8,0,0,-9.4,0,n,0,888,70,1012,0,0,16,Overcast clouds,804,c04n,350,5.2,2.6
2022-06-09T05:00:00,9,9,79,3,0,0,-3.4,0,n,0,888,66,1013,0,0,16,Overcast clouds,804,c04n,30,5.2,2.6
2022-06-09T06:00:00,8,8,75,2.9,29,250,4,38,d,0,888,70,1013,0,54,16,Overcast clouds,804,c04n,360,5.2,2.6
2022-06-09T07:00:00,12,12,78,4,57,536,12.4,165,d,0,888,58,1013,0,101,16,Overcast clouds,804,c04d,20,5.2,2.1
2022-06-09T08:00:00,14,14,16,4.8,76,685,21.5,321,d,0,890,54,1013,0,320,16,Few clouds,801,c02d,80,4.8,2.6
2022-06-09T09:00:00,17,17,4,1.8,90,777,30.8,482,d,0,891,36,1013,0,482,16,Few clouds,801,c02d,310,4.6,4.6
2022-06-09T10:00:00,18,18,2,-1.3,100,837,40.2,634,d,0,892,27,1013,0,634,16,Few clouds,801,c02d,270,4.8,4.1
2022-06-09T11:00:00,19,17.7,3,-0.4,108,877,49,763,d,0,892,27,1013,0,763,16,Few clouds,801,c02d,20,4.4,2.1
2022-06-09T12:00:00,20,18.8,25,1,113,901,56.4,856,d,0,905,28,1013,0,849,16,Scattered clouds,802,c02d,105,5.2,1.5
2022-06-09T13:00:00,21,19.8,40,0.8,116,913,61.1,907,d,0,892,26,1012,0,871,16,Scattered clouds,802,c02d,190,9,5.1
2022-06-09T14:00:00,22,20.9,76,1.6,116,914,61.5,912,d,0,893,26,1011,0,589,16,Overcast clouds,804,c04d,190,9,6.2
2022-06-09T15:00:00,21,19.8,73,0.8,114,904,57.5,869,d,0,892,26,1011,0,601,16,Overcast clouds,804,c04d,170,7.2,4.6
2022-06-09T16:00:00,22,21,100,2.7,109,882,50.5,783,d,0,891,28,1010,0,187,16,Overcast clouds,804,c04d,150,11,4.1
2022-06-09T17:00:00,22,20.8,85,-1.3,102,846,41.8,660,d,0,891,21,1010,0,318,16,Overcast clouds,804,c04d,210,12,6.2
2022-06-09T18:00:00,21,19.9,92,1.8,92,790,32.6,512,d,0,890,28,1009,0,165,16,Overcast clouds,804,c04d,200,9,5.1
2022-06-09T19:00:00,20,18.8,93,1.9,79,705,23.2,351,d,0,890,30,1009,0,104,16,Overcast clouds,804,c04d,200,10.4,5.7
2022-06-09T20:00:00,20,18.8,94,1.9,61,570,14.1,193,d,0,889,30,1008,0,113,16,Overcast clouds,804,c04d,200,8.8,5.7
2022-06-09T21:00:00,19,17.8,92,1.9,35,323,5.5,58,d,0,888,32,1006,0,54,16,Overcast clouds,804,c04d,240,6.8,4.6
2022-06-09T22:00:00,18,18,93,1.9,0,0,-2.1,0,n,0.5,887,34,1006,0,0,16,Overcast clouds,804,c04n,240,6,3.1
2022-06-09T23:00:00,17,17,95,3,0,0,-8.3,0,n,0.5,886,39,1005,0,0,16,Overcast clouds,804,c04n,230,5.6,5.1
2022-06-10T00:00:00,16,16,92,2.8,0,0,-12.9,0,n,0.5,885,41,1004,0,0,16,Overcast clouds,804,c04n,240,5.2,2.6
2022-06-10T01:00:00,15,15,95,3.8,0,0,-15.4,0,n,0.25,884,47,1004,0,0,16,Overcast clouds,804,c04n,240,5.2,4.6
2022-06-10T02:00:00,15,15,96,3.8,0,0,-15.6,0,n,0,883,47,1003,0,0,16,Overcast clouds,804,c04n,220,5.2,2.6
2022-06-10T03:00:00,12,12,96,4,0,0,-13.5,0,n,0,883,58,1004,0,0,16,Overcast clouds,804,c04n,200,4.8,2.1
2022-06-10T04:00:00,12,12,95,5,0,0,-9.3,0,n,0,882,62,1003,0,0,16,Overcast clouds,804,c04n,235,4.8,1
2022-06-10T05:00:00,11,11,100,4.9,0,0,-3.3,0,n,0,881,66,1004,0,0,16,Overcast clouds,804,c04n,275,4.4,1
2022-06-10T06:00:00,12,12,38,4,29,252,4.1,38,d,0,881,58,1004,0,37,16,Scattered clouds,802,c02n,310,8,3.6
2022-06-10T07:00:00,16,16,75,2.8,57,536,12.4,165,d,0,882,41,1004,0,109,16,Overcast clouds,804,c04d,290,8,6.2
2022-06-10T08:00:00,17,17,0,1.8,76,685,21.5,321,d,0,884,36,1004,0,321,16,Clear Sky,800,c01d,300,9,7.2
2022-06-10T09:00:00,19,17.7,0,0.6,90,777,30.9,483,d,0,885,29,1005,0,483,16,Clear Sky,800,c01d,280,11,7.2
2022-06-10T10:00:00,20,18.8,4,1,100,837,40.2,635,d,0,886,28,1006,0,635,16,Few clouds,801,c02d,290,10,4.6
2022-06-10T11:00:00,21,19.9,0,1.8,108,877,49,763,d,0,887,28,1005,0,763,16,Clear Sky,800,c01d,250,8,5.1
2022-06-10T12:00:00,21,19.9,2,1.8,113,901,56.4,856,d,0,887,28,1006,0,856,16,Few clouds,801,c02d,270,12,6.7
2022-06-10T13:00:00,22,20.8,5,-1.3,116,913,61.1,908,d,0,887,21,1006,0,908,16,Few clouds,801,c02d,280,11,7.2
2022-06-10T14:00:00,23,21.9,5,-1.1,116,914,61.6,912,d,0,888,20,1006,0,912,16,Few clouds,801,c02d,260,8,5.1
2022-06-10T15:00:00,23,21.8,6,-2.6,114,904,57.6,870,d,0,889,18,1006,0,870,16,Few clouds,801,c02d,300,10,7.7
2022-06-10T16:00:00,24,23,7,-1,109,882,50.5,784,d,0,889,19,1006,0,784,16,Few clouds,801,c02d,300,12,8.8
2022-06-10T17:00:00,24,23,1,-1,102,846,41.9,661,d,0,889,19,1007,0,661,16,Clear Sky,800,c01d,300,12,9.3
2022-06-10T18:00:00,23,21.8,9,-3.3,92,790,32.7,513,d,0,889,17,1007,0,513,16,Few clouds,801,c02d,290,12,7.2
2022-06-10T19:00:00,23,21.8,2,-2.6,79,706,23.3,352,d,0,889,18,1006,0,352,16,Few clouds,801,c02d,280,11,6.2
2022-06-10T20:00:00,22,20.8,1,-2,61,572,14.1,194,d,0,889,20,1006,0,194,16,Clear Sky,800,c01d,290,9,6.2
2022-06-10T21:00:00,20,18.6,0,-2.3,36,326,5.6,59,d,0,889,22,1007,0,59,16,Clear Sky,800,c01d,290,7.2,7.2
2022-06-10T22:00:00,19,17.6,79,-1.4,0,0,-2,0,n,0,888,25,1007,0,0,16,Overcast clouds,804,c04n,290,6,5.7
2022-06-10T23:00:00,18,18,25,-1.3,0,0,-8.3,0,n,0,885,27,1007,0,0,16,Scattered clouds,802,c02n,300,8,5.7
2022-06-11T00:00:00,17,17,94,-1.1,0,0,-12.8,0,n,0,887,29,1006,0,0,16,Overcast clouds,804,c04n,300,7,4.6
2022-06-11T01:00:00,16,16,94,-2,0,0,-15.4,0,n,0,887,29,1006,0,0,16,Overcast clouds,804,c04n,360,3.2,2.1
2022-06-11T02:00:00,14,14,94,1,0,0,-15.6,0,n,0.5,886,41,1006,0,0,16,Overcast clouds,804,c04n,30,3.2,2.6
2022-06-11T03:00:00,15,15,95,0.8,0,0,-13.5,0,n,1,885,38,1006,0,0,16,Light rain,500,r01n,180,3.2,1
2022-06-11T04:00:00,16,16,95,1.7,0,0,-9.3,0,n,0.5,886,38,1005,0,0,16,Overcast clouds,804,c04n,330,3.6,3.1
2022-06-11T05:00:00,16,16,92,3.8,0,0,-3.3,0,n,0,885,44,1006,0,0,16,Overcast clouds,804,c04n,290,4.4,3.1
2022-06-11T06:00:00,15,15,87,3.8,29,254,4.1,39,d,0,886,47,1006,0,46,16,Overcast clouds,804,c04n,30,5.2,1
2022-06-11T07:00:00,15,15,88,5,57,537,12.5,166,d,0,885,51,1005,0,69,16,Overcast clouds,804,c04d,130,5.6,1.5
2022-06-11T08:00:00,16,16,88,2.8,76,685,21.5,321,d,0,885,41,1005,0,134,16,Overcast clouds,804,c04d,230,6,2.1
2022-06-11T09:00:00,17,17,38,5,90,777,30.9,483,d,0,885,45,1005,0,467,16,Scattered clouds,802,c02d,350,7.2,5.1
2022-06-11T10:00:00,19,17.9,72,4,100,837,40.2,635,d,0,886,37,1005,0,448,16,Overcast clouds,804,c04d,340,7.2,3.1
2022-06-11T11:00:00,19,17.9,46,4,108,876,49,763,d,0,886,37,1005,0,714,16,Broken clouds,803,c03d,210,11,2.1
2022-06-11T12:00:00,18,18,10,4.9,113,901,56.5,857,d,0,886,42,1005,0,857,16,Few clouds,801,c02d,280,11,8.2
2022-06-11T13:00:00,17,17,88,5.9,116,913,61.2,908,d,0,885,48,1006,0,379,16,Overcast clouds,804,c04d,200,5.6,4.6
2022-06-11T14:00:00,19,18.1,34,5.8,116,914,61.7,913,d,0,885,42,1005,0,892,16,Scattered clouds,802,c02d,190,9,4.6
2022-06-11T15:00:00,20,19.1,77,6,114,904,57.7,870,d,0,886,40,1004,0,548,16,Overcast clouds,804,c04d,220,7,5.1
2022-06-11T16:00:00,22,21.2,41,5.8,109,882,50.6,784,d,0,886,35,1003,0,750,16,Broken clouds,803,c03d,200,5.2,4.6
2022-06-11T17:00:00,21,20.2,78,6.9,102,846,42,662,d,0,886,40,1004,0,406,16,Overcast clouds,804,c04d,70,7.2,4.6
2022-06-11T18:00:00,20,18.9,8,3.7,92,791,32.7,514,d,2,885,34,1004,0,505,16,Light rain,500,r01d,80,10,1.5
2022-06-11T19:00:00,19,18,38,4.7,79,707,23.3,353,d,0,885,39,1005,0,341,16,Scattered clouds,802,c02d,360,11,8.8
2022-06-11T20:00:00,18,18,66,4.9,61,573,14.2,195,d,0,886,42,1005,0,152,16,Broken clouds,803,c03d,40,7.2,7.2
2022-06-11T21:00:00,16,16,69,5.9,36,330,5.7,60,d,0,885,51,1005,0,45,16,Broken clouds,803,c03d,40,3.6,3.6
2022-06-11T22:00:00,14,14,40,5.9,0,0,-1.9,0,n,0,885,58,1006,0,0,16,Scattered clouds,802,c02n,40,2.8,2.6
2022-06-11T23:00:00,13,13,58,4.9,0,0,-8.2,0,n,0,884,58,1006,0,0,16,Broken clouds,803,c03n,340,2.1,2.1
2022-06-12T00:00:00,13,13,37,4.9,0,0,-12.8,0,n,0,884,58,1007,0,0,16,Scattered clouds,802,c02n,265,4.8,1
2022-06-12T01:00:00,12,12,40,5.9,0,0,-15.3,0,n,0,884,66,1007,0,0,16,Scattered clouds,802,c02n,190,3.2,2.6
2022-06-12T02:00:00,12,12,60,5,0,0,-15.5,0,n,0,884,62,1006,0,0,16,Broken clouds,803,c03n,195,3.2,2
2022-06-12T03:00:00,9,9,84,5.9,0,0,-13.4,0,n,0,884,81,1007,0,0,16,Overcast clouds,804,c04n,195,3.2,1.6
2022-06-12T04:00:00,8,8,74,3.8,0,0,-9.2,0,n,0,883,75,1006,0,0,16,Overcast clouds,804,c04n,200,2.8,1
2022-06-12T05:00:00,9,9,45,3.8,0,0,-3.3,0,n,0,882,70,1006,0,0,16,Broken clouds,803,c03n,200,2.8,1.5
2022-06-12T06:00:00,10,10,42,2.8,29,255,4.1,39,d,0,882,61,1007,0,37,16,Broken clouds,803,c03n,270,4.1,4.1
2022-06-12T07:00:00,10,10,79,4,57,537,12.5,166,d,0,883,66,1007,0,99,16,Overcast clouds,804,c04d,340,3.6,1.5
2022-06-12T08:00:00,12,12,38,4,76,685,21.5,321,d,0,883,58,1007,0,310,16,Scattered clouds,802,c02d,330,4.6,4.6
2022-06-12T09:00:00,13,13,84,2.8,90,777,30.9,483,d,0,884,50,1007,0,243,16,Overcast clouds,804,c04d,340,3.6,3.1
2022-06-12T10:00:00,14,14,84,2.9,100,837,40.2,635,d,0,884,47,1007,0,319,16,Overcast clouds,804,c04d,360,4.4,3.6
2022-06-12T11:00:00,15,15,88,5,108,876,49,763,d,0,885,51,1006,0,318,16,Overcast clouds,804,c04d,70,7,3.1
2022-06-12T12:00:00,15,15,81,7.8,113,901,56.5,857,d,0,885,62,1006,0,480,16,Overcast clouds,804,c04d,20,7,4.6
2022-06-12T13:00:00,18,18,86,6.8,116,913,61.2,908,d,0,885,48,1006,0,419,16,Overcast clouds,804,c04d,60,8,5.1
2022-06-12T14:00:00,17,17,72,6.8,116,914,61.7,913,d,0,885,51,1005,0,644,16,Overcast clouds,804,c04d,30,8,4.1
2022-06-12T15:00:00,18,18,100,6.8,114,904,57.7,871,d,2,885,48,1005,0,178,16,Light rain,500,r01d,40,8,5.7
2022-06-12T16:00:00,16,16,95,5.9,109,882,50.7,785,d,0.5,884,51,1005,0,192,16,Overcast clouds,804,c04d,360,8,4.6
2022-06-12T17:00:00,16,16,83,7,102,846,42.1,663,d,0,884,55,1005,0,346,16,Overcast clouds,804,c04d,70,8,4.6
2022-06-12T18:00:00,17,17,85,6.8,92,791,32.8,515,d,0,883,51,1005,0,248,16,Overcast clouds,804,c04d,50,7.2,6.7
2022-06-12T19:00:00,14,14,38,8,79,707,23.4,354,d,0,884,67,1005,0,342,11,Scattered clouds,802,c02d,60,8,5.1
2022-06-12T20:00:00,13,13,90,7.9,62,574,14.3,196,d,0,883,71,1005,0,73,11,Overcast clouds,804,c04d,70,8,5.1
2022-06-12T21:00:00,12,12,93,7.9,36,333,5.8,61,d,0,883,76,1006,0,54,11,Overcast clouds,804,c04d,40,4.6,4.6
2022-06-12T22:00:00,11,11,92,7.9,0,0,-1.8,0,n,1,881,81,1006,0,0,11,Light rain,500,r01n,10,4.6,4.6
2022-06-12T23:00:00,12,12,94,6.9,0,0,-8.1,0,n,0.5,882,71,1006,0,0,16,Overcast clouds,804,c04n,360,4.1,4.1
2022-06-13T00:00:00,11,11,93,8.9,0,0,-12.7,0,n,0,883,87,1006,0,0,16,Overcast clouds,804,c04n,10,3.6,3.6
2022-06-13T01:00:00,11,11,91,7.9,0,0,-15.2,0,n,1,882,81,1006,0,0,11,Light rain,500,r01n,10,4.4,3.6
2022-06-13T02:00:00,11,11,90,7.9,0,0,-15.5,0,n,1,883,81,1006,0,0,16,Light rain,500,r01n,10,5.6,4.6
2022-06-13T03:00:00,11,11,79,7.9,0,0,-13.4,0,n,1.5,882,81,1006,0,0,11,Light rain,500,r01n,350,6,4.1
2022-06-13T04:00:00,10,10,83,7.9,0,0,-9.2,0,n,0.5,883,87,1006,0,0,11,Overcast clouds,804,c04n,340,5.6,4.1
2022-06-13T05:00:00,10,10,86,7.9,0,0,-3.2,0,n,0.25,882,87,1007,0,0,11,Overcast clouds,804,c04n,350,5.6,3.6
2022-06-13T06:00:00,10,10,92,6.9,30,256,4.1,39,d,1,882,81,1006,0,43,11,Light rain,500,r01n,360,6,5.1
2022-06-13T07:00:00,10,10,94,6.9,57,537,12.5,166,d,1,882,81,1006,0,102,16,Light rain,500,r01d,10,7.2,7.2
2022-06-13T08:00:00,10,10,89,6.9,76,685,21.5,321,d,1,882,81,1007,0,127,16,Light rain,500,r01d,360,7.6,5.1
2022-06-13T09:00:00,11,11,87,6.9,90,777,30.9,483,d,0.5,882,76,1006,0,212,16,Overcast clouds,804,c04d,360,8,6.7
2022-06-13T10:00:00,12,12,88,7.9,100,837,40.2,635,d,0.5,882,76,1006,0,265,16,Overcast clouds,804,c04d,360,7.6,7.2
2022-06-13T11:00:00,12,12,94,6.9,108,876,49,763,d,1,882,71,1005,0,207,16,Light rain,500,r01d,10,8.2,8.2
2022-06-13T12:00:00,13,13,94,6.8,113,901,56.5,857,d,1.5,882,66,1005,0,224,16,Light rain,500,r01d,20,9.3,9.3
2022-06-13T13:00:00,15,15,93,7.8,116,913,61.3,909,d,1,882,62,1004,0,270,16,Light rain,500,r01d,10,9.3,9.3
2022-06-13T14:00:00,13,13,94,10,116,914,61.8,914,d,1.75,905,82,1004,0,210,5,Light rain,500,r01d,10,8.8,5.7
2022-06-13T15:00:00,10,10,94,7.9,114,904,57.8,872,d,2,881,87,1005,0,225,6,Light rain,500,r01d,150,9.2,3.6
2022-06-13T16:00:00,11,11,96,7.9,109,883,50.8,786,d,2.75,881,81,1005,0,155,1,Light rain,500,r01d,150,8.4,4.1
2022-06-13T17:00:00,10,10,94,8.9,102,847,42.2,664,d,2.25,881,93,1005,0,168,10,Light rain,500,r01d,230,8.4,3.6
2022-06-13T18:00:00,10,10,95,8.9,92,791,32.9,516,d,2.5,881,93,1005,0,114,8,Light rain,500,r01d,230,8.4,4.1
2022-06-13T19:00:00,9,9,95,7.9,79,708,23.5,356,d,2.5,880,93,1005,0,77,5,Light rain,500,r01d,285,6.8,1
2022-06-13T20:00:00,9,9,93,7.9,62,576,14.4,198,d,3,880,93,1004,0,102,10,Light rain,500,r01d,340,7.6,5.1
2022-06-13T21:00:00,9,9,94,9,37,335,5.8,62,d,2.5,879,100,1004,0,45,6,Light rain,500,r01d,340,9,7.2
2022-06-13T22:00:00,9,9,94,9,0,0,-1.8,0,n,2.25,879,100,1003,0,0,8,Light rain,500,r01n,340,9,5.1
2022-06-13T23:00:00,10,10,92,8.9,0,0,-8.1,0,n,2.25,879,93,1003,0,0,5,Light rain,500,r01n,350,9.2,5.1
2022-06-14T00:00:00,10,10,92,8.9,0,0,-12.6,0,n,2.25,878,93,1001,0,0,6,Light rain,500,r01n,340,8,5.1
2022-06-14T01:00:00,9,9,89,7.9,0,0,-15.2,0,n,1.75,878,93,1001,0,0,8,Light rain,500,r01n,350,8,5.1
2022-06-14T02:00:00,9,9,87,7.9,0,0,-15.4,0,n,1,877,93,1000,0,0,6,Light rain,500,r01n,350,10,7.2
2022-06-14T03:00:00,9,9,92,7.9,0,0,-13.4,0,n,1,876,93,1000,0,0,5,Light rain,500,r01n,350,11,9.3
2022-06-14T04:00:00,10,10,94,7.9,0,0,-9.2,0,n,0.5,876,87,1000,0,0,8,Overcast clouds,804,c04n,340,11,7.7
2022-06-14T05:00:00,9,9,94,7.9,0,0,-3.2,0,n,0.5,876,93,999,0,0,5,Overcast clouds,804,c04n,330,12,9.3
2022-06-14T06:00:00,9,9,94,9,30,256,4.1,39,d,0.5,875,100,999,0,41,5,Fog,741,a05n,350,14,10.3
2022-06-14T07:00:00,9,9,94,7.9,57,537,12.5,166,d,0.5,875,93,1000,0,102,6,Overcast clouds,804,c04d,350,13,8.8
2022-06-14T08:00:00,9,9,90,7,76,685,21.5,321,d,0.5,876,87,1000,0,119,6,Overcast clouds,804,c04d,340,15,11.3
2022-06-14T09:00:00,9,9,92,7,90,777,30.9,483,d,0.5,876,87,1000,0,156,8,Overcast clouds,804,c04d,330,16,11.3
2022-06-14T10:00:00,9,9,93,7,100,837,40.2,635,d,0.5,875,87,999,0,188,1,Haze,721,a03d,330,15,10.3
2022-06-14T11:00:00,9,9,85,7,108,876,49,763,d,0.75,875,87,999,0,368,8,Light rain,500,r01d,330,19,13.4
2022-06-14T12:00:00,9,9,94,7,113,900,56.5,857,d,1,875,87,999,0,232,8,Light rain,500,r01d,330,21,17
2022-06-14T13:00:00,8,8,89,6.9,116,913,61.3,909,d,0.5,875,93,999,0,359,8,Overcast clouds,804,c04d,340,25,16.5
2022-06-14T14:00:00,10,10,94,7.9,116,914,61.8,914,d,1.5,874,87,1000,0,239,10,Light rain,500,r01d,340,22,17
2022-06-14T15:00:00,10,10,88,6.9,114,904,57.8,872,d,1,876,81,1002,0,364,16,Light rain,500,r01d,340,22,16.5
2022-06-14T16:00:00,11,11,75,6.9,109,883,50.8,787,d,1,878,76,1003,0,521,16,Light rain,500,r01d,340,20,12.9
2022-06-14T17:00:00,11,11,87,7.9,102,847,42.2,665,d,1.5,879,81,1004,0,285,6,Light rain,500,r01d,340,18,10.8
2022-06-14T18:00:00,10,10,90,6.9,93,792,32.9,517,d,2,880,81,1005,0,182,16,Light rain,500,r01d,330,17,12.9
2022-06-14T19:00:00,9,9,86,7,79,709,23.5,357,d,0.5,880,87,1006,0,165,8,Overcast clouds,804,c04d,330,16,12.9
2022-06-14T20:00:00,9,9,92,7,62,577,14.4,199,d,0,881,87,1006,0,64,6,Overcast clouds,804,c04d,330,12,10.3
2022-06-14T21:00:00,9,9,94,7,37,338,5.9,63,d,0,881,87,1006,0,54,11,Overcast clouds,804,c04d,330,16,11.8
2022-06-14T22:00:00,9,9,94,7,0,0,-1.7,0,n,0,881,87,1006,0,0,11,Overcast clouds,804,c04n,330,18,11.8
2022-06-14T23:00:00,10,10,94,6.9,0,0,-8,0,n,0.5,881,81,1006,0,0,14,Overcast clouds,804,c04n,330,18,11.8
2022-06-15T00:00:00,10,10,94,6.9,0,0,-12.6,0,n,0.5,881,81,1006,0,0,11,Overcast clouds,804,c04n,320,19,13.9
2022-06-15T01:00:00,9,9,92,7,0,0,-15.1,0,n,1,881,87,1006,0,0,11,Light rain,500,r01n,320,18,12.4
2022-06-15T02:00:00,10,10,92,6.9,0,0,-15.4,0,n,0.5,881,81,1006,0,0,11,Overcast clouds,804,c04n,320,18,13.4
2022-06-15T03:00:00,9,9,86,7,0,0,-13.3,0,n,0.5,881,87,1006,0,0,11,Overcast clouds,804,c04n,330,19,13.9
2022-06-15T04:00:00,9,9,90,7,0,0,-9.1,0,n,0.5,881,87,1006,0,0,11,Overcast clouds,804,c04n,320,18,11.8
2022-06-15T05:00:00,10,10,94,6.9,0,0,-3.2,0,n,0.5,881,81,1007,0,0,14,Overcast clouds,804,c04n,330,18,12.4
2022-06-15T06:00:00,10,10,96,7.9,30,256,4.2,39,d,0.25,882,87,1008,0,38,14,Overcast clouds,804,c04n,330,17,12.9
2022-06-15T07:00:00,10,10,92,7.9,57,537,12.5,166,d,0.5,883,87,1009,0,110,11,Overcast clouds,804,c04d,330,18,12.9
2022-06-15T08:00:00,11,11,90,7.9,76,685,21.5,321,d,0.5,884,81,1009,0,119,16,Overcast clouds,804,c04d,330,18,11.3
2022-06-15T09:00:00,12,12,92,7.9,90,777,30.9,483,d,0.5,884,76,1010,0,156,16,Overcast clouds,804,c04d,340,18,14.9
2022-06-15T10:00:00,12,12,90,6.9,100,836,40.2,635,d,0,885,71,1011,0,236,16,Overcast clouds,804,c04d,330,17,12.9
2022-06-15T11:00:00,13,13,96,6.8,108,876,49,763,d,0,886,66,1011,0,165,16,Overcast clouds,804,c04d,330,21,12.9
2022-06-15T12:00:00,13,13,91,6.8,113,900,56.5,857,d,0,887,66,1012,0,297,16,Overcast clouds,804,c04d,340,18,13.9
2022-06-15T13:00:00,13,13,81,7.9,116,913,61.3,909,d,0,888,71,1012,0,509,16,Overcast clouds,804,c04d,320,17,11.8
2022-06-15T14:00:00,14,14,84,8,116,914,61.9,914,d,0,888,67,1013,0,459,16,Overcast clouds,804,c04d,320,16,12.4
2022-06-15T15:00:00,15,15,92,6.8,114,904,57.9,873,d,0,889,58,1014,0,281,16,Overcast clouds,804,c04d,340,19,13.9
2022-06-15T16:00:00,15,15,42,6.8,109,883,50.9,787,d,0,891,58,1014,0,750,16,Broken clouds,803,c03d,350,18,12.4
2022-06-15T17:00:00,14,14,49,6.8,102,847,42.3,666,d,0,891,62,1015,0,613,16,Broken clouds,803,c03d,350,16,10.3
2022-06-15T18:00:00,15,15,76,6.8,93,792,33,518,d,0,891,58,1016,0,335,16,Overcast clouds,804,c04d,340,14,10.3
2022-06-15T19:00:00,15,15,100,6.8,80,709,23.6,358,d,0.5,892,58,1016,0,116,16,Overcast clouds,804,c04d,330,15,11.8
2022-06-15T20:00:00,15,15,30,5.8,62,578,14.5,200,d,0,892,54,1016,0,197,16,Scattered clouds,802,c02d,320,13,10.3
2022-06-15T21:00:00,14,14,21,5.9,37,340,6,64,d,0,892,58,1016,0,64,16,Scattered clouds,802,c02d,340,10,6.2
2022-06-15T22:00:00,12,12,41,5.9,0,0,-1.6,0,n,0,892,66,1017,0,0,16,Broken clouds,803,c03n,340,10,5.7
2022-06-15T23:00:00,11,11,34,6,0,0,-7.9,0,n,0,892,71,1017,0,0,16,Scattered clouds,802,c02n,340,5.6,4.1
2022-06-16T00:00:00,11,11,37,4.9,0,0,-12.5,0,n,0,892,66,1017,0,0,16,Scattered clouds,802,c02n,340,4.8,4.1
2022-06-16T01:00:00,11,11,42,4.9,0,0,-15.1,0,n,0,892,66,1017,0,0,16,Broken clouds,803,c03n,330,4,3.6
2022-06-16T02:00:00,10,10,82,5,0,0,-15.4,0,n,0,892,71,1017,0,0,16,Overcast clouds,804,c04n,350,4.1,4.1
2022-06-16T03:00:00,11,11,87,4.9,0,0,-13.3,0,n,0,892,66,1017,0,0,16,Overcast clouds,804,c04n,330,4,2
2022-06-16T04:00:00,9,9,90,5,0,0,-9.1,0,n,0,892,76,1017,0,0,16,Overcast clouds,804,c04n,310,3.6,2.4
2022-06-16T05:00:00,10,10,43,6,0,0,-3.2,0,n,0,891,76,1018,0,0,16,Broken clouds,803,c03n,290,3.2,1
2022-06-16T06:00:00,10,10,77,6,30,256,4.2,39,d,0,892,76,1018,0,55,16,Overcast clouds,804,c04n,270,3.2,1.6
2022-06-16T07:00:00,11,11,76,6.9,57,537,12.5,166,d,0,892,76,1018,0,107,16,Overcast clouds,804,c04d,250,3.6,1
2022-06-16T08:00:00,12,12,77,6.9,76,685,21.5,321,d,0,893,71,1018,0,202,16,Overcast clouds,804,c04d,230,2.8,2.1
2022-06-16T09:00:00,13,13,43,6.8,90,776,30.9,483,d,0,893,66,1017,0,458,16,Broken clouds,803,c03d,60,3.6,2.1
2022-06-16T10:00:00,15,15,81,7.8,100,836,40.2,634,d,0,893,62,1018,0,355,16,Overcast clouds,804,c04d,180,6,2.6
2022-06-16T11:00:00,16,16,50,9,108,876,49,763,d,0,894,63,1017,0,698,16,Broken clouds,803,c03d,130,7.6,4.1
2022-06-16T12:00:00,16,16,82,8,113,900,56.5,857,d,0,894,59,1017,0,464,16,Overcast clouds,804,c04d,190,8.8,5.1
2022-06-16T13:00:00,17,17,91,8.9,116,912,61.3,909,d,0.5,894,59,1016,0,315,16,Overcast clouds,804,c04d,170,8,3.6
2022-06-16T14:00:00,17,17,76,8.9,116,914,61.9,914,d,0,894,59,1016,0,590,16,Overcast clouds,804,c04d,160,8,5.1
2022-06-16T15:00:00,17,17,75,7.9,114,904,58,873,d,0,894,55,1016,0,578,16,Overcast clouds,804,c04d,170,9,7.2
2022-06-16T16:00:00,18,18,78,8.8,109,883,50.9,788,d,0,893,55,1015,0,483,16,Overcast clouds,804,c04d,160,9,6.2
2022-06-16T17:00:00,18,18,77,8,102,847,42.3,667,d,0,893,52,1015,0,420,16,Overcast clouds,804,c04d,170,11,8.2
2022-06-16T18:00:00,18,18,82,8,93,792,33.1,519,d,0,893,52,1014,0,281,16,Overcast clouds,804,c04d,160,11,7.2
2022-06-16T19:00:00,18,18,78,8,80,710,23.7,359,d,0,893,52,1013,0,220,16,Overcast clouds,804,c04d,160,11,7.2
2022-06-16T20:00:00,18,18,84,8,62,579,14.6,201,d,0,892,52,1013,0,101,16,Overcast clouds,804,c04d,160,10,7.2
2022-06-16T21:00:00,17,17,86,9.9,37,343,6,65,d,0,892,63,1014,0,67,16,Overcast clouds,804,c04d,160,6,5.1
2022-06-16T22:00:00,16,16,92,9.9,0,0,-1.6,0,n,0,892,67,1014,0,0,11,Overcast clouds,804,c04n,160,9,7.2
2022-06-16T23:00:00,15,15,94,10,0,0,-7.9,0,n,0,892,72,1014,0,0,11,Overcast clouds,804,c04n,170,8,5.1
2022-06-17T00:00:00,13,13,93,10.9,0,0,-12.5,0,n,0,892,87,1014,0,0,16,Overcast clouds,804,c04n,170,4.4,3.6
2022-06-17T01:00:00,14,14,79,11,0,0,-15.1,0,n,0,890,82,1013,0,0,16,Overcast clouds,804,c04n,180,5.2,3.6
2022-06-17T02:00:00,14,14,87,9.8,0,0,-15.3,0,n,0,891,76,1013,0,0,16,Overcast clouds,804,c04n,190,3.2,3.1
2022-06-17T03:00:00,13,13,86,10.9,0,0,-13.3,0,n,0,891,87,1013,0,0,16,Overcast clouds,804,c04n,170,3.1,3.1
2022-06-17T04:00:00,13,13,94,10,0,0,-9.1,0,n,0,890,82,1012,0,0,16,Overcast clouds,804,c04n,120,8,3.6
2022-06-17T05:00:00,12,12,87,9.9,0,0,-3.2,0,n,0.25,889,87,1011,0,0,16,Overcast clouds,804,c04n,140,8,6.2
2022-06-17T06:00:00,13,13,90,10.9,30,256,4.1,39,d,0.25,888,87,1012,0,43,11,Overcast clouds,804,c04n,140,4.1,4.1
2022-06-17T07:00:00,12,12,35,10.9,57,537,12.5,166,d,0,889,93,1012,0,156,11,Scattered clouds,802,c02d,120,4.1,4.1
2022-06-17T08:00:00,13,13,93,10.9,76,685,21.5,321,d,0.5,889,87,1012,0,85,14,Overcast clouds,804,c04d,240,3.2,3.1
2022-06-17T09:00:00,14,14,100,11.9,90,776,30.9,482,d,1.5,889,87,1011,0,107,16,Light rain,500,r01d,350,4.4,3.6
2022-06-17T10:00:00,17,17,33,11.9,100,836,40.2,634,d,0.5,889,72,1009,0,599,16,Scattered clouds,802,c02d,10,6.2,6.2
2022-06-17T11:00:00,17,17,25,11.9,108,876,49,763,d,0,888,72,1010,0,731,16,Scattered clouds,802,c02d,70,9,6.7
2022-06-17T12:00:00,19,18.5,47,10.8,113,900,56.5,857,d,0,889,59,1009,0,771,16,Broken clouds,803,c03d,60,9,7.2
2022-06-17T13:00:00,19,18.7,79,13,116,912,61.4,909,d,0,889,68,1009,0,509,16,Overcast clouds,804,c04d,80,7.6,6.7
2022-06-17T14:00:00,19,18.6,100,11.8,116,914,61.9,915,d,0,889,63,1008,0,176,16,Overcast clouds,804,c04d,50,6.8,6.7
2022-06-17T15:00:00,19,18.7,74,13,114,904,58,873,d,0,888,68,1007,0,559,16,Overcast clouds,804,c04d,70,6.8,4.1
2022-06-17T16:00:00,18,18,93,12.9,109,883,51,788,d,0,887,72,1007,0,206,16,Overcast clouds,804,c04d,50,5.6,3.6
2022-06-17T17:00:00,21,20.8,48,13.9,102,847,42.4,667,d,0,887,64,1006,0,592,16,Broken clouds,803,c03d,40,5.6,3.6
2022-06-17T18:00:00,20,19.7,25,13,93,793,33.1,520,d,0,887,64,1006,0,497,16,Scattered clouds,802,c02d,320,4,3.1
2022-06-17T19:00:00,19,18.8,90,13.8,80,710,23.7,359,d,0,887,72,1005,0,120,16,Overcast clouds,804,c04d,350,5.7,5.7
2022-06-17T20:00:00,18,18,100,13.9,62,580,14.6,201,d,0.25,884,77,1008,0,74,8,Overcast clouds,804,c04d,310,4.1,4.1
2022-06-17T21:00:00,17,17,96,13.9,37,344,6.1,65,d,0,891,82,1008,0,48,16,Overcast clouds,804,c04d,60,8,1.5
2022-06-17T22:00:00,16,16,94,13.8,0,0,-1.5,0,n,0.5,887,87,1007,0,0,16,Overcast clouds,804,c04n,240,8,3.6
2022-06-17T23:00:00,15,15,95,13.9,0,0,-7.8,0,n,0.75,885,93,1007,0,0,8,Light rain,500,r01n,350,3.6,3.6
2022-06-18T00:00:00,15,15,95,12.9,0,0,-12.5,0,n,1,886,87,1006,0,0,16,Light rain,500,r01n,20,2.8,2.1
2022-06-18T01:00:00,14,14,81,12.9,0,0,-15,0,n,1.75,885,93,1005,0,0,16,Light rain,500,r01n,340,4.8,3.1
2022-06-18T02:00:00,14,14,88,12.9,0,0,-15.3,0,n,2.75,884,93,1006,0,0,8,Light rain,500,r01n,340,3.6,3.6
2022-06-18T03:00:00,14,14,96,12.9,0,0,-13.3,0,n,3.5,885,93,1006,0,0,8,Light rain,500,r01n,350,5.7,5.7
2022-06-18T04:00:00,13,13,96,11.9,0,0,-9.1,0,n,0,885,93,1007,0,0,11,Overcast clouds,804,c04n,320,4.4,1.5
2022-06-18T05:00:00,14,14,95,11.9,0,0,-3.2,0,n,2,885,87,1008,0,0,8,Light rain,500,r01n,280,5.6,2.6
2022-06-18T06:00:00,13,13,76,11.9,29,255,4.1,39,d,1,885,93,1006,0,53,11,Light rain,500,r01n,290,8,4.6
2022-06-18T07:00:00,13,13,96,11.9,57,536,12.5,166,d,0.25,884,93,1007,0,87,8,Overcast clouds,804,c04d,230,7.2,3.1
2022-06-18T08:00:00,13,13,96,11.9,76,684,21.5,320,d,1,884,93,1007,0,134,10,Light rain,500,r01d,150,6.8,2.1
2022-06-18T09:00:00,13,13,94,13,90,776,30.8,482,d,1,885,100,1008,0,113,8,Light rain,500,r01d,85,6.8,0.8
2022-06-18T10:00:00,15,15,87,12.9,100,836,40.2,634,d,1,885,87,1007,0,256,13,Light rain,500,r01d,20,6,5.1
2022-06-18T11:00:00,15,15,69,12,108,875,49,762,d,0.5,886,82,1007,0,542,16,Broken clouds,803,c03d,20,6,3.6
2022-06-18T12:00:00,17,17,75,12.9,113,900,56.5,857,d,0,886,77,1007,0,536,16,Overcast clouds,804,c04d,40,6.8,2.6
2022-06-18T13:00:00,19,18.6,60,11.8,115,912,61.4,909,d,0,886,63,1007,0,735,16,Broken clouds,803,c03d,340,5.6,2.6
2022-06-18T14:00:00,20,19.7,100,13,116,914,62,915,d,3.25,887,64,1007,0,136,16,Light rain,500,r01d,20,9,2.1
2022-06-18T15:00:00,15,15,100,10,114,904,58,874,d,14,887,72,1008,0,87,11,Heavy rain,502,r03d,10,9,5.1
2022-06-18T16:00:00,18,18,45,10.9,109,883,51,789,d,7.25,886,63,1007,0,678,16,Heavy rain,502,r03d,185,7.6,1.6
2022-06-18T17:00:00,20,19.4,94,9.9,102,847,42.4,668,d,1.75,887,52,1007,0,172,16,Light rain,500,r01d,360,8,2.1
2022-06-18T18:00:00,20,19.5,83,11,93,793,33.2,521,d,1.5,888,56,1008,0,249,16,Light rain,500,r01d,110,7.2,5.7
2022-06-18T19:00:00,19,18.4,87,9.8,80,711,23.8,360,d,0.5,888,55,1008,0,158,16,Overcast clouds,804,c04d,80,4.8,2.6
2022-06-18T20:00:00,17,17,84,10.8,62,580,14.6,202,d,0,888,67,1009,0,95,16,Overcast clouds,804,c04d,110,3.6,3.6
2022-06-18T21:00:00,15,15,82,8.9,38,346,6.1,66,d,0,887,67,1009,0,74,11,Overcast clouds,804,c04d,80,1.2,1
2022-06-18T22:00:00,15,15,10,7.8,0,0,-1.5,0,n,0,887,62,1009,0,0,16,Few clouds,801,c02n,55,2.4,2.4
2022-06-18T23:00:00,15,15,32,8.9,0,0,-7.8,0,n,0,887,67,1010,0,0,16,Scattered clouds,802,c02n,35,2,1
2022-06-19T00:00:00,13,13,100,10,0,0,-12.4,0,n,0,888,82,1010,0,0,16,Overcast clouds,804,c04n,10,3.1,3.1
2022-06-19T01:00:00,12,12,100,9.9,0,0,-15,0,n,0,887,87,1010,0,0,16,Overcast clouds,804,c04n,360,3.6,3.6
2022-06-19T02:00:00,12,12,85,8.8,0,0,-15.3,0,n,0,887,81,1011,0,0,16,Overcast clouds,804,c04n,350,4.1,4.1
2022-06-19T03:00:00,11,11,81,8.9,0,0,-13.3,0,n,0,888,87,1011,0,0,16,Overcast clouds,804,c04n,360,2.4,2.1
2022-06-19T04:00:00,12,12,91,9.9,0,0,-9.1,0,n,0,887,87,1011,0,0,16,Overcast clouds,804,c04n,325,3.6,1
2022-06-19T05:00:00,13,13,91,8.9,0,0,-3.2,0,n,0,888,76,1011,0,0,16,Overcast clouds,804,c04n,290,3.6,1.5
2022-06-19T06:00:00,12,12,89,9.9,29,254,4.1,39,d,0,888,87,1012,0,43,16,Overcast clouds,804,c04n,185,3.2,1
2022-06-19T07:00:00,12,12,91,9.9,57,536,12.4,165,d,0,888,87,1012,0,109,16,Overcast clouds,804,c04d,80,4.4,2.6
2022-06-19T08:00:00,13,13,90,10,76,684,21.5,320,d,0,889,82,1012,0,109,16,Overcast clouds,804,c04d,330,5.2,4.1
2022-06-19T09:00:00,14,14,90,9.8,90,775,30.8,481,d,0,889,76,1013,0,178,16,Overcast clouds,804,c04d,360,7,4.1
2022-06-19T10:00:00,15,15,83,10,100,836,40.2,633,d,0,890,72,1013,0,331,16,Overcast clouds,804,c04d,360,7,4.1
2022-06-19T11:00:00,17,17,45,10.8,108,875,49,762,d,0,890,67,1013,0,693,16,Broken clouds,803,c03d,20,7,4.1
2022-06-19T12:00:00,17,17,100,9.9,113,900,56.5,856,d,0,891,63,1013,0,199,16,Overcast clouds,804,c04d,360,8,5.7
2022-06-19T13:00:00,18,18,97,10.9,115,912,61.4,909,d,0,891,63,1012,0,143,16,Overcast clouds,804,c04d,30,7,3.1
2022-06-19T14:00:00,19,18.4,91,9.8,116,913,62,915,d,0,895,55,1012,0,317,16,Overcast clouds,804,c04d,60,7,4.1
2022-06-19T15:00:00,17,17,72,10.8,114,904,58.1,874,d,0,892,67,1012,0,589,16,Overcast clouds,804,c04d,70,6.8,3.1
2022-06-19T16:00:00,17,17,90,9.9,109,883,51.1,789,d,0,891,63,1013,0,293,16,Overcast clouds,804,c04d,180,6.4,2.6
2022-06-19T17:00:00,18,18,92,4.9,102,847,42.5,668,d,0,891,42,1012,0,215,16,Overcast clouds,804,c04d,290,4.8,3.1
2022-06-19T18:00:00,18,18,90,4.9,93,793,33.2,521,d,1.5,891,42,1012,0,186,16,Light rain,500,r01d,310,6,1
2022-06-19T19:00:00,18,18,93,8,80,711,23.8,361,d,1,891,52,1013,0,107,16,Light rain,500,r01d,330,9,2.1
2022-06-19T20:00:00,15,15,95,6.8,62,581,14.7,203,d,0.5,891,58,1014,0,112,16,Overcast clouds,804,c04d,360,9,6.7
2022-06-19T21:00:00,13,13,82,8.9,38,348,6.1,66,d,0.25,896,76,1015,0,74,16,Overcast clouds,804,c04d,360,6.7,6.7
2022-06-19T22:00:00,13,13,79,8.9,0,0,-1.5,0,n,0,891,76,1015,0,0,16,Overcast clouds,804,c04n,340,4.8,4.6
2022-06-19T23:00:00,13,13,81,8.9,0,0,-7.8,0,n,0,891,76,1015,0,0,16,Overcast clouds,804,c04n,330,10,5.1
2022-06-20T00:00:00,13,13,85,8.9,0,0,-12.4,0,n,0,892,76,1016,0,0,16,Overcast clouds,804,c04n,340,10,7.2
2022-06-20T01:00:00,11,11,86,7.9,0,0,-15,0,n,0,892,81,1016,0,0,16,Overcast clouds,804,c04n,360,8,6.7
2022-06-20T02:00:00,11,11,88,6.9,0,0,-15.3,0,n,0,891,76,1016,0,0,16,Overcast clouds,804,c04n,300,7.2,3.1
2022-06-20T03:00:00,11,11,82,6,0,0,-13.3,0,n,0,892,71,1016,0,0,16,Overcast clouds,804,c04n,310,6.8,3.1
2022-06-20T04:00:00,11,11,82,6,0,0,-9.1,0,n,0,891,71,1016,0,0,16,Overcast clouds,804,c04n,340,6.4,3.6
2022-06-20T05:00:00,10,10,90,6,0,0,-3.2,0,n,0,891,76,1016,0,0,16,Overcast clouds,804,c04n,340,6.4,4.1
2022-06-20T06:00:00,10,10,76,5,29,253,4.1,38,d,0,891,71,1017,0,54,16,Overcast clouds,804,c04n,360,8,4.1
2022-06-20T07:00:00,12,12,75,6.9,57,535,12.4,165,d,0,891,71,1017,0,109,16,Overcast clouds,804,c04d,340,7,5.1
2022-06-20T08:00:00,14,14,85,8,76,683,21.4,319,d,0,892,67,1018,0,154,16,Overcast clouds,804,c04d,360,9,7.7
2022-06-20T09:00:00,14,14,94,6.8,90,775,30.8,481,d,0,894,62,1018,0,130,16,Overcast clouds,804,c04d,360,10,7.7
2022-06-20T10:00:00,14,14,95,8,100,835,40.1,633,d,0,894,67,1018,0,154,16,Overcast clouds,804,c04d,10,9.6,9.3
2022-06-20T11:00:00,15,15,95,7.8,108,875,49,761,d,0,894,62,1018,0,186,16,Overcast clouds,804,c04d,10,9,8.2
2022-06-20T12:00:00,16,16,94,8,113,900,56.5,856,d,0,894,59,1018,0,232,16,Overcast clouds,804,c04d,10,9,6.7
2022-06-20T13:00:00,16,16,98,7,115,912,61.4,908,d,0,895,55,1018,0,145,16,Overcast clouds,804,c04d,360,9,7.7
2022-06-20T14:00:00,15,15,95,8.9,116,913,62,915,d,0,895,67,1018,0,223,16,Overcast clouds,804,c04d,40,9,6.2
2022-06-20T15:00:00,16.5,16.5,93,9,114,904,58.1,874,d,1,895,61,1018,0,259,16,Light rain,500,r01d,185,9.2,7.2
2022-06-20T16:00:00,18,18,92,8.8,109,883,51.1,790,d,0,895,55,1018,0,255,16,Overcast clouds,804,c04d,330,10,8.2
2022-06-20T17:00:00,17,17,81,6.8,102,847,42.5,669,d,0,896,51,1018,0,375,16,Overcast clouds,804,c04d,330,13,8.8
2022-06-20T18:00:00,19,18.1,23,6.8,93,793,33.2,522,d,0,895,45,1019,0,519,16,Scattered clouds,802,c02d,350,9.6,8.8
2022-06-20T19:00:00,17,17,81,5.9,80,711,23.8,361,d,0,901,48,1019,0,202,16,Overcast clouds,804,c04d,340,6.8,5.7
2022-06-20T20:00:00,16,16,39,8,62,582,14.7,203,d,0,895,59,1019,0,196,16,Scattered clouds,802,c02d,10,4.6,4.6
2022-06-20T21:00:00,14,14,36,8,38,349,6.2,67,d,0,896,67,1020,0,65,16,Scattered clouds,802,c02d,350,5.6,4.1
2022-06-20T22:00:00,14,14,16,8,0,0,-1.4,0,n,0.5,896,67,1020,0,0,16,Few clouds,801,c02n,330,6.4,1.5
2022-06-20T23:00:00,13,13,22,6.8,0,0,-7.8,0,n,0,896,66,1021,0,0,16,Scattered clouds,802,c02n,315,5.2,2.8
2022-06-21T00:00:00,13,13,2,6.8,0,0,-12.4,0,n,0,896,66,1021,0,0,16,Few clouds,801,c02n,300,4.4,1.5
2022-06-21T01:00:00,13,13,2,6.8,0,0,-15,0,n,0,896,66,1021,0,0,16,Few clouds,801,c02n,310,4.4,2.6
2022-06-21T02:00:00,11,11,5,6.9,0,0,-15.3,0,n,0,896,76,1021,0,0,16,Few clouds,801,c02n,210,4,1.5
2022-06-21T03:00:00,9,9,5,7,0,0,-13.3,0,n,0,896,87,1022,0,0,16,Few clouds,801,c02n,200,4,2.4
2022-06-21T04:00:00,9,9,5,7,0,0,-9.2,0,n,0,895,87,1022,0,0,16,Few clouds,801,c02n,185,4.4,2.4
2022-06-21T05:00:00,9,9,5,5.9,0,0,-3.3,0,n,0,895,81,1022,0,0,16,Few clouds,801,c02n,175,4.4,1
2022-06-21T06:00:00,8,8,8,6,29,252,4.1,38,d,0,896,87,1023,0,38,16,Few clouds,801,c02n,160,4.4,1.5
2022-06-21T07:00:00,11,11,6,7.9,57,534,12.4,164,d,0,895,81,1023,0,164,16,Few clouds,801,c02d,195,4.8,2.8
2022-06-21T08:00:00,13,13,7,8.9,76,683,21.4,319,d,0,902,76,1023,0,319,16,Few clouds,801,c02d,235,4.4,1
2022-06-21T09:00:00,15,15,80,6.8,90,775,30.8,480,d,0,898,58,1022,0,278,16,Overcast clouds,804,c04d,270,4,2.6
2022-06-21T10:00:00,18,18,12,6.8,100,835,40.1,632,d,0,899,48,1022,0,632,16,Few clouds,801,c02d,230,4,3.1
2022-06-21T11:00:00,20,19.1,24,6,108,875,48.9,761,d,0,900,40,1022,0,756,16,Scattered clouds,802,c02d,20,4.4,2.1
2022-06-21T12:00:00,21,20.1,8,5.8,113,899,56.5,856,d,0,900,37,1021,0,856,16,Few clouds,801,c02d,105,4,1.5
2022-06-21T13:00:00,20,19,96,4.9,115,912,61.4,908,d,0,900,37,1021,0,197,16,Overcast clouds,804,c04d,190,6.4,3.1
2022-06-21T14:00:00,21,20,11,3.7,116,913,62,915,d,0,899,32,1020,0,915,16,Few clouds,801,c02d,250,6.4,4.1
2022-06-21T15:00:00,22,21.2,52,5.8,114,904,58.1,874,d,0,899,35,1020,0,789,16,Broken clouds,803,c03d,180,7,2.6
2022-06-21T16:00:00,22,21,84,3.6,109,883,51.1,790,d,0,899,30,1019,0,397,16,Overcast clouds,804,c04d,250,7,2.6
2022-06-21T17:00:00,22,21,93,2.7,102,847,42.5,669,d,0,899,28,1019,0,199,16,Overcast clouds,804,c04d,300,12,8.2
2022-06-21T18:00:00,23,22.1,74,3.5,93,793,33.3,522,d,0,898,28,1018,0,353,16,Overcast clouds,804,c04d,250,8,4.1
2022-06-21T19:00:00,22,21,15,2.7,80,711,23.9,362,d,0,898,28,1017,0,361,16,Few clouds,801,c02d,260,7,6.2
2022-06-21T20:00:00,22,21,100,2.7,63,582,14.7,204,d,0,897,28,1017,0,83,16,Overcast clouds,804,c04d,280,7,4.1
2022-06-21T21:00:00,20,18.9,79,3.7,38,350,6.2,67,d,0,897,34,1016,0,40,16,Overcast clouds,804,c04d,230,5.1,5.1
2022-06-21T22:00:00,19,17.9,78,4,0,0,-1.4,0,n,0,896,37,1016,0,0,16,Overcast clouds,804,c04n,240,4.4,3.6
2022-06-21T23:00:00,18,18,92,4.9,0,0,-7.8,0,n,0,895,42,1016,0,0,16,Overcast clouds,804,c04n,200,4,2.6
2022-06-22T00:00:00,17,17,93,5,0,0,-12.4,0,n,0,895,45,1015,0,0,16,Overcast clouds,804,c04n,220,3.6,1.5
2022-06-22T01:00:00,18,18,94,4.9,0,0,-15,0,n,0,894,42,1015,0,0,16,Overcast clouds,804,c04n,280,3.6,3.1
2022-06-22T02:00:00,17,17,95,5.9,0,0,-15.3,0,n,0,894,48,1015,0,0,16,Overcast clouds,804,c04n,280,3.6,2.1
2022-06-22T03:00:00,17,17,95,5.9,0,0,-13.3,0,n,0,894,48,1014,0,0,16,Overcast clouds,804,c04n,300,4.6,4.6
2022-06-22T04:00:00,18,18,94,4.9,0,0,-9.2,0,n,0,893,42,1014,0,0,16,Overcast clouds,804,c04n,290,4.6,4.6
2022-06-22T05:00:00,16,16,95,5,0,0,-3.3,0,n,0,894,48,1014,0,0,16,Overcast clouds,804,c04n,310,3.6,3.6
2022-06-22T06:00:00,16,16,94,5.9,29,250,4,38,d,0,893,51,1014,0,39,16,Overcast clouds,804,c04n,220,2.4,2.1
2022-06-22T07:00:00,16,16,87,7,57,533,12.4,164,d,0,893,55,1014,0,72,16,Overcast clouds,804,c04d,270,2.8,1.5
2022-06-22T08:00:00,19,18.1,43,6.8,76,682,21.4,318,d,0,893,45,1013,0,302,16,Broken clouds,803,c03d,240,2.8,1.5
2022-06-22T09:00:00,20,19.2,32,7.7,90,774,30.7,479,d,0,894,45,1013,0,470,16,Scattered clouds,802,c02d,160,3.6,2.6
2022-06-22T10:00:00,21,20.3,5,8,100,835,40,631,d,0,894,43,1013,0,631,16,Few clouds,801,c02d,170,5.2,3.1
2022-06-22T11:00:00,21,20.4,30,8.9,108,875,48.9,760,d,0,894,46,1012,0,749,16,Scattered clouds,802,c02d,195,6,1
2022-06-22T12:00:00,22,21.3,21,7.8,113,899,56.5,855,d,0,893,40,1011,0,851,16,Scattered clouds,802,c02d,215,8,2.1
2022-06-22T13:00:00,24,23.3,4,5.8,115,912,61.3,908,d,0,890,31,1010,0,908,16,Few clouds,801,c02d,240,8,4.6
2022-06-22T14:00:00,23,22.2,25,5,116,913,62,914,d,0,893,31,1010,0,907,16,Scattered clouds,802,c02d,230,7,4.6
2022-06-22T15:00:00,24,23.2,84,3.9,114,904,58.1,874,d,0,892,27,1009,0,439,16,Overcast clouds,804,c04d,270,9,6.2
2022-06-22T16:00:00,24,23.2,93,4.9,109,883,51.1,790,d,0,892,29,1008,0,234,16,Overcast clouds,804,c04d,240,9,5.7
2022-06-22T17:00:00,24,23.2,44,3.9,103,847,42.5,669,d,0,891,27,1009,0,632,16,Broken clouds,803,c03d,260,10,7.2
2022-06-22T18:00:00,19,18.3,59,8.9,93,793,33.3,523,d,0,892,52,1011,0,445,16,Broken clouds,803,c03d,360,17,11.3
2022-06-22T19:00:00,17,17,62,7.9,80,712,23.9,362,d,0,891,55,1012,0,298,16,Broken clouds,803,c03d,10,12,10.3
2022-06-22T20:00:00,16,16,92,7,63,582,14.8,204,d,0,895,55,1012,0,66,16,Overcast clouds,804,c04d,20,12,8.8
2022-06-22T21:00:00,14,14,26,8,38,351,6.2,67,d,0,891,67,1012,0,66,16,Scattered clouds,802,c02d,30,9,6.7
2022-06-22T22:00:00,12,12,100,7.9,0,0,-1.4,0,n,0,890,76,1013,0,0,16,Overcast clouds,804,c04n,70,5.6,3.1
2022-06-22T23:00:00,12,12,100,8.8,0,0,-7.7,0,n,0,889,81,1013,0,0,16,Overcast clouds,804,c04n,120,6.4,2.8
2022-06-23T00:00:00,12,12,85,8.8,0,0,-12.4,0,n,0,890,81,1013,0,0,16,Overcast clouds,804,c04n,170,5.2,2.1
2022-06-23T01:00:00,12,12,87,7.9,0,0,-15,0,n,0,890,76,1012,0,0,16,Overcast clouds,804,c04n,180,2.1,2.1
2022-06-23T02:00:00,11,11,85,8.9,0,0,-15.3,0,n,0,889,87,1012,0,0,16,Overcast clouds,804,c04n,200,3.1,3.1
2022-06-23T03:00:00,12,12,85,7.9,0,0,-13.3,0,n,0.5,888,76,1011,0,0,16,Overcast clouds,804,c04n,190,2.4,1
2022-06-23T04:00:00,12,12,81,7.9,0,0,-9.2,0,n,0.5,888,76,1011,0,0,16,Overcast clouds,804,c04n,140,3.2,0.8
2022-06-23T05:00:00,11,11,44,7.9,0,0,-3.3,0,n,1,888,81,1010,0,0,16,Light rain,500,r01n,90,4.4,2.1
2022-06-23T06:00:00,10,10,94,8.9,29,248,4,37,d,1,887,93,1011,0,39,4,Light rain,500,r01n,80,6.4,4.6
2022-06-23T07:00:00,11,11,95,9.9,57,532,12.3,163,d,1,887,93,1011,0,91,8,Light rain,500,r01d,80,6,4.6
2022-06-23T08:00:00,11,11,94,9.9,76,682,21.3,317,d,1,887,93,1011,0,76,8,Light rain,500,r01d,120,8,2.6
2022-06-23T09:00:00,11,11,90,9.9,90,774,30.7,479,d,0.5,887,93,1011,0,163,1,Haze,721,a03d,40,6.8,2.6
2022-06-23T10:00:00,8,8,78,8,100,834,40,631,d,0.5,887,100,1012,0,387,16,Fog,741,a05d,20,9,6.7
2022-06-23T11:00:00,11,11,50,8.9,108,874,48.9,760,d,0.5,885,87,1011,0,695,16,Broken clouds,803,c03d,30,9,6.2
2022-06-23T12:00:00,10,10,81,7.9,113,899,56.4,855,d,0.5,886,87,1012,0,479,13,Overcast clouds,804,c04d,10,5.2,4.6
2022-06-23T13:00:00,10,10,100,6.9,115,911,61.3,908,d,2,892,81,1012,0,183,16,Light rain,500,r01d,40,10,5.1
2022-06-23T14:00:00,12,12,84,6.9,116,913,62,914,d,1.5,887,71,1012,0,451,16,Light rain,500,r01d,10,9,5.1
2022-06-23T15:00:00,11,11,86,6,114,904,58.1,874,d,0,888,71,1013,0,403,16,Overcast clouds,804,c04d,340,9,6.7
2022-06-23T16:00:00,10,10,88,5,109,883,51.2,790,d,0,888,71,1013,0,330,16,Overcast clouds,804,c04d,10,14,10.3
2022-06-23T17:00:00,12,12,100,4,103,847,42.6,670,d,0,888,58,1013,0,170,16,Overcast clouds,804,c04d,340,10,6.2
2022-06-23T18:00:00,11,11,86,1.8,93,793,33.3,523,d,2.5,889,53,1014,0,230,16,Light rain,500,r01d,340,12,9.3
2022-06-23T19:00:00,11,11,95,1.8,80,712,23.9,363,d,0.5,889,53,1014,0,89,16,Overcast clouds,804,c04d,340,12,7.7
2022-06-23T20:00:00,10,10,37,2.8,63,583,14.8,204,d,0,889,61,1015,0,198,16,Scattered clouds,802,c02d,340,10,8.2
2022-06-23T21:00:00,10,10,100,1.9,38,351,6.2,68,d,0,888,57,1015,0,45,16,Overcast clouds,804,c04d,330,8,5.1
2022-06-23T22:00:00,10,10,100,1.9,0,0,-1.4,0,n,0,889,57,1015,0,0,16,Overcast clouds,804,c04n,320,4.1,4.1
2022-06-23T23:00:00,9,9,100,1.9,0,0,-7.7,0,n,0,889,61,1015,0,0,16,Overcast clouds,804,c04n,330,9,3.6
2022-06-24T00:00:00,8,8,100,3.8,0,0,-12.4,0,n,0,889,75,1016,0,0,16,Overcast clouds,804,c04n,340,10,6.2
2022-06-24T01:00:00,8,8,80,3.8,0,0,-15,0,n,0,889,75,1016,0,0,13,Overcast clouds,804,c04n,340,8,5.7
2022-06-24T02:00:00,8,8,81,3.8,0,0,-15.3,0,n,0.25,888,75,1016,0,0,16,Overcast clouds,804,c04n,300,10,7.7
2022-06-24T03:00:00,8,8,82,3.8,0,0,-13.4,0,n,0.5,889,75,1016,0,0,11,Overcast clouds,804,c04n,310,11,8.8
2022-06-24T04:00:00,7,2.7,89,5,0,0,-9.3,0,n,1,889,87,1017,0,0,13,Light rain,500,r01n,310,10,8.2
2022-06-24T05:00:00,7,3.4,90,5.9,0,0,-3.4,0,n,1,889,93,1018,0,0,16,Light rain,500,r01n,340,9,6.2
2022-06-24T06:00:00,8,8,89,6,29,245,3.9,37,d,0.5,891,87,1018,0,44,6,Overcast clouds,804,c04n,350,9,6.7
2022-06-24T07:00:00,8,8,91,6.9,57,531,12.3,162,d,0,891,93,1019,0,113,16,Overcast clouds,804,c04d,350,10,7.2
2022-06-24T08:00:00,8,8,91,6,75,681,21.3,316,d,0,892,87,1020,0,110,16,Overcast clouds,804,c04d,360,16,9.8
2022-06-24T09:00:00,9,9,88,5,90,773,30.6,478,d,0.5,893,76,1021,0,199,16,Overcast clouds,804,c04d,350,15,10.3
2022-06-24T10:00:00,9,9,90,5,100,834,40,630,d,0.5,894,76,1022,0,234,16,Overcast clouds,804,c04d,360,16,11.3
2022-06-24T11:00:00,9,9,88,5,108,874,48.8,759,d,0,894,76,1023,0,317,16,Overcast clouds,804,c04d,360,16,10.8
2022-06-24T12:00:00,11,11,87,2.8,113,899,56.4,854,d,0,895,57,1024,0,375,16,Overcast clouds,804,c04d,350,17,11.8
2022-06-24T13:00:00,12,12,75,5.9,115,911,61.3,907,d,0,897,66,1024,0,600,16,Overcast clouds,804,c04d,350,16,10.8
2022-06-24T14:00:00,12,12,81,4,116,913,62,914,d,0,898,58,1025,0,512,16,Overcast clouds,804,c04d,340,15,10.8
2022-06-24T15:00:00,12,12,37,5,114,904,58.1,874,d,0,898,62,1026,0,847,16,Scattered clouds,802,c02d,330,14,11.3
2022-06-24T16:00:00,13,13,80,2.8,109,883,51.2,790,d,0,899,50,1026,0,457,16,Overcast clouds,804,c04d,350,14,10.3
2022-06-24T17:00:00,14,14,46,2,103,847,42.6,670,d,0,900,44,1026,0,627,16,Broken clouds,803,c03d,360,13,9.8
2022-06-24T18:00:00,15,15,78,3.8,93,793,33.3,523,d,0,900,47,1026,0,321,16,Overcast clouds,804,c04d,360,12,8.2
2022-06-24T19:00:00,14,14,77,2.9,80,712,23.9,363,d,0,901,47,1027,0,229,16,Overcast clouds,804,c04d,10,11,8.2
2022-06-24T20:00:00,14,14,79,2.9,63,583,14.8,205,d,0,901,47,1028,0,122,16,Overcast clouds,804,c04d,350,10,6.7
2022-06-24T21:00:00,12,12,78,4,38,351,6.2,68,d,0,902,58,1029,0,42,16,Overcast clouds,804,c04d,360,7.2,6.2
2022-06-24T22:00:00,11,11,84,4,0,0,-1.4,0,n,0,902,62,1029,0,0,16,Overcast clouds,804,c04n,350,5.6,5.1
2022-06-24T23:00:00,10,10,84,5,0,0,-7.7,0,n,0,902,71,1030,0,0,16,Overcast clouds,804,c04n,10,6.2,6.2
2022-06-25T00:00:00,10,10,85,5,0,0,-12.4,0,n,0,902,71,1030,0,0,16,Overcast clouds,804,c04n,330,3.6,3.6
2022-06-25T01:00:00,9,9,83,5,0,0,-15,0,n,0,902,76,1030,0,0,16,Overcast clouds,804,c04n,340,4.8,4.1
2022-06-25T02:00:00,10,10,85,4,0,0,-15.4,0,n,0,902,66,1030,0,0,16,Overcast clouds,804,c04n,330,5.2,4.1
2022-06-25T03:00:00,10,10,82,4,0,0,-13.4,0,n,0,902,66,1031,0,0,16,Overcast clouds,804,c04n,320,5.2,5.1
2022-06-25T04:00:00,9,9,74,3,0,0,-9.3,0,n,0,902,66,1031,0,0,16,Overcast clouds,804,c04n,340,5.2,3.6
2022-06-25T05:00:00,8,8,79,2.9,0,0,-3.4,0,n,0,902,70,1031,0,0,16,Overcast clouds,804,c04n,340,5.2,4.6
2022-06-25T06:00:00,8,8,81,1.8,28,243,3.9,36,d,0,902,65,1031,0,48,16,Overcast clouds,804,c04n,340,5.2,3.6
2022-06-25T07:00:00,9,9,39,3,56,530,12.2,161,d,0,902,66,1031,0,155,16,Scattered clouds,802,c02d,330,5.2,3.6
2022-06-25T08:00:00,11,11,5,2.8,75,680,21.2,315,d,0,903,57,1031,0,315,16,Few clouds,801,c02d,340,5.2,3.6
2022-06-25T09:00:00,13,13,3,3.9,89,773,30.6,477,d,0,904,54,1031,0,477,16,Few clouds,801,c02d,320,6.4,4.1
2022-06-25T10:00:00,14,14,0,2.9,100,834,39.9,629,d,0,905,47,1031,0,629,16,Clear Sky,800,c01d,330,6,4.1
2022-06-25T11:00:00,15,15,4,2.9,108,874,48.8,758,d,0,905,44,1031,0,758,16,Few clouds,801,c02d,50,5.6,2.6
2022-06-25T12:00:00,16,16,5,2.8,113,899,56.3,853,d,0,906,41,1031,0,853,16,Few clouds,801,c02d,55,4.8,2.1
2022-06-25T13:00:00,17,17,5,4,115,911,61.2,907,d,0,906,42,1031,0,907,16,Few clouds,801,c02d,60,4,2.6
2022-06-25T14:00:00,16,16,4,1.7,116,913,61.9,914,d,0,906,38,1030,0,914,16,Few clouds,801,c02d,160,4.4,1.5
2022-06-25T15:00:00,18,18,5,2.7,114,903,58.1,874,d,0,906,36,1030,0,874,16,Few clouds,801,c02d,185,4.8,3.1
2022-06-25T16:00:00,17,17,6,1.8,109,882,51.2,790,d,0,906,36,1030,0,790,16,Few clouds,801,c02d,205,5.2,1.2
2022-06-25T17:00:00,19,17.7,5,0.6,103,847,42.6,670,d,0,905,29,1029,0,670,16,Few clouds,801,c02d,230,5.2,2.1
2022-06-25T18:00:00,19,17.8,3,2.8,93,793,33.3,523,d,0,906,34,1029,0,523,16,Few clouds,801,c02d,190,4.8,1.5
2022-06-25T19:00:00,19,17.8,0,2.8,80,712,23.9,363,d,0,905,34,1028,0,363,16,Clear Sky,800,c01d,150,5.2,2.6
2022-06-25T20:00:00,18,18,0,3.9,63,583,14.8,205,d,0,905,39,1028,0,205,16,Clear Sky,800,c01d,150,8,6.2
2022-06-25T21:00:00,17,17,0,5,38,351,6.2,68,d,0,904,45,1028,0,68,16,Clear Sky,800,c01d,160,8,4.6
2022-06-25T22:00:00,15,15,0,5,0,0,-1.4,0,n,0,904,51,1028,0,0,16,Clear Sky,800,c01n,170,4.6,4.6
2022-06-25T23:00:00,13,13,0,4.9,0,0,-7.8,0,n,0,903,58,1028,0,0,16,Clear Sky,800,c01n,180,4.1,4.1
2022-06-26T00:00:00,12,12,0,5.9,0,0,-12.4,0,n,0,903,66,1028,0,0,16,Clear Sky,800,c01n,180,3.2,3.1
2022-06-26T01:00:00,12,12,1,5,0,0,-15.1,0,n,0,902,62,1028,0,0,16,Clear Sky,800,c01n,170,4,3.1
2022-06-26T02:00:00,11,11,1,4.9,0,0,-15.4,0,n,0,902,66,1028,0,0,16,Clear Sky,800,c01n,190,3.6,1.5
2022-06-26T03:00:00,11,11,1,4.9,0,0,-13.4,0,n,0,901,66,1028,0,0,16,Clear Sky,800,c01n,210,3.6,2.1
2022-06-26T04:00:00,11,11,2,4.9,0,0,-9.4,0,n,0,901,66,1027,0,0,16,Few clouds,801,c02n,240,4,3.6
2022-06-26T05:00:00,9,9,5,3.8,0,0,-3.5,0,n,0,901,70,1027,0,0,16,Few clouds,801,c02n,220,4,3.1
2022-06-26T06:00:00,8,8,0,2.9,28,240,3.8,35,d,0,900,70,1027,0,35,16,Clear Sky,800,c01n,210,4.4,1.5
2022-06-26T07:00:00,10,10,1,5,56,529,12.1,160,d,0,900,71,1027,0,160,16,Clear Sky,800,c01d,210,4.8,2.1
2022-06-26T08:00:00,14,14,5,3.8,75,680,21.1,314,d,0,900,50,1026,0,314,16,Few clouds,801,c02d,190,4.8,2.4
2022-06-26T09:00:00,17,17,7,5,89,772,30.5,476,d,0,902,45,1026,0,476,16,Few clouds,801,c02d,165,4.4,1.6
2022-06-26T10:00:00,19,18,26,4.7,100,833,39.8,628,d,0,903,39,1026,0,622,16,Scattered clouds,802,c02d,145,4,1
2022-06-26T11:00:00,21,19.9,85,1.8,108,873,48.7,757,d,0,903,28,1025,0,365,16,Overcast clouds,804,c04d,120,4,1
2022-06-26T12:00:00,21,19.8,84,0.8,113,898,56.3,853,d,0,904,26,1025,0,429,16,Overcast clouds,804,c04d,100,4,2.1
2022-06-26T13:00:00,22,20.8,44,-1.3,115,911,61.2,906,d,0,904,21,1025,0,856,16,Broken clouds,803,c03d,80,4,3.1
2022-06-26T14:00:00,22,20.9,5,0.5,116,913,61.9,913,d,0,904,24,1025,0,913,16,Few clouds,801,c02d,100,3.6,1.5
2022-06-26T15:00:00,23,22,5,0.8,114,903,58.1,873,d,0,904,23,1024,0,873,16,Few clouds,801,c02d,100,3.6,3.1
2022-06-26T16:00:00,24,23.1,0,1.6,109,882,51.2,790,d,0,904,23,1024,0,790,16,Clear Sky,800,c01d,80,4,3.1
2022-06-26T17:00:00,24,23,0,-1,103,847,42.6,670,d,0,904,19,1023,0,670,16,Clear Sky,800,c01d,80,4.6,4.6
2022-06-26T18:00:00,24,23.1,1,1.6,93,793,33.3,523,d,0,903,23,1023,0,523,16,Clear Sky,800,c01d,90,5.1,5.1
2022-06-26T19:00:00,23,22.1,13,3,80,712,24,363,d,0,903,27,1023,0,363,16,Few clouds,801,c02d,140,4,2.6
2022-06-26T20:00:00,22,21,18,2.7,63,583,14.8,205,d,0,903,28,1023,0,204,16,Few clouds,801,c02d,140,5.7,5.7
2022-06-26T21:00:00,21,19.9,11,2.8,38,351,6.2,68,d,0,902,30,1023,0,68,16,Few clouds,801,c02d,130,4.6,4.6
2022-06-26T22:00:00,19,17.8,5,1.9,0,0,-1.4,0,n,0,902,32,1023,0,0,16,Few clouds,801,c02n,150,3.6,2.6
2022-06-26T23:00:00,18,18,3,2.7,0,0,-7.8,0,n,0,901,36,1023,0,0,16,Few clouds,801,c02n,150,3.6,1.5
2022-06-27T00:00:00,17,17,3,4,0,0,-12.4,0,n,0,901,42,1023,0,0,16,Few clouds,801,c02n,135,3.6,1
2022-06-27T01:00:00,16,16,1,5,0,0,-15.1,0,n,0,901,48,1023,0,0,16,Clear Sky,800,c01n,115,3.6,2
2022-06-27T02:00:00,13,13,2,4.9,0,0,-15.4,0,n,0,901,58,1023,0,0,16,Few clouds,801,c02n,100,3.6,1.5
2022-06-27T03:00:00,12,12,5,5,0,0,-13.5,0,n,0,899,62,1024,0,0,16,Few clouds,801,c02n,80,3.2,1
2022-06-27T04:00:00,10,10,0,5,0,0,-9.4,0,n,0,899,71,1024,0,0,16,Clear Sky,800,c01n,20,2.8,2.6
2022-06-27T05:00:00,9,9,1,5,0,0,-3.5,0,n,0,898,76,1024,0,0,16,Clear Sky,800,c01n,350,3.6,3.6
2022-06-27T06:00:00,10,10,1,5,28,236,3.8,35,d,0,898,71,1024,0,35,16,Clear Sky,800,c01n,350,3.1,3.1
2022-06-27T07:00:00,12,12,34,5.9,56,527,12.1,159,d,0,899,66,1024,0,155,16,Scattered clouds,802,c02d,350,4,2.6
2022-06-27T08:00:00,15,15,1,6.8,75,679,21.1,313,d,0,899,58,1024,0,313,16,Clear Sky,800,c01d,340,4,3.1
2022-06-27T09:00:00,17,17,5,6.8,89,772,30.4,475,d,0,900,51,1023,0,475,16,Few clouds,801,c02d,20,4,2.1
2022-06-27T10:00:00,18,18,7,6.8,100,833,39.8,627,d,0,901,48,1023,0,627,16,Few clouds,801,c02d,70,4,2.1
2022-06-27T11:00:00,19,18.2,17,7.8,108,873,48.6,756,d,0,901,48,1022,0,754,16,Few clouds,801,c02d,290,4.8,1.5
2022-06-27T12:00:00,21,20.2,23,6.9,113,898,56.2,852,d,0,901,40,1022,0,847,16,Scattered clouds,802,c02d,100,6.4,1.5
2022-06-27T13:00:00,23,22.3,25,6.7,115,911,61.1,906,d,0,901,35,1021,0,899,16,Scattered clouds,802,c02d,190,6,4.6
2022-06-27T14:00:00,24,23.3,3,6.7,116,912,61.9,913,d,0,902,33,1021,0,913,16,Few clouds,801,c02d,170,6,2.6
2022-06-27T15:00:00,24,23.4,1,7.6,114,903,58.1,873,d,0,902,35,1021,0,873,16,Clear Sky,800,c01d,120,5.6,3.1
2022-06-27T16:00:00,24,23.4,11,7.6,109,882,51.2,790,d,0,902,35,1021,0,790,16,Few clouds,801,c02d,90,5.6,4.6
2022-06-27T17:00:00,24,23.3,25,6.7,103,847,42.6,670,d,0,901,33,1021,0,665,16,Scattered clouds,802,c02d,95,5.2,3.6
2022-06-27T18:00:00,24,23.4,25,8.8,93,793,33.3,523,d,0,901,38,1020,0,519,16,Scattered clouds,802,c02d,100,4.4,2.1
2022-06-27T19:00:00,23,22.3,45,7.9,80,712,24,363,d,0,901,38,1020,0,341,16,Broken clouds,803,c03d,90,8,4.1
2022-06-27T20:00:00,23,22.3,12,6.7,63,583,14.8,205,d,0,900,35,1019,0,205,16,Few clouds,801,c02d,120,8,3.6
2022-06-27T21:00:00,21,20.4,93,8.9,38,351,6.2,68,d,0,900,46,1020,0,58,16,Overcast clouds,804,c04d,90,13,3.6
2022-06-27T22:00:00,18,18,93,11.8,0,0,-1.4,0,n,0,900,67,1023,0,0,16,Overcast clouds,804,c04n,40,17,13.4
2022-06-27T23:00:00,15,15,90,10.8,0,0,-7.8,0,n,0,904,76,1023,0,0,16,Overcast clouds,804,c04n,30,12,7.2
2022-06-28T00:00:00,14,14,90,11,0,0,-12.5,0,n,0,900,82,1024,0,0,16,Overcast clouds,804,c04n,50,4.6,4.6
2022-06-28T01:00:00,14,14,86,11.9,0,0,-15.1,0,n,0,900,87,1025,0,0,16,Overcast clouds,804,c04n,10,3.6,2.1
2022-06-28T02:00:00,14,14,81,11,0,0,-15.5,0,n,0,901,82,1024,0,0,16,Overcast clouds,804,c04n,330,3.2,1
2022-06-28T03:00:00,13,13,75,10.9,0,0,-13.6,0,n,0,901,87,1024,0,0,16,Overcast clouds,804,c04n,20,2.8,2.1
2022-06-28T04:00:00,13,13,34,10.9,0,0,-9.5,0,n,0,900,87,1023,0,0,16,Scattered clouds,802,c02n,10,2.8,1
2022-06-28T05:00:00,12,12,24,9.9,0,0,-3.6,0,n,0,899,87,1022,0,0,16,Scattered clouds,802,c02n,130,2.4,1
2022-06-28T06:00:00,12,12,12,10.9,27,233,3.7,34,d,0,898,93,1022,0,33,16,Few clouds,801,c02n,140,3.6,2.6
2022-06-28T07:00:00,13,13,12,10.9,56,526,12,158,d,0,898,87,1021,0,153,0,Haze,721,a03d,140,4.8,4.1
2022-06-28T08:00:00,14,14,14,11,75,678,21,312,d,0,897,82,1021,0,302,10,Few clouds,801,c02d,150,6.4,4.1
2022-06-28T09:00:00,15,15,21,10.8,89,771,30.4,473,d,0,898,76,1021,0,456,16,Scattered clouds,802,c02d,160,6.8,4.1
2022-06-28T10:00:00,17,17,38,10.8,100,833,39.7,626,d,0,898,67,1019,0,585,16,Scattered clouds,802,c02d,150,10,5.1
2022-06-28T11:00:00,19,18.5,97,10.8,107,873,48.6,755,d,0,897,59,1019,0,119,16,Overcast clouds,804,c04d,170,10,7.2
2022-06-28T12:00:00,20,19.5,80,11,113,898,56.1,851,d,0,897,56,1018,0,466,16,Overcast clouds,804,c04d,170,11,8.2
2022-06-28T13:00:00,21,20.4,35,9.9,115,911,61.1,905,d,0,897,49,1017,0,882,16,Scattered clouds,802,c02d,180,12,9.3
2022-06-28T14:00:00,20,19.5,94,11,116,912,61.8,912,d,0,893,56,1016,0,218,16,Overcast clouds,804,c04d,150,11,7.7
2022-06-28T15:00:00,20,19.4,100,9.9,114,903,58.1,873,d,0.5,892,52,1015,0,201,16,Overcast clouds,804,c04d,160,10,7.7
2022-06-28T16:00:00,22,21.5,75,10.8,109,882,51.1,790,d,0.5,895,49,1014,0,498,16,Overcast clouds,804,c04d,150,8,4.6
2022-06-28T17:00:00,21,20.5,25,10.8,102,847,42.6,670,d,0.5,895,52,1014,0,644,16,Scattered clouds,802,c02d,160,9,6.2
2022-06-28T18:00:00,21,20.6,89,11.9,93,793,33.3,523,d,0.5,894,56,1011,0,189,16,Overcast clouds,804,c04d,150,10,6.7
2022-06-28T19:00:00,19,18.8,94,13.8,80,712,23.9,363,d,1.25,891,72,1011,0,79,16,Light rain,500,r01d,120,6.4,5.7
2022-06-28T20:00:00,19,19,96,14.9,63,583,14.8,204,d,2,890,77,1011,0,85,13,Light rain,500,r01d,320,6.8,3.1
2022-06-28T21:00:00,17,17,46,15,38,350,6.2,67,d,0,890,88,1010,0,60,16,Broken clouds,803,c03d,310,5.2,3.6
2022-06-28T22:00:00,16,16,0,13.8,0,0,-1.5,0,n,0,889,87,1009,0,0,16,Clear Sky,800,c01n,100,4,3.6
2022-06-28T23:00:00,15,15,0,13.9,0,0,-7.8,0,n,0,888,93,1009,0,0,16,Clear Sky,800,c01n,60,8,3.1
2022-06-29T00:00:00,13,13,0,11.9,0,0,-12.5,0,n,0,888,93,1010,0,0,16,Clear Sky,800,c01n,360,7,4.6
2022-06-29T01:00:00,13,13,0,10.9,0,0,-15.2,0,n,0,887,87,1010,0,0,16,Clear Sky,800,c01n,360,4.8,4.1
2022-06-29T02:00:00,13,13,0,10,0,0,-15.6,0,n,0,887,82,1010,0,0,16,Clear Sky,800,c01n,350,4.4,3.1
2022-06-29T03:00:00,11,11,0,8.9,0,0,-13.6,0,n,0,887,87,1010,0,0,16,Clear Sky,800,c01n,360,5.2,2.1
2022-06-29T04:00:00,12,12,9,8.8,0,0,-9.5,0,n,0,886,81,1010,0,0,16,Few clouds,801,c02n,350,6,2.1
2022-06-29T05:00:00,11,11,1,7.9,0,0,-3.7,0,n,0,887,81,1010,0,0,16,Clear Sky,800,c01n,340,6,2.6
2022-06-29T06:00:00,11,11,40,7.9,27,229,3.6,33,d,0,887,81,1010,0,32,16,Scattered clouds,802,c02n,290,6.4,2.8
2022-06-29T07:00:00,13,13,77,8.9,56,524,11.9,157,d,0,887,76,1010,0,99,16,Overcast clouds,804,c04d,240,7.2,1.5
2022-06-29T08:00:00,14,14,93,8,75,677,21,311,d,0,887,67,1010,0,92,16,Overcast clouds,804,c04d,260,9,1
2022-06-29T09:00:00,13,13,75,7.9,89,771,30.3,472,d,0.75,888,71,1011,0,312,10,Light rain,500,r01d,280,9,6.7
2022-06-29T10:00:00,11,11,85,6.9,100,832,39.6,625,d,0.75,888,76,1012,0,301,8,Light rain,500,r01d,240,12,8.2
2022-06-29T11:00:00,15,15,93,5,107,873,48.5,754,d,0.5,887,51,1011,0,224,16,Overcast clouds,804,c04d,290,11.6,2.1
2022-06-29T12:00:00,16,16,39,7,112,898,56.1,850,d,0,889,55,1011,0,819,16,Scattered clouds,802,c02d,250,10,3.6
2022-06-29T13:00:00,17,17,100,5,115,910,61,904,d,0,889,45,1011,0,205,16,Overcast clouds,804,c04d,290,9,6.2
2022-06-29T14:00:00,15,15,100,5.8,116,912,61.8,912,d,0.75,890,54,1013,0,207,16,Light rain,500,r01d,340,11,7.2
2022-06-29T15:00:00,12,12,87,6.9,114,903,58,872,d,1.5,890,71,1015,0,375,16,Light rain,500,r01d,20,8,5.7
2022-06-29T16:00:00,15,15,100,7.8,109,882,51.1,789,d,1.25,892,62,1014,0,174,16,Light rain,500,r01d,360,7.2,3.6
2022-06-29T17:00:00,16,16,88,7,102,847,42.6,669,d,0.5,891,55,1014,0,279,16,Overcast clouds,804,c04d,10,6.4,4.6
2022-06-29T18:00:00,17,17,88,5.9,93,793,33.3,523,d,1.5,892,48,1015,0,211,16,Light rain,500,r01d,30,9,4.6
2022-06-29T19:00:00,14,14,90,6.8,80,712,23.9,363,d,1,893,62,1016,0,135,16,Light rain,500,r01d,40,9,5.7
2022-06-29T20:00:00,14,14,91,8,63,582,14.8,204,d,0.5,892,67,1017,0,71,16,Overcast clouds,804,c04d,10,6.8,4.1
2022-06-29T21:00:00,13,13,89,7.9,38,349,6.2,67,d,0,893,71,1017,0,64,16,Overcast clouds,804,c04d,20,4.8,1.5
2022-06-29T22:00:00,13,13,85,8.9,0,0,-1.5,0,n,0,893,76,1018,0,0,16,Overcast clouds,804,c04n,20,5.2,3.6
2022-06-29T23:00:00,12,12,48,8.8,0,0,-7.9,0,n,0,894,81,1019,0,0,16,Broken clouds,803,c03n,360,6,5.7
